{"type":"FeatureCollection","features":[{"type":"Feature","id":"eez.64","geometry":{"type":"MultiPolygon","coordinates":[[[[-56.00569974,13.33470849],[-56.00551682,13.33106086],[-56.00542792,13.32923742],[-56.00508229,13.32193923],[-56.00499847,13.32011556],[-56.00483586,13.316467],[-56.00475713,13.3146436],[-56.00414706,13.30004198],[-56.00407341,13.29821837],[-56.0039311,13.29456899],[-56.00386251,13.2927447],[-56.00359814,13.28544325],[-56.00353462,13.28361878],[-56.00341263,13.27996869],[-56.0033542,13.27814455],[-56.00290667,13.26353725],[-56.00285331,13.26171296],[-56.00275163,13.25806227],[-56.00270334,13.25623735],[-56.00252022,13.24893348],[-56.00247701,13.24710844],[-56.00239563,13.24345725],[-56.0023575,13.2416326],[-56.00207248,13.22702134],[-56.00203943,13.22519659],[-56.00197835,13.22154502],[-56.00195036,13.21971969],[-56.00184849,13.21241428],[-56.00182557,13.21058888],[-56.0017848,13.20693703],[-56.00176696,13.20511207],[-56.00164443,13.1904986],[-56.00163166,13.1886736],[-56.00161118,13.18502158],[-56.00160348,13.18319605],[-56.00158283,13.17588997],[-56.0015802,13.17406443],[-56.00158003,13.17041235],[-56.00158248,13.16858731],[-56.0017073,13.15395571],[-56.00172119,13.15328527],[-56.00174233,13.15254537],[-56.00174088,13.15191736],[-56.00173945,13.15121305],[-56.00173421,13.1482305],[-56.00173309,13.1474699],[-56.00173175,13.14633799],[-56.00173118,13.14573777],[-56.00172692,13.13981483],[-56.00172632,13.13845423],[-56.00172648,13.13792822],[-56.00173787,13.13658153],[-56.00177139,13.1329281],[-56.00179787,13.13110202],[-56.00190696,13.124722],[-56.00193518,13.12312774],[-56.00199359,13.11993836],[-56.00201253,13.1189372],[-56.00203001,13.11834565],[-56.00213718,13.10921919],[-56.00215869,13.10807988],[-56.00220371,13.10580004],[-56.0022272,13.10466045],[-56.00232517,13.10009969],[-56.00235064,13.09896033],[-56.00240355,13.09668103],[-56.00243098,13.09554239],[-56.00279546,13.08093266],[-56.0028435,13.07910821],[-56.00294471,13.07545746],[-56.00299784,13.07363264],[-56.00322059,13.06632974],[-56.00327878,13.06450507],[-56.00340027,13.0608549],[-56.0034635,13.05903089],[-56.00399012,13.04442588],[-56.00405841,13.04260205],[-56.00420013,13.03895258],[-56.0042735,13.03712843],[-56.00457728,13.02982831],[-56.00465572,13.02800437],[-56.00481769,13.02435571],[-56.00490116,13.02253247],[-56.00558978,13.00793391],[-56.0056783,13.0061109],[-56.0058605,13.00246315],[-56.0059541,13.00063989],[-56.00633883,12.99334343],[-56.00643749,12.99152042],[-56.00663992,12.98787369],[-56.00674361,12.98605146],[-56.00759407,12.97146106],[-56.0077028,12.9696391],[-56.00792544,12.9659935],[-56.00803925,12.96417134],[-56.00850486,12.95687939],[-56.00862372,12.95505755],[-56.00886657,12.95141318],[-56.00899045,12.94959215],[-56.01000259,12.93501166],[-56.01013151,12.93319096],[-56.01039453,12.92954794],[-56.01052853,12.9277271],[-56.01107492,12.92044053],[-56.01121397,12.91862005],[-56.01149718,12.91497849],[-56.01164124,12.91315888],[-56.01281487,12.89859001],[-56.01296395,12.89677079],[-56.01326732,12.89313078],[-56.01342148,12.89131147],[-56.01404856,12.88403115],[-56.01420776,12.88221226],[-56.01453129,12.87857392],[-56.01469549,12.87675595],[-56.0160304,12.86220042],[-56.01619962,12.8603829],[-56.01654328,12.85674633],[-56.01671758,12.85492877],[-56.01742523,12.84765555],[-56.01760456,12.84583846],[-56.01796836,12.84220377],[-56.01815268,12.84038766],[-56.01964864,12.8258472],[-56.01983797,12.82403158],[-56.02022186,12.82039889],[-56.02041627,12.81858329],[-56.02120438,12.81131803],[-56.02140381,12.80950295],[-56.02180781,12.80587236],[-56.02201221,12.80405832],[-56.02366899,12.78953463],[-56.0238784,12.78772114],[-56.02430246,12.78409275],[-56.02451694,12.78227933],[-56.02538538,12.77502288],[-56.02560488,12.77321004],[-56.02604902,12.76958396],[-56.02627348,12.7677722],[-56.0280908,12.75326701],[-56.02832025,12.75145586],[-56.02878441,12.74783219],[-56.02901894,12.74602117],[-56.02996757,12.7387744],[-56.03020711,12.736964],[-56.03069131,12.73334286],[-56.03093579,12.7315336],[-56.03291338,12.71704863],[-56.03316284,12.71524002],[-56.03366704,12.71162151],[-56.03392157,12.70981309],[-56.03495025,12.70257685],[-56.03520978,12.70076911],[-56.03573399,12.69715334],[-56.03599845,12.69534679],[-56.038136,12.68088374],[-56.03840543,12.6790779],[-56.03894958,12.67546497],[-56.03922409,12.67365937],[-56.04033266,12.66643451],[-56.04061215,12.66462964],[-56.04117627,12.66101968],[-56.04146067,12.65921605],[-56.04375788,12.64477662],[-56.04404724,12.64297376],[-56.04463127,12.63936684],[-56.04492569,12.63756427],[-56.046114,12.63035165],[-56.04641341,12.62854986],[-56.04701736,12.62494612],[-56.04732167,12.62314563],[-56.04977818,12.60873153],[-56.05008743,12.60693185],[-56.05071125,12.60333137],[-56.05102556,12.60153204],[-56.05229343,12.59433251],[-56.05261271,12.59253402],[-56.05325641,12.58893693],[-56.05358057,12.58713979],[-56.05621995,12.57262136],[-56.05631968,12.57207457],[-56.05656802,12.57071647],[-56.05669251,12.57003767],[-56.05722067,12.56716648],[-56.05736228,12.56639841],[-56.05748789,12.56571931],[-56.05766133,12.56478462],[-56.05879403,12.55869845],[-56.05906301,12.55725802],[-56.059468,12.55510956],[-56.0602665,12.55091161],[-56.06066905,12.54881376],[-56.06210361,12.54140222],[-56.06246471,12.5395507],[-56.0631924,12.53584768],[-56.06355874,12.53399744],[-56.06582098,12.52265611],[-56.066105,12.5212402],[-56.06667645,12.51840746],[-56.06696364,12.51699177],[-56.06811922,12.51132717],[-56.06840945,12.50991236],[-56.06899315,12.50708258],[-56.06928627,12.5056693],[-56.07327992,12.48651781],[-56.07378305,12.48412695],[-56.07479871,12.47934446],[-56.07531081,12.47695477],[-56.07737796,12.46739455],[-56.07789888,12.4650067],[-56.07894981,12.46023158],[-56.0794794,12.45784626],[-56.08375499,12.43875372],[-56.08429332,12.4363703],[-56.08537937,12.43160279],[-56.08592665,12.42922065],[-56.0881345,12.41969092],[-56.08869055,12.41731075],[-56.08981175,12.41255112],[-56.09037644,12.4101736],[-56.09493294,12.39114404],[-56.09521824,12.38995724],[-56.09579167,12.38758155],[-56.0960794,12.38639429],[-56.09723564,12.3816424],[-56.09752563,12.38045532],[-56.09810797,12.37808106],[-56.09840008,12.37689483],[-56.10074814,12.36739683],[-56.10104247,12.36621094],[-56.10163362,12.3638384],[-56.10193021,12.36265271],[-56.10312159,12.35790846],[-56.10342037,12.35672326],[-56.10402029,12.35435276],[-56.10432121,12.35316833],[-56.10642169,12.34493217],[-56.10672331,12.34375396],[-56.10732901,12.34139696],[-56.10763286,12.34021905],[-56.10885318,12.3355061],[-56.10915918,12.33432878],[-56.1097735,12.33197403],[-56.11008157,12.33079757],[-56.11255701,12.32137934],[-56.11286717,12.32020361],[-56.11349,12.31785141],[-56.11380241,12.31667591],[-56.11505703,12.31197247],[-56.11537151,12.31079784],[-56.11600279,12.30844851],[-56.11631916,12.3072754],[-56.12140778,12.28847391],[-56.12204754,12.28612701],[-56.12333639,12.28143293],[-56.12398494,12.27908768],[-56.12659773,12.26970627],[-56.12725487,12.26736333],[-56.1285781,12.26267854],[-56.12924366,12.2603386],[-56.13460704,12.2416113],[-56.1352811,12.23927372],[-56.13663854,12.23459843],[-56.13732136,12.23226263],[-56.14007121,12.22291928],[-56.14076257,12.22058592],[-56.14215424,12.2159204],[-56.14285397,12.21359015],[-56.14849087,12.19494094],[-56.14919907,12.19261318],[-56.15062477,12.18795765],[-56.1513417,12.18563178],[-56.15422797,12.17632845],[-56.1549534,12.17400515],[-56.15641318,12.16935987],[-56.15714693,12.1670398],[-56.16305603,12.14847256],[-56.1637982,12.14615509],[-56.16529185,12.14152029],[-56.16604272,12.13920485],[-56.16906474,12.12994346],[-56.16982407,12.1276307],[-56.17135162,12.12300663],[-56.17211922,12.12069722],[-56.17829917,12.10221581],[-56.17907514,12.09990913],[-56.18063639,12.09529601],[-56.18142103,12.09299147],[-56.1845781,12.08377396],[-56.18537116,12.08147222],[-56.18696613,12.07687033],[-56.1877674,12.07457205],[-56.19421678,12.05618032],[-56.19502638,12.05388489],[-56.19665486,12.04929442],[-56.19747309,12.04700126],[-56.20076451,12.03782954],[-56.2015911,12.0355393],[-56.20325314,12.03096053],[-56.20408789,12.02867387],[-56.21080524,12.01037564],[-56.21115198,12.00943324],[-56.2118478,12.00754647],[-56.21219633,12.00660359],[-56.21359458,12.00282961],[-56.21394466,12.00188689],[-56.21466754,11.99994479],[-56.21499786,11.99905948],[-56.21790623,11.99128168],[-56.21832904,11.99015322],[-56.21855983,11.98953832],[-56.21947089,11.9871146],[-56.22023181,11.98510016],[-56.22174619,11.98111056],[-56.22250643,11.97911734],[-56.22471536,11.97335356],[-56.225269,11.97191391],[-56.22637991,11.96903508],[-56.22693682,11.96759686],[-56.23020258,11.95919163],[-56.23061126,11.95814239],[-56.23143084,11.95604345],[-56.23184141,11.9549946],[-56.23348811,11.95079827],[-56.23390038,11.94975028],[-56.23472691,11.9476544],[-56.2351407,11.94660772],[-56.24053636,11.93299228],[-56.2412125,11.93129283],[-56.24257019,11.9278939],[-56.24325118,11.9261958],[-56.24598595,11.9194034],[-56.2466716,11.91770712],[-56.24804793,11.91431549],[-56.24873805,11.91262152],[-56.2542826,11.89906444],[-56.25497732,11.89737231],[-56.25637217,11.89398806],[-56.25707173,11.89229733],[-56.25988076,11.8855345],[-56.26058495,11.88384564],[-56.26199836,11.88046889],[-56.262707,11.87878238],[-56.26839973,11.86528525],[-56.26911295,11.86360062],[-56.27054479,11.86023146],[-56.27126283,11.85854829],[-56.27414576,11.85181582],[-56.2748684,11.85013457],[-56.27631871,11.84677311],[-56.27704578,11.84509425],[-56.28288598,11.83165865],[-56.2836176,11.82998173],[-56.28508625,11.82662804],[-56.28582267,11.82495263],[-56.28877915,11.81825132],[-56.28952016,11.81657788],[-56.29100718,11.81323208],[-56.29175259,11.81156109],[-56.29773953,11.79818859],[-56.29848946,11.79651957],[-56.29999473,11.79318175],[-56.30074945,11.79151429],[-56.3037791,11.78484492],[-56.30453838,11.78317949],[-56.30606193,11.77984975],[-56.30682558,11.77818681],[-56.31295851,11.76487897],[-56.31372666,11.76321805],[-56.31526837,11.75989648],[-56.31604129,11.75823718],[-56.31914374,11.75160052],[-56.31992119,11.74994329],[-56.32148109,11.74663001],[-56.32226288,11.74497531],[-56.32854103,11.73173369],[-56.32932677,11.7300822],[-56.33090364,11.72677952],[-56.33169413,11.72512968],[-56.33486679,11.718531],[-56.33566178,11.71688328],[-56.33725671,11.71358907],[-56.33805601,11.71194393],[-56.34447413,11.698779],[-56.34527648,11.69713882],[-56.34688654,11.69385882],[-56.34712471,11.69337529],[-56.34847904,11.69059723],[-56.34928125,11.68895737],[-56.3508921,11.68567585],[-56.35169955,11.68403661],[-56.35494078,11.67747894],[-56.35575289,11.67584148],[-56.35738203,11.67256786],[-56.3581984,11.67093303],[-56.36476434,11.65782842],[-56.36558653,11.65619296],[-56.3672363,11.65292247],[-56.36806321,11.65128877],[-56.37138154,11.64475488],[-56.3722129,11.64312339],[-56.37388056,11.63986176],[-56.37471617,11.63823295],[-56.38142495,11.62519919],[-56.38226497,11.6235726],[-56.38395038,11.6203199],[-56.38479508,11.61869513],[-56.38818462,11.61219703],[-56.38903376,11.61057451],[-56.39073696,11.60733087],[-56.39159032,11.60571107],[-56.39844109,11.59274966],[-56.39929622,11.59113704],[-56.40101182,11.58791233],[-56.40187074,11.58630312],[-56.40331141,11.58361194],[-56.40507879,11.5802896],[-56.40593996,11.57867623],[-56.40939772,11.57221932],[-56.41026389,11.57060712],[-56.41200113,11.56738415],[-56.41287149,11.56577471],[-56.41985927,11.55289446],[-56.4207341,11.55128708],[-56.42248912,11.54807294],[-56.42336859,11.54646747],[-56.42689714,11.54004685],[-56.42778099,11.53844374],[-56.42955356,11.53523902],[-56.43044156,11.53363871],[-56.43757352,11.5208265],[-56.43846634,11.51922765],[-56.44025735,11.5160306],[-56.4411548,11.51443371],[-56.44475525,11.5080475],[-56.44565705,11.50645301],[-56.44746552,11.50326559],[-56.44837145,11.50167395],[-56.45564283,11.48893861],[-56.45655305,11.48734938],[-56.45837884,11.48417164],[-56.45929367,11.48258442],[-56.4629636,11.47623702],[-56.46388276,11.47465225],[-56.4657259,11.47148431],[-56.46664914,11.46990244],[-56.47405906,11.45724546],[-56.47442339,11.45662387],[-56.47515372,11.45537937],[-56.47549357,11.45480094],[-56.47698349,11.4522683],[-56.47733665,11.4516687],[-56.47804274,11.45047129],[-56.47842236,11.44982833],[-56.48147749,11.44466047],[-56.48200242,11.44377354],[-56.48279083,11.44244288],[-56.48372757,11.4408669],[-56.48560547,11.43771727],[-56.48654637,11.43614407],[-56.48961201,11.43103403],[-56.49037948,11.42975795],[-56.49191766,11.42720678],[-56.49268786,11.42593255],[-56.49729498,11.4183293],[-56.49787105,11.41738034],[-56.49902539,11.41548232],[-56.4996032,11.41453404],[-56.5019188,11.41074071],[-56.50249807,11.40979353],[-56.50365849,11.4078996],[-56.50423896,11.40695395],[-56.51192321,11.3944581],[-56.51288495,11.39289885],[-56.51481375,11.38978124],[-56.51578002,11.38822414],[-56.51965568,11.38199757],[-56.52062619,11.38044306],[-56.522572,11.3773358],[-56.5235465,11.37578432],[-56.53136653,11.36337123],[-56.53234521,11.36182234],[-56.53430788,11.35872549],[-56.53529106,11.3571788],[-56.53923437,11.35099397],[-56.54022177,11.34944991],[-56.54220133,11.3463636],[-56.54319268,11.34482261],[-56.55114753,11.33249373],[-56.55214304,11.33095537],[-56.55413934,11.32787966],[-56.55513932,11.32634356],[-56.55914979,11.32020118],[-56.56015395,11.31866775],[-56.56216703,11.31560276],[-56.56317511,11.31407244],[-56.57126383,11.3018292],[-56.57227603,11.30030156],[-56.57430572,11.29724734],[-56.57532238,11.295722],[-56.57939953,11.2896228],[-56.58042034,11.28810018],[-56.58246668,11.28505685],[-56.58349138,11.28353739],[-56.59171297,11.27138121],[-56.59274176,11.26986447],[-56.5948046,11.2668321],[-56.59583781,11.2653177],[-56.59998114,11.25926238],[-56.60101847,11.25775075],[-56.60309784,11.25472945],[-56.60413902,11.25322101],[-56.6124925,11.24115332],[-56.61353774,11.23964765],[-56.61563348,11.23663748],[-56.61668312,11.2351342],[-56.62089213,11.22912347],[-56.62194586,11.227623],[-56.624058,11.22462408],[-56.62511554,11.22312684],[-56.63359991,11.21114904],[-56.63466148,11.20965462],[-56.63678985,11.206667],[-56.6378558,11.20517502],[-56.64212999,11.19920957],[-56.64319999,11.19772044],[-56.64534464,11.19474424],[-56.64641842,11.19325839],[-56.65503264,11.18137187],[-56.65611041,11.17988887],[-56.65827118,11.17692414],[-56.65935329,11.17544363],[-56.66369215,11.16952417],[-56.66477829,11.16804655],[-56.6669552,11.16509343],[-56.66804508,11.16361912],[-56.67678813,11.15182527],[-56.67787828,11.15035882],[-56.6788209,11.14909438],[-56.67963811,11.14797946],[-56.68265831,11.14387521],[-56.6841719,11.14182646],[-56.69025205,11.13362873],[-56.69175923,11.1316045],[-56.69478203,11.12756052],[-56.69629602,11.12554294],[-56.70654685,11.11193471],[-56.70990415,11.1074586],[-56.71094956,11.10606852],[-56.71304552,11.10328899],[-56.7140947,11.10190135],[-56.72295841,11.09020912],[-56.72406729,11.08875042],[-56.72629027,11.08583441],[-56.72740344,11.08437829],[-56.73186645,11.07855661],[-56.73298358,11.07710347],[-56.73522241,11.07419939],[-56.73634319,11.07274963],[-56.74533941,11.06114496],[-56.74646484,11.05969722],[-56.74872087,11.05680318],[-56.74985055,11.05535807],[-56.75437959,11.04958053],[-56.7555132,11.04813844],[-56.75778497,11.04525651],[-56.75892221,11.04381785],[-56.76804406,11.03230993],[-56.76918515,11.03087429],[-56.77147251,11.02800452],[-56.77261784,11.02657155],[-56.7772094,11.02084273],[-56.77835862,11.01941282],[-56.78066159,11.01655533],[-56.78181439,11.0151289],[-56.79106077,11.00371906],[-56.79221741,11.0022957],[-56.79453581,10.99945052],[-56.79569665,10.99802987],[-56.8003502,10.99235041],[-56.80151489,10.99093286],[-56.80384877,10.98810013],[-56.80501701,10.98668609],[-56.81438682,10.97537568],[-56.81555884,10.97396475],[-56.81790803,10.97114449],[-56.81908423,10.96973632],[-56.82379921,10.9641069],[-56.82497923,10.96270187],[-56.82734375,10.95989423],[-56.82852728,10.95849275],[-56.8380194,10.94728307],[-56.83850125,10.94671463],[-56.83946689,10.94557675],[-56.83994989,10.94500823],[-56.84188497,10.94273306],[-56.84233448,10.9422051],[-56.84333733,10.94102862],[-56.84382561,10.94045645],[-56.84798837,10.93558399],[-56.84867189,10.93478499],[-56.84986895,10.93338716],[-56.85099645,10.93207404],[-56.85325498,10.92945047],[-56.8543857,10.92814039],[-56.85782601,10.9241646],[-56.85868665,10.92317195],[-56.86041033,10.92118775],[-56.86127279,10.92019689],[-56.86644659,10.91426429],[-56.86709318,10.91352394],[-56.86838814,10.91204337],[-56.86903598,10.91130375],[-56.87163093,10.90834552],[-56.87227974,10.90760696],[-56.87357878,10.90613037],[-56.87422826,10.9053932],[-56.88283276,10.89564084],[-56.88390875,10.8944242],[-56.88606486,10.89199215],[-56.88714409,10.89077774],[-56.89146918,10.88592256],[-56.89255133,10.8847107],[-56.89471914,10.88228889],[-56.89580391,10.88107993],[-56.90450173,10.87140938],[-56.90558937,10.87020297],[-56.90776875,10.86779142],[-56.9088596,10.86658727],[-56.91323115,10.86177321],[-56.91432489,10.86057164],[-56.91651586,10.85817044],[-56.9176122,10.85697179],[-56.92640254,10.84738393],[-56.92750172,10.84618786],[-56.92970416,10.84379703],[-56.93080653,10.84260324],[-56.93522412,10.83783074],[-56.93632936,10.83663956],[-56.9385433,10.83425919],[-56.9396511,10.83307097],[-56.94853313,10.82356667],[-56.94964375,10.82238104],[-56.95186906,10.82001115],[-56.95298284,10.81882784],[-56.95744607,10.81409733],[-56.95856269,10.81291666],[-56.9607994,10.81055734],[-56.96191857,10.80937964],[-56.97089146,10.79995977],[-56.97201341,10.7987847],[-56.97426138,10.79643596],[-56.97538648,10.79526324],[-56.97989493,10.79057515],[-56.98102284,10.78940509],[-56.98328209,10.78706702],[-56.98441252,10.78589997],[-56.99347545,10.77656537],[-56.99460863,10.77540097],[-56.99687905,10.77307359],[-56.99801535,10.77191157],[-57.0025686,10.76726633],[-57.00370769,10.76610699],[-57.00598929,10.7637904],[-57.00713087,10.76263408],[-57.016283,10.75338562],[-57.01742731,10.75223199],[-57.01971996,10.74992619],[-57.02086737,10.74877496],[-57.025465,10.74417299],[-57.02661517,10.74302448],[-57.0289189,10.74072957],[-57.03007152,10.7395841],[-57.03776479,10.73195659],[-57.03931199,10.73042262],[-57.04046733,10.72927986],[-57.042782,10.72699585],[-57.04394041,10.72585552],[-57.04858199,10.72129725],[-57.04974313,10.72015967],[-57.05206878,10.71788664],[-57.05323234,10.71675213],[-57.06256031,10.70767845],[-57.06372655,10.70654667],[-57.06606304,10.70428465],[-57.06723233,10.70315534],[-57.06772258,10.70268298],[-57.07191744,10.69864117],[-57.07308944,10.69751462],[-57.07543679,10.6952637],[-57.07661119,10.69414024],[-57.07743992,10.69334932],[-57.07752289,10.69335113],[-57.15534945,10.69505386],[-57.15472222,10.69944444],[-57.15416667,10.70138889],[-57.15361111,10.705],[-57.15333333,10.70666667],[-57.15305556,10.70833333],[-57.15277778,10.70916667],[-57.15166667,10.71527778],[-57.15166667,10.71583333],[-57.15149852,10.71667406],[-57.15138889,10.71722222],[-57.15111111,10.71805556],[-57.15055556,10.72083333],[-57.15055556,10.72166667],[-57.15027778,10.72305556],[-57.15027778,10.72360113],[-57.15027778,10.72361111],[-57.14994962,10.72541599],[-57.14979935,10.72624247],[-57.14916667,10.72972222],[-57.14870623,10.73202442],[-57.14839724,10.73356936],[-57.1475,10.73805556],[-57.14722222,10.74],[-57.1470141,10.74135281],[-57.14666667,10.74361111],[-57.14638889,10.745],[-57.14637684,10.74499116],[-57.14632437,10.74529216],[-57.14595813,10.74741026],[-57.14550394,10.75003708],[-57.14507895,10.75249501],[-57.14503529,10.75274959],[-57.14477023,10.75429516],[-57.14415758,10.75789728],[-57.14385389,10.75969777],[-57.14319587,10.76363175],[-57.14258431,10.76728803],[-57.14144183,10.77411837],[-57.14114307,10.77591967],[-57.14055017,10.77952502],[-57.14025628,10.7813276],[-57.13908997,10.78854339],[-57.13880102,10.79034675],[-57.13822794,10.79395524],[-57.13794403,10.79575888],[-57.13569038,10.81020452],[-57.1354114,10.81200891],[-57.13485811,10.81562042],[-57.13458402,10.81742605],[-57.133497,10.82465393],[-57.13322786,10.82646029],[-57.13269442,10.83007471],[-57.13243033,10.8318813],[-57.13033542,10.84635027],[-57.13007627,10.84815755],[-57.12956267,10.85177478],[-57.12930842,10.85358325],[-57.12830082,10.86082237],[-57.12805155,10.86263151],[-57.12755783,10.86625144],[-57.12731359,10.86806076],[-57.12537771,10.88255136],[-57.12513843,10.88436132],[-57.12466459,10.88798384],[-57.12443022,10.88979493],[-57.12350221,10.89704444],[-57.12327282,10.89885615],[-57.1228189,10.90248116],[-57.12259456,10.90429299],[-57.120818,10.91880351],[-57.12059862,10.92061593],[-57.12016461,10.92424332],[-57.11995015,10.92605682],[-57.11910186,10.93331585],[-57.11889239,10.93512992],[-57.11847834,10.93875959],[-57.11827392,10.94057372],[-57.11665694,10.95510244],[-57.1164575,10.9569171],[-57.11619687,10.95931886],[-57.11606338,10.96054894],[-57.11586888,10.96236463],[-57.11510043,10.96963234],[-57.11491092,10.97144854],[-57.11453679,10.97508244],[-57.11442454,10.97618764],[-57.1175,10.9765],[-57.22222842,10.98685731],[-57.97866667,11.06166667],[-58.12616667,11.14366667],[-58.85716667,11.54816667],[-59.1865,11.7275],[-59.249,11.76333333],[-59.87933333,12.122],[-59.93516667,12.15333333],[-59.99216667,12.1825],[-60.27583333,12.326],[-60.28861111,12.3325],[-60.2950625,12.35464111],[-60.29558388,12.37704583],[-60.3028436,12.41163549],[-60.30949283,12.44597864],[-60.31553146,12.48007537],[-60.32041258,12.51051608],[-60.32102517,12.51395205],[-60.32648277,12.54781143],[-60.32930139,12.56740877],[-60.34904681,12.7235971],[-60.37195251,12.96332669],[-60.37285517,12.97490475],[-60.37437774,13.00005483],[-60.37492243,13.01269584],[-60.37584037,13.02520271],[-60.37724504,13.05034847],[-60.37820753,13.07547821],[-60.37872772,13.10059194],[-60.37880546,13.12568967],[-60.37873362,13.13062863],[-60.37919798,13.15079877],[-60.37930193,13.17025802],[-60.3795021,13.17590466],[-60.37956815,13.17963123],[-60.37980384,13.18456488],[-60.38156061,13.24207517],[-60.3815781,13.24323763],[-60.36730554,13.28461332],[-60.34236083,13.36114687],[-60.32982191,13.39797549],[-60.30699748,13.45656916],[-60.29195798,13.49521302],[-60.28918255,13.50219201],[-60.23695233,13.63238367],[-60.22995027,13.64855734],[-60.21142565,13.69222205],[-60.19799773,13.72483344],[-60.19199493,13.73808108],[-60.13668263,13.85980501],[-60.03381303,14.05304187],[-60.01588156,14.08695092],[-60.00681773,14.1035343],[-60.00307556,14.11029016],[-60.00246215,14.11140389],[-59.99972222,14.11416667],[-59.996,14.11577778],[-59.70611111,14.40444444],[-59.30555556,14.77805556],[-58.86694444,15.18],[-58.73194444,15.3],[-58.16194444,15.75916667],[-57.5522905,16.0192335],[-57.55133449,16.0185426],[-57.54979818,16.0174323],[-57.54650268,16.01505064],[-57.54499303,16.01395642],[-57.54197524,16.01176279],[-57.54046833,16.01066427],[-57.53444377,16.00625977],[-57.53294003,16.00515723],[-57.52993491,16.00294756],[-57.52843474,16.00184133],[-57.51643526,15.99296709],[-57.51493836,15.99185682],[-57.51194611,15.98963111],[-57.51045198,15.98851657],[-57.5044787,15.98404804],[-57.5029878,15.98292952],[-57.50000839,15.98068791],[-57.49852109,15.97956574],[-57.48923263,15.97233476],[-57.48669264,15.97046661],[-57.48520862,15.96934508],[-57.4822207,15.96711711],[-57.480728,15.96600248],[-57.47900216,15.96471189],[-57.47478688,15.96149836],[-57.47330607,15.96036785],[-57.47034534,15.95810431],[-57.46887394,15.95696299],[-57.45713447,15.94776912],[-57.45527473,15.94630972],[-57.45161194,15.94358982],[-57.44979444,15.94216794],[-57.44253115,15.93646566],[-57.44071885,15.93503786],[-57.43709833,15.93217552],[-57.43529159,15.93074215],[-57.42084564,15.91924081],[-57.41904204,15.91779974],[-57.41543802,15.91491012],[-57.41382175,15.91361018],[-57.41095211,15.91129743],[-57.40940646,15.91007032],[-57.39900882,15.90179079],[-57.39771168,15.90075525],[-57.39511864,15.89867999],[-57.39382379,15.8976411],[-57.38864696,15.89347714],[-57.38735478,15.89243516],[-57.38477237,15.89034759],[-57.38348318,15.88930282],[-57.37347105,15.8811683],[-57.37296624,15.88075773],[-57.37195565,15.87993501],[-57.37147089,15.87953999],[-57.36942984,15.8778751],[-57.3689251,15.87746298],[-57.36791577,15.87663805],[-57.36741158,15.87622557],[-57.36324625,15.87281443],[-57.36247712,15.87218393],[-57.3613224,15.87123645],[-57.3599811,15.87013296],[-57.35730132,15.86792254],[-57.3559632,15.86681591],[-57.35163759,15.86322928],[-57.35055768,15.86233196],[-57.34839922,15.86053468],[-57.3473214,15.85963533],[-57.3406654,15.85406959],[-57.33983486,15.85337395],[-57.33817404,15.85198062],[-57.33734443,15.8512835],[-57.33402656,15.84849094],[-57.33319828,15.84779267],[-57.33154245,15.84639446],[-57.33071589,15.84569537],[-57.31935807,15.83607301],[-57.31794143,15.83486943],[-57.31511005,15.83245719],[-57.31369647,15.83124952],[-57.30804606,15.82640869],[-57.30663596,15.82519725],[-57.30381847,15.82276998],[-57.30241222,15.82155513],[-57.29116601,15.81181212],[-57.28976333,15.81059349],[-57.28695992,15.80815118],[-57.28556035,15.8069285],[-57.27996607,15.80202765],[-57.27857002,15.80080124],[-57.27578067,15.79834404],[-57.2743885,15.79711425],[-57.26325524,15.7872518],[-57.26186669,15.78601828],[-57.2590916,15.78354619],[-57.25770619,15.78230864],[-57.25216871,15.77734839],[-57.25078688,15.77610715],[-57.248026,15.77362032],[-57.24664808,15.77237575],[-57.23562909,15.76239508],[-57.23425483,15.76114681],[-57.23150838,15.75864525],[-57.23013731,15.75739299],[-57.22465729,15.75237394],[-57.22328983,15.75111802],[-57.22055776,15.74860188],[-57.21919425,15.74734268],[-57.20829084,15.73724501],[-57.20693103,15.73598214],[-57.20421355,15.73345143],[-57.20285697,15.73218461],[-57.19743506,15.72710737],[-57.19608214,15.72583694],[-57.19337919,15.72329179],[-57.19203027,15.72201811],[-57.18124373,15.71180468],[-57.17989854,15.71052738],[-57.17721033,15.70796782],[-57.17586842,15.7066866],[-57.17050526,15.7015518],[-57.16916704,15.700267],[-57.16649354,15.69769316],[-57.16515934,15.69640517],[-57.15449096,15.68607723],[-57.15316054,15.68478565],[-57.15050194,15.68219755],[-57.14917485,15.68090209],[-57.14387107,15.67571036],[-57.1425477,15.67441136],[-57.13990396,15.67180914],[-57.13858466,15.67050698],[-57.12803568,15.66006581],[-57.1267202,15.65876011],[-57.12409152,15.65614379],[-57.1227794,15.65483425],[-57.11753563,15.64958623],[-57.11622728,15.64827318],[-57.11361361,15.64564291],[-57.11230936,15.64432675],[-57.10188103,15.63377363],[-57.10058063,15.63245396],[-57.09798218,15.62980975],[-57.09668519,15.62848628],[-57.09150205,15.62318262],[-57.09020887,15.62185569],[-57.08762558,15.61919768],[-57.08633653,15.61786768],[-57.07603008,15.6072039],[-57.07474492,15.60587044],[-57.07217701,15.60319866],[-57.0708953,15.60186142],[-57.06577339,15.59650276],[-57.06449553,15.59516211],[-57.06194293,15.59247669],[-57.06066924,15.59113302],[-57.05511423,15.5852563],[-57.04316515,15.57405101],[-57.04114775,15.57215123],[-57.03711886,15.56834161],[-57.03510902,15.56643332],[-57.02708177,15.55878006],[-57.02508014,15.55686376],[-57.02108396,15.5530222],[-57.01909104,15.55109849],[-57.00316687,15.5356628],[-57.00118236,15.53373109],[-56.99721943,15.52985771],[-56.99524263,15.52791761],[-56.98734786,15.5201373],[-56.9853794,15.51818932],[-56.98144971,15.51428452],[-56.97949008,15.51232927],[-56.96383299,15.49664159],[-56.9618819,15.49467848],[-56.95798598,15.49074239],[-56.95604273,15.48877101],[-56.94828253,15.48086579],[-56.94634775,15.47888668],[-56.94248558,15.4749197],[-56.94055976,15.47293345],[-56.92517387,15.45699808],[-56.92325672,15.45500411],[-56.91942883,15.45100639],[-56.91751965,15.44900427],[-56.90989605,15.4409763],[-56.90799547,15.43896658],[-56.90420183,15.43493852],[-56.90231032,15.43292182],[-56.88719967,15.41674312],[-56.88531695,15.41471883],[-56.88155809,15.41066057],[-56.87968349,15.40862827],[-56.87219848,15.40047975],[-56.87033259,15.39843998],[-56.86660849,15.39435193],[-56.86475178,15.39230532],[-56.84992033,15.37588772],[-56.84807254,15.37383367],[-56.8443837,15.36971599],[-56.84254415,15.36765405],[-56.8351997,15.35938721],[-56.83336899,15.35731795],[-56.82971539,15.35317104],[-56.82789397,15.35109508],[-56.81334559,15.33444307],[-56.81255711,15.33353887],[-56.81097984,15.33172682],[-56.81019226,15.33082037],[-56.80704249,15.32718857],[-56.80625632,15.32628042],[-56.80468523,15.32446229],[-56.80390095,15.32355304],[-56.79755614,15.31618358],[-56.79708556,15.31563622],[-56.79600353,15.31437625],[-56.79546228,15.31374519],[-56.79325897,15.31117306],[-56.79174221,15.30939614],[-56.78879557,15.30593184],[-56.78732525,15.30419724],[-56.78351741,15.29968943],[-56.78256719,15.29856199],[-56.78066879,15.2963045],[-56.77972125,15.2951752],[-56.77405263,15.28840388],[-56.77334552,15.28755777],[-56.77193197,15.28586352],[-56.7712261,15.28501606],[-56.76840401,15.28162214],[-56.76769972,15.28077371],[-56.7662922,15.27907528],[-56.7655898,15.27822627],[-56.75617462,15.26682622],[-56.75500089,15.26540097],[-56.7526562,15.26254578],[-56.7514862,15.26111702],[-56.74681185,15.25539264],[-56.74564594,15.25396075],[-56.74331756,15.25109311],[-56.74215603,15.24965853],[-56.73287183,15.23815863],[-56.73171447,15.23672092],[-56.72940258,15.23384087],[-56.72824899,15.2323997],[-56.72364039,15.22662576],[-56.72249092,15.22518151],[-56.72019547,15.22228918],[-56.71905042,15.22084228],[-56.70989826,15.20924394],[-56.70875678,15.20779316],[-56.7064767,15.20488699],[-56.70533903,15.20343278],[-56.70079422,15.19760674],[-56.69966071,15.1961495],[-56.69739722,15.19323122],[-56.69626816,15.19177136],[-56.6872442,15.18006949],[-56.68611913,15.17860628],[-56.68387192,15.17567528],[-56.6827507,15.17420868],[-56.6782718,15.16833314],[-56.67715398,15.16686251],[-56.67492193,15.16391748],[-56.67380692,15.16244205],[-56.67163746,15.15956301],[-56.66797804,15.15475081],[-56.66669017,15.15305156],[-56.66412195,15.14965171],[-56.66284097,15.14795027],[-56.65772868,15.14113715],[-56.6564541,15.13943282],[-56.65390983,15.13601933],[-56.65264118,15.13431155],[-56.64252736,15.12065066],[-56.64126715,15.11894267],[-56.63875094,15.11552099],[-56.63749596,15.11380869],[-56.63248463,15.10694808],[-56.63123529,15.10523193],[-56.62874154,15.10179487],[-56.62749814,15.10007536],[-56.61756469,15.08629119],[-56.61632703,15.08456785],[-56.61385598,15.0811155],[-56.61262361,15.0793879],[-56.60770283,15.07246622],[-56.60647614,15.07073484],[-56.60402775,15.06726739],[-56.60280704,15.06553274],[-56.59305547,15.05162752],[-56.59244788,15.05075961],[-56.59123281,15.04902097],[-56.59062615,15.04815143],[-56.58820039,15.04466853],[-56.58759499,15.04379782],[-56.58638528,15.04205498],[-56.58578147,15.04118358],[-56.58095153,15.03420105],[-56.58034902,15.0333285],[-56.57914477,15.03158153],[-56.57854351,15.03070781],[-56.57614007,15.02720922],[-56.57554013,15.0263344],[-56.57434134,15.02458336],[-56.57374272,15.02370747],[-56.57275875,15.02226527],[-56.57231873,15.02161951],[-56.57143933,15.02032731],[-56.57100013,15.01968113],[-56.56924432,15.01709454],[-56.56880599,15.016448],[-56.56792988,15.01515406],[-56.56749245,15.0145072],[-56.5639932,15.00932589],[-56.56355667,15.00867868],[-56.5626839,15.00738307],[-56.56224802,15.00673519],[-56.56050513,15.00414128],[-56.56007016,15.00349308],[-56.55920075,15.00219585],[-56.5587669,15.0015477],[-56.55181866,14.99115338],[-56.55095253,14.98985432],[-56.54922245,14.98725283],[-56.54835921,14.98595146],[-56.54491067,14.98073928],[-56.54405057,14.97943596],[-56.54233305,14.97682667],[-56.54147632,14.97552177],[-56.53462882,14.96506496],[-56.53377528,14.96375811],[-56.53207042,14.96114107],[-56.53121979,14.95983194],[-56.52782176,14.95458874],[-56.52697429,14.95327769],[-56.52528205,14.95065296],[-56.52443796,14.94934035],[-56.51769177,14.93882197],[-56.5168509,14.93750744],[-56.51517138,14.93487507],[-56.51433343,14.93355829],[-56.51098619,14.92828453],[-56.51015142,14.92696586],[-56.5084846,14.92432592],[-56.50765322,14.92300572],[-56.5010089,14.91242668],[-56.50018075,14.9111046],[-56.49852672,14.90845712],[-56.49770152,14.90713281],[-56.49440534,14.90182896],[-56.49358334,14.90050279],[-56.49194207,14.89784786],[-56.49112348,14.89652019],[-56.48458155,14.88588142],[-56.4837662,14.88455189],[-56.48213779,14.88188955],[-56.48132541,14.88055782],[-56.47808055,14.87522434],[-56.47727138,14.87389078],[-56.47565581,14.8712211],[-56.47485006,14.86988607],[-56.46841106,14.8591885],[-56.46760857,14.85785165],[-56.46600593,14.85517467],[-56.46520643,14.85383564],[-56.46201316,14.848473],[-56.46121689,14.84713216],[-56.45962713,14.84444796],[-56.45894016,14.84328528],[-56.45249875,14.83235026],[-56.4522058,14.83185242],[-56.45161948,14.83085502],[-56.45132561,14.8303546],[-56.45011885,14.82829761],[-56.44981094,14.8277722],[-56.44926117,14.82683311],[-56.44898262,14.82635684],[-56.44648763,14.82208666],[-56.44599405,14.82124109],[-56.4451225,14.8197434],[-56.44341673,14.81680332],[-56.44256598,14.81533259],[-56.43950258,14.81002096],[-56.43873866,14.80869282],[-56.43721354,14.80603413],[-56.43645285,14.80470446],[-56.43201152,14.79692003],[-56.43145777,14.79594753],[-56.43035136,14.79400057],[-56.42979914,14.7930269],[-56.42759244,14.78912833],[-56.427042,14.78815394],[-56.4259425,14.78620374],[-56.42539408,14.78522906],[-56.4181937,14.77240612],[-56.41729679,14.77080354],[-56.41550652,14.76759425],[-56.4146139,14.76598885],[-56.4110506,14.75955903],[-56.41016253,14.75795126],[-56.40839047,14.75473247],[-56.40750718,14.75312278],[-56.40045283,14.74022372],[-56.39957417,14.73861166],[-56.39782044,14.73538345],[-56.39694609,14.73376862],[-56.39345599,14.72730114],[-56.39258623,14.72568398],[-56.3908508,14.72244647],[-56.38998584,14.72082743],[-56.3830783,14.70785383],[-56.38221798,14.70623248],[-56.38050099,14.70298574],[-56.37964502,14.70136167],[-56.37622851,14.69485731],[-56.37537715,14.69323096],[-56.37367855,14.68997512],[-56.37283201,14.68834695],[-56.36607204,14.67530037],[-56.36523016,14.67366993],[-56.3635501,14.67040505],[-56.3627126,14.66877194],[-56.35937005,14.66223149],[-56.35853718,14.66059615],[-56.35687561,14.65732236],[-56.35604758,14.65568525],[-56.34943593,14.64256727],[-56.34861259,14.64092794],[-56.34696964,14.63764532],[-56.3461507,14.63600336],[-56.34288249,14.62942762],[-56.34206821,14.62778348],[-56.34044384,14.62449214],[-56.33963441,14.62284629],[-56.33317182,14.6096585],[-56.3323671,14.60801048],[-56.33076145,14.60471051],[-56.32996116,14.60305991],[-56.32676765,14.59644966],[-56.32597204,14.59479693],[-56.32438505,14.59148845],[-56.32359432,14.58983405],[-56.31728149,14.57657805],[-56.31649549,14.57492153],[-56.3149273,14.57160462],[-56.31414575,14.56994557],[-56.31102729,14.56330162],[-56.31025044,14.56164049],[-56.30870101,14.55831526],[-56.30792906,14.55665252],[-56.30176668,14.5433299],[-56.30099948,14.54166509],[-56.29946893,14.53833163],[-56.29870621,14.53666434],[-56.29566313,14.52998749],[-56.29490513,14.52831816],[-56.29339343,14.52497659],[-56.29264034,14.5233057],[-56.28662909,14.50991809],[-56.28588077,14.50824519],[-56.28438803,14.50489558],[-56.28364422,14.50322024],[-56.28067686,14.4965113],[-56.27993779,14.49483398],[-56.27846398,14.49147646],[-56.27772984,14.48979764],[-56.27187037,14.47634664],[-56.27114101,14.47466585],[-56.26968624,14.47130051],[-56.26896142,14.46961732],[-56.26607011,14.4628771],[-56.26535005,14.46119199],[-56.26391428,14.45781893],[-56.26319916,14.45613237],[-56.25749211,14.44261961],[-56.2567818,14.44093113],[-56.25536516,14.43755046],[-56.25465941,14.43585964],[-56.25184444,14.42908894],[-56.25114347,14.42739624],[-56.24974591,14.42400806],[-56.24904989,14.42231396],[-56.24349587,14.40874107],[-56.24280468,14.40704511],[-56.24142632,14.40364951],[-56.24073971,14.40195125],[-56.2380014,14.3951509],[-56.2373196,14.39345082],[-56.23596039,14.39004792],[-56.23528355,14.38834649],[-56.22988316,14.3747151],[-56.22921116,14.37301186],[-56.22787122,14.36960175],[-56.22720384,14.36789626],[-56.22454248,14.36106708],[-56.2238799,14.35935982],[-56.2225592,14.3559426],[-56.22190161,14.35423405],[-56.21665542,14.34054581],[-56.21600269,14.3388355],[-56.21470132,14.33541128],[-56.21405322,14.33369877],[-56.2114691,14.32684158],[-56.21082583,14.32512734],[-56.20954377,14.32169623],[-56.2089055,14.31998075],[-56.20377499,14.30613175],[-56.20357197,14.30558271],[-56.20308779,14.30427139],[-56.20284612,14.30361578],[-56.20182395,14.30083817],[-56.20154428,14.3000772],[-56.20130347,14.29942076],[-56.20098128,14.2985409],[-56.19895072,14.2929868],[-56.19868426,14.29225706],[-56.19828462,14.2911613],[-56.19765942,14.2894395],[-56.19641382,14.28599413],[-56.19579358,14.28427101],[-56.19367155,14.27834966],[-56.19314308,14.2768694],[-56.19208942,14.27390688],[-56.19156459,14.27242559],[-56.18855029,14.26388539],[-56.18817482,14.26281865],[-56.18742534,14.26068339],[-56.18705162,14.25961574],[-56.18555968,14.2553416],[-56.18518789,14.25427352],[-56.18444595,14.25213616],[-56.18407624,14.25106812],[-56.17929593,14.23721924],[-56.1787014,14.23548895],[-56.17751656,14.2320249],[-56.17692673,14.23029255],[-56.17457591,14.2233563],[-56.17399097,14.22162238],[-56.17282563,14.21815206],[-56.17224571,14.21641707],[-56.16762172,14.20251797],[-56.16704672,14.20078143],[-56.16590097,14.19730494],[-56.16533069,14.1955664],[-56.16305814,14.18860545],[-56.16249276,14.18686539],[-56.16136658,14.18338284],[-56.16080623,14.18164175],[-56.15633905,14.16769411],[-56.15578363,14.16595153],[-56.1546771,14.16246301],[-56.15412643,14.16071848],[-56.15193239,14.15373368],[-56.15138663,14.15198769],[-56.15029972,14.14849331],[-56.14975901,14.14674635],[-56.14544908,14.13275183],[-56.14491332,14.13100342],[-56.14384611,14.12750329],[-56.14331511,14.12575299],[-56.1411998,14.11874517],[-56.14067372,14.11699346],[-56.13962619,14.11348768],[-56.13910517,14.11173505],[-56.13495295,14.09769534],[-56.13443688,14.09594131],[-56.13340912,14.09242999],[-56.13289783,14.09067412],[-56.13086147,14.08364413],[-56.13035513,14.08188691],[-56.12934709,14.07837015],[-56.12884581,14.07661206],[-56.12485172,14.06252884],[-56.1243554,14.06076941],[-56.12336718,14.05724732],[-56.12287566,14.0554861],[-56.12091846,14.04843478],[-56.1204319,14.04667225],[-56.11946346,14.04314494],[-56.11898197,14.0413816],[-56.11514641,14.02725656],[-56.1146699,14.02549193],[-56.11372131,14.0219595],[-56.11324962,14.02019313],[-56.11137177,14.01312133],[-56.11090504,14.01135371],[-56.10997629,14.00781626],[-56.10951464,14.00604788],[-56.10583799,13.99188272],[-56.10538134,13.99011311],[-56.10447249,13.98657075],[-56.10402066,13.98479945],[-56.10222236,13.97770802],[-56.10177551,13.97593551],[-56.10088654,13.97238836],[-56.10044478,13.97061516],[-56.09692741,13.95641157],[-56.09649065,13.95463719],[-56.09562162,13.95108533],[-56.09518971,13.94930931],[-56.09347112,13.94219909],[-56.0930442,13.94042192],[-56.0921951,13.93686548],[-56.09177327,13.93508767],[-56.08841552,13.92084735],[-56.0879987,13.91906841],[-56.08716959,13.91550749],[-56.08675763,13.91372696],[-56.08511893,13.9065988],[-56.08471197,13.90481718],[-56.08390282,13.90125188],[-56.08350096,13.89946967],[-56.08030317,13.88519433],[-56.07990633,13.88341104],[-56.0791172,13.87984148],[-56.07872525,13.87805665],[-56.07716658,13.87091142],[-56.07677963,13.86912555],[-56.07601052,13.86555182],[-56.07562866,13.86376542],[-56.07259113,13.84945677],[-56.07221431,13.84766936],[-56.07146525,13.84409157],[-56.07109332,13.84230266],[-56.06961485,13.8351412],[-56.06924794,13.83335131],[-56.06851893,13.82976958],[-56.06815713,13.8279792],[-56.06528014,13.81363896],[-56.06492295,13.81184552],[-56.06421321,13.80825573],[-56.06386095,13.80646085],[-56.06246122,13.7992756],[-56.06210553,13.7974357],[-56.06156459,13.79461586],[-56.0612607,13.7930543],[-56.06093889,13.79138921],[-56.06024926,13.78779597],[-56.05990714,13.78599986],[-56.05718981,13.77162411],[-56.05685298,13.76982836],[-56.05618399,13.76623402],[-56.05585209,13.76443689],[-56.05453387,13.75724273],[-56.05420701,13.75544472],[-56.05355813,13.75184685],[-56.05323639,13.75004847],[-56.05068025,13.73564458],[-56.05056154,13.73497352],[-56.05032248,13.73361812],[-56.05019996,13.73292123],[-56.04968259,13.72996915],[-56.04955115,13.72921658],[-56.04935663,13.72809895],[-56.04925362,13.72750549],[-56.04823855,13.72164109],[-56.0480041,13.72028198],[-56.04768816,13.71843413],[-56.04707723,13.71482987],[-56.04677435,13.71302776],[-56.04572692,13.70674189],[-56.0454671,13.70517085],[-56.04495114,13.7020273],[-56.04469517,13.70045584],[-56.04324139,13.69146141],[-56.04306083,13.69033811],[-56.04270148,13.68808999],[-56.04252283,13.68696609],[-56.04181177,13.68246743],[-56.04163511,13.68134342],[-56.04128364,13.67909448],[-56.04110904,13.67797085],[-56.03887668,13.66352139],[-56.03860043,13.66171652],[-56.03805266,13.65810408],[-56.03778137,13.65629799],[-56.03670573,13.64906828],[-56.03643949,13.64726147],[-56.03591191,13.64364616],[-56.03565079,13.64183913],[-56.03358011,13.62736667],[-56.03332405,13.62555895],[-56.0328167,13.62194088],[-56.03256562,13.62013199],[-56.03157085,13.61289121],[-56.03132483,13.61108166],[-56.03083769,13.60746093],[-56.03059678,13.60565122],[-56.02868796,13.59115748],[-56.02845212,13.58934714],[-56.02798522,13.58572385],[-56.02775436,13.58391239],[-56.02684056,13.5766614],[-56.02661477,13.57484933],[-56.02616811,13.5712236],[-56.02594743,13.56941143],[-56.02420062,13.55489815],[-56.02398501,13.55308539],[-56.02355861,13.54945732],[-56.023348,13.5476435],[-56.02251523,13.54038317],[-56.02230968,13.5385688],[-56.02190353,13.53493851],[-56.0217031,13.53312408],[-56.02011844,13.51859298],[-56.01992308,13.51677802],[-56.01953721,13.51314561],[-56.01934686,13.51132965],[-56.01859518,13.50406085],[-56.01840989,13.50224438],[-56.01804429,13.49860996],[-56.01786412,13.4967935],[-56.01644172,13.48224631],[-56.01626662,13.48042937],[-56.01592131,13.47679305],[-56.01575123,13.47497516],[-56.01508069,13.46769875],[-56.01491568,13.4658804],[-56.01459065,13.46224229],[-56.01443075,13.46042401],[-56.0131707,13.44586247],[-56.01301588,13.44404376],[-56.01271114,13.44040396],[-56.01256135,13.43858436],[-56.011972,13.4313012],[-56.01182728,13.4294812],[-56.01154283,13.42583983],[-56.01140322,13.42401994],[-56.0103056,13.40944578],[-56.01017106,13.40762552],[-56.00990692,13.40398268],[-56.00977742,13.40216158],[-56.00926929,13.39487255],[-56.00914486,13.3930511],[-56.00890102,13.3894069],[-56.00878169,13.38758563],[-56.00784656,13.37300058],[-56.00773232,13.37117899],[-56.00750878,13.36753353],[-56.00739957,13.36571115],[-56.00697269,13.35841711],[-56.00686856,13.35659444],[-56.00666533,13.35294785],[-56.0065663,13.3511254],[-56.00579369,13.3365312],[-56.00569974,13.33470849]],[[-59.61308396,13.33439815],[-59.61736202,13.33319664],[-59.62009645,13.33388317],[-59.62317967,13.33159983],[-59.62575352,13.3315773],[-59.62675333,13.33025646],[-59.62908947,13.33052003],[-59.63105536,13.32866645],[-59.63289785,13.3287822],[-59.63724315,13.32649517],[-59.63874865,13.32188106],[-59.64523566,13.31474304],[-59.65025532,13.30645502],[-59.65036952,13.30597675],[-59.64903903,13.29019058],[-59.65004182,13.28225613],[-59.64796925,13.27839375],[-59.64607334,13.26955307],[-59.6456573,13.26899254],[-59.64541185,13.26745033],[-59.64351106,13.26443553],[-59.64486134,13.26200795],[-59.64399326,13.26313448],[-59.64260173,13.26253104],[-59.64173365,13.26025116],[-59.64238107,13.26077425],[-59.64202285,13.2591784],[-59.64335954,13.25920522],[-59.64271176,13.26163244],[-59.64375913,13.26191425],[-59.64491534,13.25214732],[-59.64393711,13.24867904],[-59.64496875,13.24567926],[-59.6440016,13.24401033],[-59.64514542,13.24007034],[-59.64280891,13.23346126],[-59.64294326,13.22701836],[-59.64308536,13.22664356],[-59.64320767,13.22572553],[-59.64191115,13.22326922],[-59.64179504,13.21333396],[-59.64020455,13.20665574],[-59.64222205,13.19755495],[-59.64053476,13.19071245],[-59.63804555,13.18849397],[-59.64006627,13.18395841],[-59.64015925,13.18198764],[-59.64007771,13.17884362],[-59.63755512,13.17488861],[-59.6384356,13.16891253],[-59.63715613,13.16570473],[-59.63727677,13.15579355],[-59.63919354,13.14428318],[-59.63778305,13.14067841],[-59.63562286,13.13827515],[-59.63558257,13.13101447],[-59.63333094,13.12316895],[-59.63011432,13.12003613],[-59.62777877,13.11522961],[-59.62747037,13.1121397],[-59.63112783,13.11110973],[-59.63037872,13.10904968],[-59.62733817,13.10995102],[-59.62583995,13.10638905],[-59.62645686,13.10591686],[-59.62791097,13.10806274],[-59.63037872,13.10716152],[-59.6290127,13.10089576],[-59.63011432,13.10029495],[-59.63240564,13.10145366],[-59.63253784,13.10136795],[-59.62135184,13.09555483],[-59.61764407,13.09505928],[-59.61125517,13.09081066],[-59.61015368,13.08930874],[-59.60964465,13.08241975],[-59.61285663,13.07918775],[-59.61230505,13.07790875],[-59.60731745,13.07645702],[-59.59935915,13.07304382],[-59.58847725,13.07231414],[-59.58160472,13.06969643],[-59.57997465,13.06763637],[-59.57609785,13.06780815],[-59.57482004,13.06630611],[-59.56830001,13.06544781],[-59.56481946,13.06313026],[-59.55371761,13.06480396],[-59.54534221,13.06313551],[-59.54433405,13.06158543],[-59.54230738,13.06167126],[-59.53815198,13.05872905],[-59.53754902,13.05540562],[-59.53540802,13.05317283],[-59.53517616,13.0496242],[-59.53322327,13.04663861],[-59.52702057,13.04399013],[-59.52257144,13.04536343],[-59.51843047,13.04527748],[-59.51098585,13.04974067],[-59.50592005,13.05175781],[-59.50420201,13.05119991],[-59.49525964,13.06527615],[-59.48614025,13.06664944],[-59.47914135,13.07308424],[-59.47132325,13.07868993],[-59.46831298,13.08116567],[-59.46289074,13.08352661],[-59.45396411,13.09117305],[-59.45023382,13.09965134],[-59.44847143,13.10140586],[-59.44612741,13.10173738],[-59.44423592,13.1042031],[-59.44463801,13.10510147],[-59.44214857,13.1075896],[-59.43964005,13.11279202],[-59.43017876,13.12349725],[-59.42920554,13.12823296],[-59.42621708,13.13108516],[-59.42660534,13.13338268],[-59.42233074,13.13921916],[-59.42033052,13.14748335],[-59.42206621,13.15166473],[-59.42160094,13.15362382],[-59.42259502,13.15505505],[-59.42525077,13.15565574],[-59.4277631,13.16174984],[-59.42833602,13.16226482],[-59.43055415,13.16222191],[-59.43252277,13.16531181],[-59.43829608,13.16333771],[-59.44376123,13.16475391],[-59.44664764,13.16810667],[-59.44843304,13.16840172],[-59.44971096,13.17247856],[-59.44860935,13.17402363],[-59.44922555,13.17471015],[-59.45032752,13.17402363],[-59.45068467,13.17430675],[-59.45367765,13.1770277],[-59.4546808,13.17904794],[-59.45804966,13.18312633],[-59.45871007,13.18325233],[-59.46217287,13.18226325],[-59.46314204,13.18032968],[-59.4635421,13.18005693],[-59.46619534,13.17917335],[-59.46668017,13.17938805],[-59.47193992,13.18359375],[-59.47650683,13.18712544],[-59.47690141,13.18750942],[-59.47771943,13.18928134],[-59.48625112,13.19144726],[-59.48700035,13.19599616],[-59.48867536,13.19771278],[-59.49018097,13.19830906],[-59.49511075,13.19728375],[-59.5055201,13.20574236],[-59.50837982,13.20878506],[-59.51640284,13.21251857],[-59.52006173,13.21213245],[-59.52953935,13.21805465],[-59.53771603,13.22668076],[-59.5409013,13.23316157],[-59.54241312,13.23426056],[-59.54262197,13.23643863],[-59.54272485,13.23681438],[-59.54495955,13.23782158],[-59.54594874,13.24136734],[-59.54846323,13.24473453],[-59.55284131,13.24816406],[-59.55505311,13.25157165],[-59.5588448,13.25882435],[-59.56067824,13.26425087],[-59.56558657,13.27110243],[-59.56749547,13.27553368],[-59.56807935,13.28098786],[-59.56726515,13.28193176],[-59.56749368,13.28454006],[-59.57168841,13.29255795],[-59.57697177,13.29750562],[-59.57374752,13.2998085],[-59.57732224,13.30443656],[-59.57607317,13.30647325],[-59.57728505,13.308833],[-59.57956707,13.31019402],[-59.58437431,13.31066597],[-59.5931946,13.31967831],[-59.59522331,13.32045066],[-59.59495854,13.32229614],[-59.59941304,13.32495677],[-59.59967744,13.32663047],[-59.60130918,13.32654464],[-59.60342622,13.32791805],[-59.60748255,13.33178043],[-59.60990834,13.33208084],[-59.61308396,13.33439815]]]]},"geometry_name":"the_geom","properties":{"mrgid":8418,"geoname":"Barbadian Exclusive Economic Zone","mrgid_ter1":8649,"pol_type":"200NM","mrgid_sov1":8649,"territory1":"Barbados","iso_ter1":"BRB","sovereign1":"Barbados","mrgid_ter2":null,"mrgid_sov2":null,"territory2":null,"iso_ter2":null,"sovereign2":null,"mrgid_ter3":null,"mrgid_sov3":null,"territory3":null,"iso_ter3":null,"sovereign3":null,"x_1":-57.99356,"y_1":13.32288,"mrgid_eez":8418,"area_km2":185007,"iso_sov1":"BRB","iso_sov2":null,"iso_sov3":null,"un_sov1":52,"un_sov2":null,"un_sov3":null,"un_ter1":52,"un_ter2":null,"un_ter3":null}}],"totalFeatures":1,"numberMatched":1,"numberReturned":1,"timeStamp":"2026-08-21T22:18:51.615Z","crs":{"type":"name","properties":{"name":"urn:ogc:def:crs:EPSG::4326"}}}