{"type":"FeatureCollection","features":[{"type":"Feature","id":"eez.96","geometry":{"type":"MultiPolygon","coordinates":[[[[-59.99972222,14.11416667],[-60.00246215,14.11140389],[-60.00307556,14.11029016],[-60.00681773,14.1035343],[-60.01588156,14.08695092],[-60.03381303,14.05304187],[-60.13668263,13.85980501],[-60.19199493,13.73808108],[-60.19799773,13.72483344],[-60.21142565,13.69222205],[-60.22995027,13.64855734],[-60.23695233,13.63238367],[-60.28918255,13.50219201],[-60.29195798,13.49521302],[-60.30699748,13.45656916],[-60.32982191,13.39797549],[-60.34236083,13.36114687],[-60.36730554,13.28461332],[-60.3815781,13.24323763],[-60.51483392,13.29319047],[-60.65852717,13.35191478],[-60.66086109,13.35292873],[-60.83779695,13.43306169],[-60.89840689,13.46544232],[-60.92847094,13.48089359],[-60.9823975,13.50909588],[-60.99700107,13.51638243],[-61.02568713,13.53181071],[-61.04528424,13.54229495],[-61.06819635,13.55428717],[-61.09839178,13.5701427],[-61.11755742,13.57558225],[-61.12150392,13.57696358],[-61.15779959,13.58879661],[-61.20411013,13.60460496],[-61.20634756,13.6053902],[-61.23749756,13.61526218],[-61.25253736,13.61902904],[-61.30467922,13.63338755],[-61.33817013,13.64247715],[-61.33908636,13.64272834],[-61.34654135,13.64497902],[-61.67920549,13.73524747],[-61.95199716,13.81055107],[-61.96620115,13.81533116],[-62.25940082,13.9036537],[-62.86401493,14.08032454],[-62.86271506,14.08208115],[-62.81388889,14.08055556],[-62.77722222,14.08638889],[-62.22777778,14.15444444],[-61.77416667,14.17083333],[-61.71694444,14.175],[-61.39944444,14.18777778],[-61.27805556,14.2075],[-61.27388889,14.20861111],[-61.18833333,14.23027778],[-61.07638889,14.25277778],[-61.00388889,14.2725],[-60.89194444,14.24333333],[-60.73666667,14.21916667],[-60.67972222,14.20444444],[-60.17694444,14.13555556],[-60.15416667,14.13333333],[-60.06111111,14.12222222],[-59.99972222,14.11416667]],[[-60.95426178,14.09640634],[-60.95505357,14.09267914],[-60.96504855,14.09515715],[-60.96610475,14.09503925],[-60.96669126,14.09441173],[-60.96780455,14.09170055],[-60.96671712,14.09039736],[-60.96569598,14.09014511],[-60.96429372,14.09157145],[-60.96176076,14.09203303],[-60.95624053,14.08814836],[-60.95563555,14.08711553],[-60.95443547,14.08231032],[-60.95417786,14.07787585],[-60.95429325,14.07745695],[-60.95681191,14.07212186],[-60.95718765,14.07170081],[-60.95855677,14.07122028],[-60.96290553,14.07207036],[-60.96533978,14.07104325],[-60.96736658,14.06819224],[-60.96614766,14.06776154],[-60.96658516,14.06690633],[-60.96856594,14.06848633],[-60.97279787,14.06663108],[-60.97347236,14.06816125],[-60.97377098,14.06832552],[-60.9752326,14.06819844],[-60.97549272,14.06805587],[-60.97587812,14.06612635],[-60.9748044,14.0625],[-60.97467804,14.0625],[-60.97468066,14.06167865],[-60.97637248,14.06178021],[-60.97679746,14.06133461],[-60.97694635,14.05950773],[-60.97430182,14.05761921],[-60.9751693,14.05288303],[-60.97298455,14.04810977],[-60.97243476,14.03921545],[-60.97289693,14.03790915],[-60.97376001,14.03546858],[-60.97414935,14.03488433],[-60.97714055,14.03180802],[-60.97999954,14.03163731],[-60.98190582,14.02670562],[-60.9901005,14.02210891],[-60.99582756,14.02120245],[-60.99773312,14.02377772],[-61.00147402,14.02534294],[-61.00299835,14.02389705],[-61.00539935,14.02410781],[-61.00627208,14.02194607],[-61.00290215,14.02047145],[-61.00338495,14.01886034],[-61.00244546,14.01718485],[-60.99770105,14.01590145],[-60.99647927,14.01353633],[-60.99322403,14.01417923],[-60.99122596,14.01302612],[-60.99726856,14.01039755],[-61.00070751,14.01159322],[-61.00221503,14.01475418],[-61.00719094,14.01712942],[-61.00752127,14.01157975],[-61.00770855,14.01096415],[-61.00893104,14.00931692],[-61.01010215,14.00897491],[-61.01185274,14.00910723],[-61.01348376,14.01029146],[-61.01372623,14.01010334],[-61.01525831,14.00802135],[-61.01545215,14.00757217],[-61.01468694,14.00572562],[-61.01490927,14.00513387],[-61.01625597,14.00367403],[-61.01625335,14.00328195],[-61.01555824,13.99649096],[-61.01456177,13.9950515],[-61.01628411,13.99145222],[-61.01616311,13.99083316],[-61.01538682,13.98749578],[-61.01191461,13.98740947],[-61.01207364,13.98351586],[-61.01618814,13.98246408],[-61.01605666,13.98627555],[-61.02160275,13.98473644],[-61.02530313,13.98658633],[-61.02728343,13.98621106],[-61.02736676,13.98594153],[-61.02690268,13.98066437],[-61.03010952,13.97039294],[-61.02969563,13.96875155],[-61.02737045,13.96787655],[-61.02547371,13.96602702],[-61.02574551,13.96547675],[-61.02651811,13.9650439],[-61.03062665,13.96647453],[-61.03239656,13.96300507],[-61.03184915,13.96110666],[-61.03509152,13.95789671],[-61.03866541,13.95633185],[-61.03996241,13.95017564],[-61.04639006,13.94236755],[-61.04400861,13.94125974],[-61.04394448,13.93932712],[-61.04796505,13.93785596],[-61.04987955,13.9345479],[-61.05676937,13.93547487],[-61.05791271,13.93452167],[-61.05971277,13.92999518],[-61.05708635,13.92675173],[-61.06029201,13.92439055],[-61.05956864,13.92258561],[-61.06127918,13.91782153],[-61.06335175,13.91576135],[-61.06735516,13.91435051],[-61.06803405,13.91261196],[-61.06547594,13.90889275],[-61.06934547,13.90549946],[-61.06917298,13.90353131],[-61.07130933,13.89657426],[-61.07709086,13.88671875],[-61.07930064,13.88215065],[-61.07857811,13.86552],[-61.07982898,13.86300504],[-61.07960248,13.86254823],[-61.07149255,13.86074007],[-61.06878006,13.85643506],[-61.06298566,13.85768461],[-61.06243241,13.85509384],[-61.06047106,13.85430264],[-61.05992961,13.85250247],[-61.06231177,13.84950781],[-61.0639075,13.84074151],[-61.06865585,13.83657455],[-61.0679723,13.83030856],[-61.06399834,13.82766867],[-61.06362176,13.82352006],[-61.06608951,13.81921422],[-61.07071948,13.81689095],[-61.07546747,13.81123435],[-61.07850075,13.8093456],[-61.07853317,13.80650461],[-61.07780302,13.80571771],[-61.07574546,13.80388296],[-61.06917298,13.80069685],[-61.06783652,13.79880154],[-61.06811404,13.79752648],[-61.06949091,13.79120314],[-61.06828654,13.78947425],[-61.06471467,13.78660595],[-61.06023502,13.78452015],[-61.05699742,13.77986884],[-61.0544641,13.77970171],[-61.05089664,13.77475977],[-61.05091095,13.77218366],[-61.05026126,13.77113545],[-61.0473448,13.7674396],[-61.04674995,13.76692915],[-61.03972065,13.76258957],[-61.03811204,13.75931895],[-61.03795385,13.75851035],[-61.03733253,13.75744641],[-61.03444254,13.75761282],[-61.02932966,13.75366974],[-61.02610874,13.75362706],[-61.02467251,13.75223207],[-61.0169152,13.75235832],[-61.01602078,13.7501204],[-61.01004815,13.75135994],[-61.00673735,13.7489078],[-61.00491226,13.75169194],[-60.99752092,13.75088823],[-60.99671125,13.75052917],[-60.99595988,13.74983275],[-60.99587274,13.74943101],[-60.99648845,13.74678075],[-60.99343514,13.74452138],[-60.99377835,13.7402122],[-60.99032748,13.73838532],[-60.98934734,13.7351861],[-60.98532557,13.73413074],[-60.98040354,13.73520994],[-60.97811985,13.73045313],[-60.97777235,13.72972906],[-60.97464991,13.72834551],[-60.96643364,13.72960222],[-60.95976806,13.72825122],[-60.95635867,13.7231667],[-60.95401323,13.72232068],[-60.95498562,13.71969855],[-60.9532392,13.71937025],[-60.95244443,13.72039461],[-60.95427132,13.71463537],[-60.95874047,13.71386325],[-60.95929325,13.71214652],[-60.95932901,13.7109375],[-60.95921552,13.7109375],[-60.95873785,13.71013033],[-60.95561457,13.7085551],[-60.9548161,13.7082504],[-60.95290184,13.7109375],[-60.95272291,13.7109375],[-60.95272291,13.71107686],[-60.95249295,13.71120715],[-60.95232081,13.71118856],[-60.95220578,13.71111405],[-60.95214844,13.7109375],[-60.95146668,13.7109375],[-60.94699693,13.70706451],[-60.94397116,13.70836401],[-60.93903053,13.70846701],[-60.93806386,13.71019924],[-60.93797815,13.7109375],[-60.93870187,13.71429706],[-60.94324017,13.71684551],[-60.94614482,13.72139084],[-60.94617534,13.72587216],[-60.94466805,13.72630966],[-60.94165576,13.73011732],[-60.93776584,13.73159754],[-60.93947554,13.73574758],[-60.93972802,13.73750281],[-60.93945563,13.73901892],[-60.93859994,13.74063218],[-60.93539655,13.74582684],[-60.93253005,13.74764442],[-60.92950451,13.75435364],[-60.92495131,13.75799716],[-60.9251579,13.75952685],[-60.9301939,13.76033664],[-60.93164611,13.76173186],[-60.93170345,13.76239371],[-60.93122935,13.76277745],[-60.92850077,13.76317954],[-60.92757213,13.76547504],[-60.92474806,13.76626146],[-60.92454123,13.76661754],[-60.92592895,13.76778412],[-60.92558837,13.76867974],[-60.92308927,13.76889646],[-60.92244732,13.76878846],[-60.92159295,13.76834357],[-60.92040026,13.76516306],[-60.91548097,13.76574385],[-60.91521931,13.76550686],[-60.91335356,13.75970066],[-60.91303015,13.75952506],[-60.91094661,13.76007175],[-60.90909231,13.76141727],[-60.9104706,13.76604855],[-60.90913415,13.76744246],[-60.9072417,13.76479244],[-60.90621054,13.76456177],[-60.90414703,13.76497507],[-60.90380275,13.76544905],[-60.90313566,13.76690996],[-60.90291142,13.76937175],[-60.90499651,13.77100468],[-60.90499628,13.77388096],[-60.90320671,13.77368546],[-60.90266597,13.77201974],[-60.89933383,13.77192736],[-60.90160823,13.77527285],[-60.89886796,13.77664065],[-60.90301025,13.78065515],[-60.90109813,13.78067565],[-60.89961302,13.77927017],[-60.89518917,13.78046226],[-60.89530706,13.78189945],[-60.89767623,13.78295398],[-60.89834106,13.78462517],[-60.89460444,13.78484404],[-60.89354694,13.78385544],[-60.89352882,13.78917444],[-60.89860952,13.78802025],[-60.9003036,13.78960764],[-60.90045333,13.79223442],[-60.89809752,13.79906142],[-60.89588284,13.80187654],[-60.89388573,13.80937326],[-60.89494705,13.81099534],[-60.89416957,13.81375885],[-60.89255548,13.81448877],[-60.89370966,13.81594956],[-60.88867116,13.81616366],[-60.88441205,13.81765533],[-60.88560331,13.81966257],[-60.89119291,13.82067645],[-60.89410436,13.81923795],[-60.89403546,13.82210946],[-60.89642155,13.82341707],[-60.89383435,13.82393491],[-60.89657044,13.82672977],[-60.89920473,13.82692361],[-60.89869785,13.82751381],[-60.89532924,13.82747865],[-60.89105845,13.82559848],[-60.88797951,13.82562077],[-60.88552177,13.82769966],[-60.88550055,13.82873273],[-60.88878393,13.83113372],[-60.89169025,13.83124161],[-60.89305234,13.83186245],[-60.89347827,13.83291626],[-60.89132178,13.83504581],[-60.88558722,13.83393323],[-60.88716102,13.83624542],[-60.88185632,13.83581448],[-60.88568914,13.84005642],[-60.88534784,13.84143305],[-60.88237965,13.84160376],[-60.88209891,13.84313953],[-60.88223374,13.8445307],[-60.8851763,13.84618187],[-60.88508678,13.84781981],[-60.88338852,13.84948647],[-60.88489771,13.85140681],[-60.88070023,13.85358357],[-60.88006663,13.85502386],[-60.88321102,13.85599184],[-60.88494754,13.85498226],[-60.88695204,13.85827827],[-60.88688934,13.85857701],[-60.88577867,13.85880113],[-60.88426852,13.85779476],[-60.87909973,13.85930371],[-60.87629604,13.86337495],[-60.87605321,13.86463475],[-60.8761214,13.86534905],[-60.87874353,13.8652271],[-60.88305056,13.86239493],[-60.88511574,13.86239755],[-60.88440502,13.86556995],[-60.88608682,13.86649001],[-60.88393772,13.8700664],[-60.88010132,13.87014711],[-60.88051164,13.87162185],[-60.88679457,13.87164176],[-60.88782036,13.87040615],[-60.89490128,13.86976182],[-60.89652216,13.87057447],[-60.89727342,13.87318528],[-60.89180064,13.87606788],[-60.89470375,13.87797046],[-60.89309251,13.88039315],[-60.88767481,13.88123465],[-60.88718951,13.87951577],[-60.88264096,13.87854981],[-60.88241315,13.87977481],[-60.88267887,13.8800379],[-60.88546753,13.88134146],[-60.88547683,13.88170993],[-60.88244665,13.88191903],[-60.88407576,13.88542342],[-60.88353026,13.8863765],[-60.88182867,13.88671875],[-60.87996841,13.88774157],[-60.87984323,13.88816595],[-60.88139701,13.89106655],[-60.87806726,13.89273477],[-60.87938285,13.89934516],[-60.88377667,13.90020871],[-60.88380802,13.90304506],[-60.88966036,13.90629995],[-60.88981891,13.90677667],[-60.88779163,13.91061342],[-60.88161337,13.91351593],[-60.88304067,13.91605985],[-60.88909376,13.92061925],[-60.88971162,13.92565095],[-60.88764405,13.92594314],[-60.88715792,13.92752671],[-60.88255894,13.92675853],[-60.87905395,13.92768288],[-60.87780011,13.92849398],[-60.87557006,13.93290162],[-60.87543428,13.93341291],[-60.87435484,13.94154572],[-60.87767208,13.94163704],[-60.8777703,13.94344544],[-60.87312114,13.94655848],[-60.87506235,13.94964707],[-60.87431371,13.95202243],[-60.86985767,13.95323455],[-60.87136686,13.95554698],[-60.87389886,13.95456338],[-60.87719262,13.95447767],[-60.87732685,13.95493245],[-60.87688565,13.95686698],[-60.87443137,13.95769584],[-60.87390554,13.96003926],[-60.87227654,13.96093905],[-60.87367725,13.96236706],[-60.8756206,13.96102965],[-60.87750554,13.96247566],[-60.87690985,13.96632171],[-60.87337315,13.96968925],[-60.87326014,13.97008991],[-60.87468505,13.97265101],[-60.87325227,13.97586155],[-60.87462044,13.97618794],[-60.87480962,13.97646356],[-60.87547314,13.97793424],[-60.87570155,13.9794445],[-60.87465036,13.98526025],[-60.87555814,13.98843217],[-60.87694275,13.98990941],[-60.88181043,13.99227071],[-60.88177705,13.99537814],[-60.88365698,13.99676871],[-60.88692367,14.00593901],[-60.88389194,14.01334107],[-60.88466465,14.01787198],[-60.88917053,14.01867485],[-60.88706183,14.0235306],[-60.88781643,14.02438366],[-60.88678336,14.02613175],[-60.88715291,14.02884185],[-60.89150405,14.03062057],[-60.89260566,14.02992284],[-60.89369714,14.03092873],[-60.89610136,14.03087175],[-60.89120162,14.03359044],[-60.89082181,14.03508854],[-60.8921777,14.03728962],[-60.89650786,14.03915584],[-60.89225447,14.03932464],[-60.8905251,14.03843355],[-60.88794935,14.03892362],[-60.88767767,14.03921235],[-60.88600171,14.04826236],[-60.8833183,14.05099225],[-60.88403165,14.05294228],[-60.88901508,14.05677998],[-60.89177644,14.06105793],[-60.89332712,14.0625],[-60.89367461,14.0625],[-60.89563715,14.06340182],[-60.89642406,14.06527436],[-60.90087223,14.06690526],[-60.90140963,14.06691086],[-60.90404785,14.06487501],[-60.90604615,14.06549108],[-60.90849113,14.06327116],[-60.91038823,14.06295955],[-60.91036081,14.0625],[-60.91028714,14.0625],[-60.91041851,14.06132305],[-60.91159666,14.06060267],[-60.91215682,14.06083333],[-60.91201186,14.0625],[-60.91208684,14.0625],[-60.91162884,14.06428194],[-60.91284835,14.06563425],[-60.91044235,14.06825256],[-60.91213822,14.07162464],[-60.91189337,14.07335663],[-60.90825415,14.07374227],[-60.90769291,14.07479203],[-60.91284561,14.07680261],[-60.91050577,14.07873845],[-60.91044867,14.07973278],[-60.91077483,14.08022666],[-60.91264725,14.08049881],[-60.91326833,14.08026266],[-60.91569853,14.07762325],[-60.9180063,14.07721663],[-60.91834545,14.07737291],[-60.92165136,14.08045065],[-60.92064178,14.08197045],[-60.92258334,14.08631206],[-60.92692566,14.08603871],[-60.92811096,14.08801293],[-60.92686772,14.09103453],[-60.91817141,14.09148586],[-60.91657436,14.09276366],[-60.91700053,14.09469485],[-60.91835988,14.09538472],[-60.91848385,14.09920907],[-60.91736794,14.10050416],[-60.91897798,14.10374916],[-60.92173564,14.10359561],[-60.92530143,14.10650802],[-60.92890453,14.10477102],[-60.93033266,14.10735238],[-60.93248415,14.10796571],[-60.94100356,14.10731137],[-60.9449563,14.11019266],[-60.9477421,14.10682762],[-60.94736433,14.10285318],[-60.95098245,14.09924555],[-60.95119882,14.09643245],[-60.95426178,14.09640634]],[[-60.92144096,13.76482713],[-60.92153752,13.76609635],[-60.92312002,13.7664932],[-60.92510855,13.76479113],[-60.92252314,13.76370835],[-60.92208636,13.76382613],[-60.92144096,13.76482713]],[[-60.92975235,13.72979867],[-60.93018317,13.72757792],[-60.92981875,13.72761011],[-60.92925537,13.72818935],[-60.92965305,13.72976661],[-60.92975235,13.72979867]],[[-60.9330852,13.72227538],[-60.93246722,13.72169995],[-60.93117034,13.72172368],[-60.92975366,13.72327721],[-60.92926514,13.72477734],[-60.92932856,13.72530234],[-60.93024123,13.72593451],[-60.93069303,13.72602665],[-60.93340623,13.72495031],[-60.9330852,13.72227538]]]]},"geometry_name":"the_geom","properties":{"mrgid":8416,"geoname":"Saint Lucian Exclusive Economic Zone","mrgid_ter1":8647,"pol_type":"200NM","mrgid_sov1":8647,"territory1":"Saint Lucia","iso_ter1":"LCA","sovereign1":"Saint Lucia","mrgid_ter2":null,"mrgid_sov2":null,"territory2":null,"iso_ter2":null,"sovereign2":null,"mrgid_ter3":null,"mrgid_sov3":null,"territory3":null,"iso_ter3":null,"sovereign3":null,"x_1":-61.10359,"y_1":13.8777,"mrgid_eez":8416,"area_km2":15413,"iso_sov1":"LCA","iso_sov2":null,"iso_sov3":null,"un_sov1":662,"un_sov2":null,"un_sov3":null,"un_ter1":662,"un_ter2":null,"un_ter3":null}}],"totalFeatures":1,"numberMatched":1,"numberReturned":1,"timeStamp":"2026-08-21T22:26:57.027Z","crs":{"type":"name","properties":{"name":"urn:ogc:def:crs:EPSG::4326"}}}