{"type":"FeatureCollection","features":[{"type":"Feature","id":"eez.60","geometry":{"type":"MultiPolygon","coordinates":[[[[-58.3682821,18.54153255],[-58.57253778,18.44083492],[-59.11362431,18.17408039],[-59.11982531,18.17082716],[-59.12601719,18.16757578],[-59.13219994,18.16432625],[-59.13837359,18.16107857],[-59.14453811,18.15783273],[-59.15069351,18.15458875],[-59.1568398,18.15134661],[-59.16297696,18.14810633],[-59.16910501,18.14486789],[-59.17522394,18.14163131],[-59.80758367,17.80651959],[-59.92234194,17.74372741],[-60.03245067,17.68147277],[-60.13791148,17.61975657],[-60.21651915,17.57205724],[-60.23873382,17.55857878],[-60.3349366,17.49793821],[-60.42649441,17.43783894],[-60.51340919,17.37828179],[-60.59568298,17.31926757],[-60.67331789,17.26079706],[-60.70405712,17.23640689],[-60.73698581,17.20885526],[-61.02604695,16.96634121],[-61.13104108,16.92980669],[-61.35545943,16.85744492],[-61.37912156,16.84918047],[-61.40236965,16.8409832],[-61.40677856,16.8394315],[-61.43649148,16.82862507],[-61.54142118,16.78723596],[-61.54269175,16.78667882],[-61.54755872,16.78449318],[-61.55239807,16.78226815],[-61.55643938,16.7803663],[-61.5708253,16.77299447],[-61.57133201,16.77273543],[-61.57183892,16.77247691],[-61.57234605,16.77221889],[-61.57285338,16.77196138],[-61.57336093,16.77170439],[-61.57386868,16.77144791],[-61.57437665,16.77119194],[-61.57488482,16.77093648],[-61.5753932,16.77068153],[-61.5759018,16.7704271],[-61.6030664,16.75686977],[-61.62992425,16.74511561],[-61.64577511,16.73910764],[-61.65729524,16.7344394],[-61.68513387,16.72474597],[-61.70103887,16.72007448],[-61.71359685,16.71636489],[-61.72846938,16.71274756],[-61.74260296,16.70912594],[-61.74269329,16.70910734],[-61.77115455,16.70093277],[-61.79421398,16.69547086],[-61.80008295,16.6935324],[-61.82872262,16.6855261],[-61.83155233,16.68487275],[-61.8422021,16.6947396],[-61.85012763,16.7021485],[-61.89580913,16.7375281],[-61.90845137,16.74810007],[-61.91095802,16.75045872],[-61.94117725,16.77297245],[-61.97151377,16.79643556],[-62.00079485,16.81285731],[-62.03060935,16.83004702],[-62.03370049,16.83112462],[-62.05015871,16.83730782],[-62.06667165,16.84768435],[-62.08967685,16.86341765],[-62.14718548,16.88359509],[-62.15808594,16.88346535],[-62.168644,16.8843448],[-62.19834373,16.88789835],[-62.20289099,16.88851559],[-62.20333626,16.88839139],[-62.25039722,16.87553666],[-62.25630927,16.87408223],[-62.26684889,16.86677821],[-62.30554553,16.84011062],[-62.30950138,16.83544201],[-62.31139277,16.83326897],[-62.33401727,16.81568588],[-62.3948668,16.78155006],[-62.4039347,16.77631659],[-62.63551086,16.66657122],[-62.6358333,16.66641831],[-62.63615586,16.6662653],[-62.63647854,16.66611217],[-62.63680133,16.66595894],[-62.63712425,16.6658056],[-62.63744728,16.66565215],[-62.63777042,16.6654986],[-62.63809369,16.66534493],[-62.63841707,16.66519116],[-62.63874057,16.66503727],[-62.75095983,16.61163044],[-62.75092346,16.61168402],[-62.66330572,16.73986621],[-62.58786727,16.84971925],[-62.5688582,16.87724424],[-62.5553909,16.89663484],[-62.54872736,16.90615783],[-62.54431372,16.912271],[-62.52906002,16.93319798],[-62.52472845,16.93799007],[-62.52386147,16.93895488],[-62.52299951,16.93991981],[-62.52214256,16.94088486],[-62.52129063,16.94185003],[-62.52044371,16.94281531],[-62.51960181,16.94378072],[-62.51876492,16.94474625],[-62.51793304,16.94571189],[-62.51710618,16.94667766],[-62.51628434,16.94764354],[-62.47939323,16.99126689],[-62.478583,16.99222226],[-62.46007827,17.01398056],[-62.44215532,17.03498824],[-62.43798471,17.0396036],[-62.43285114,17.05142119],[-62.42307583,17.07310814],[-62.41894269,17.08082509],[-62.40188956,17.11248912],[-62.39839687,17.13177065],[-62.39833988,17.13207888],[-62.39323544,17.15355404],[-62.38873668,17.17213478],[-62.38539365,17.18351627],[-62.38364733,17.18940286],[-62.38194986,17.1942686],[-62.3819286,17.19458693],[-62.37978163,17.22043519],[-62.37866357,17.23367764],[-62.37625489,17.26175944],[-62.37625288,17.26178253],[-62.37418634,17.28272998],[-62.37685489,17.30488148],[-62.37991572,17.34038106],[-62.3833312,17.38045758],[-62.39943062,17.44245314],[-62.40343483,17.48415733],[-62.40935582,17.50961403],[-62.41281815,17.57764266],[-62.41286751,17.5819418],[-62.41642548,17.61038123],[-62.41853385,17.62869468],[-62.41973833,17.64048932],[-62.42165108,17.66173425],[-62.41326729,17.67472523],[-62.37616647,17.74692546],[-62.36670674,17.77083743],[-62.34408752,17.82187022],[-62.31804995,17.90011036],[-62.31330485,17.92051981],[-62.29041441,18.01645783],[-62.29003577,18.01805553],[-62.28965937,18.01965491],[-62.28928523,18.021256],[-62.28891335,18.02285877],[-62.28854372,18.02446324],[-62.28817635,18.02606941],[-62.28781123,18.02767727],[-62.28744836,18.02928682],[-62.28708775,18.03089807],[-62.28672939,18.03251101],[-62.26948025,18.11070473],[-62.26186724,18.14281164],[-62.26105897,18.1462614],[-62.26025849,18.14971954],[-62.2594658,18.15318607],[-62.2586809,18.15666098],[-62.25790379,18.16014429],[-62.25713447,18.16363597],[-62.25637294,18.16713604],[-62.25561921,18.1706445],[-62.25487327,18.17416133],[-62.25413512,18.17768655],[-62.22634757,18.31207614],[-62.22634441,18.31209142],[-61.9747333,18.7618592],[-61.73160399,19.19393134],[-61.2001343,20.13842154],[-61.01663773,20.46192475],[-60.98208718,20.52313151],[-60.76436871,20.87700373],[-60.73666931,20.92202538],[-60.7364383,20.92249021],[-60.71969188,20.91752357],[-60.60920534,20.88087559],[-60.59884222,20.87700373],[-60.57763162,20.86907903],[-60.46488614,20.82695509],[-60.32331137,20.7670599],[-60.18476233,20.70131086],[-60.04951308,20.62984039],[-59.91782987,20.55279221],[-59.78997055,20.47032099],[-59.66618404,20.38259197],[-59.54670978,20.28978056],[-59.47475462,20.22963889],[-59.40460588,20.16765296],[-59.33631501,20.10387036],[-59.26993187,20.03834],[-59.23781726,20.00573871],[-59.17695846,19.94230087],[-59.11788218,19.87739328],[-59.09001012,19.84594196],[-59.05716448,19.80830496],[-58.97376864,19.70731791],[-58.95871431,19.68754386],[-58.93381965,19.65484442],[-58.89461515,19.6033488],[-58.87761826,19.58007612],[-58.8216668,19.50222138],[-58.82061748,19.50069215],[-58.81852274,19.49763015],[-58.81747816,19.49609862],[-58.80913206,19.48382397],[-58.80809206,19.48228969],[-58.8060154,19.47921677],[-58.80497958,19.47767938],[-58.80084311,19.47152109],[-58.79981181,19.469981],[-58.79775314,19.46689731],[-58.7967266,19.46535496],[-58.78910764,19.4538719],[-58.78852506,19.45299386],[-58.78750313,19.45144881],[-58.78546264,19.44835439],[-58.78444493,19.44680627],[-58.78038096,19.44060514],[-58.77936779,19.43905437],[-58.77734541,19.43594936],[-58.77633703,19.43439638],[-58.76828097,19.42195035],[-58.76727722,19.42039473],[-58.76527314,19.41727917],[-58.76427364,19.41572052],[-58.76028263,19.40947731],[-58.75928771,19.40791605],[-58.75878507,19.40712484],[-58.75730185,19.4047901],[-58.75631174,19.40322668],[-58.74840205,19.39069725],[-58.74741208,19.38912404],[-58.74543565,19.38597333],[-58.74444907,19.3843956],[-58.74197569,19.38042767],[-58.74150123,19.37967136],[-58.74051501,19.37809435],[-58.73659146,19.37180042],[-58.7356134,19.3702265],[-58.73366135,19.36707527],[-58.73268815,19.36549924],[-58.72491776,19.35287504],[-58.72394972,19.35129721],[-58.72201716,19.34813731],[-58.72105344,19.34655654],[-58.71720577,19.34022498],[-58.71624668,19.33864169],[-58.71426942,19.33536706],[-58.71337839,19.3338864],[-58.70567532,19.32104643],[-58.70522965,19.3203027],[-58.70489594,19.31974513],[-58.70450761,19.31909547],[-58.70309637,19.3167324],[-58.70276187,19.31617164],[-58.70209326,19.31504949],[-58.70175943,19.31448858],[-58.69900776,19.30985977],[-58.69796665,19.30810217],[-58.69588969,19.30458334],[-58.6948543,19.3028229],[-58.69089765,19.29607125],[-58.68991101,19.29438184],[-58.68794241,19.29099937],[-58.68696108,19.28930741],[-58.6817949,19.28036907],[-58.6815525,19.27994968],[-58.68087839,19.27878051],[-58.68027052,19.27772371],[-58.67953191,19.27643961],[-58.67886009,19.27526884],[-58.67617637,19.27058067],[-58.67550717,19.26940881],[-58.67417087,19.26706318],[-58.67350455,19.26589075],[-58.66501115,19.25090896],[-58.66395369,19.24903634],[-58.66184396,19.24528588],[-58.66079254,19.24340956],[-58.66000605,19.24200053],[-58.6565974,19.23589384],[-58.65555238,19.23401433],[-58.65346812,19.23025112],[-58.65242973,19.22836896],[-58.64703551,19.21855256],[-58.64414095,19.21328504],[-58.64310906,19.2113997],[-58.64105053,19.20762387],[-58.64002473,19.20573491],[-58.63902546,19.20388748],[-58.63593219,19.19816875],[-58.63491282,19.19627668],[-58.63287993,19.19248841],[-58.63192303,19.19069818],[-58.63186723,19.19059377],[-58.62948272,19.18611456],[-58.62881719,19.18486436],[-58.62107809,19.17099669],[-58.61019229,19.149515],[-58.60802362,19.14523542],[-58.59801559,19.12548589],[-58.58279275,19.09544563],[-58.57593115,19.08158595],[-58.57477804,19.07924476],[-58.57329108,19.07621038],[-58.57248018,19.0745556],[-58.57133637,19.07220954],[-58.56677807,19.06281183],[-58.56564395,19.06046155],[-58.56338474,19.05575555],[-58.56226057,19.05340174],[-58.55329837,19.03453739],[-58.55218404,19.03217941],[-58.54996383,19.0274568],[-58.54912704,19.0256675],[-58.54885887,19.02509409],[-58.54445616,19.01563002],[-58.54336095,19.01326324],[-58.54117964,19.00852435],[-58.54009443,19.00615419],[-58.53744043,19.00032624],[-58.53144439,18.98715942],[-58.53036907,18.98478523],[-58.52822699,18.98003032],[-58.52716111,18.97765153],[-58.52291493,18.96812342],[-58.52185886,18.96574071],[-58.51975591,18.9609701],[-58.51870989,18.95858415],[-58.51037385,18.9394636],[-58.50933777,18.93707378],[-58.50727427,18.93228773],[-58.5062477,18.92989344],[-58.50215895,18.92030361],[-58.50114224,18.91790555],[-58.49911809,18.91310438],[-58.49811147,18.91070324],[-58.49009118,18.89146157],[-58.48909456,18.88905669],[-58.48711008,18.88424066],[-58.48612303,18.88183147],[-58.48219255,18.87218226],[-58.48121542,18.86976943],[-58.47927049,18.86493887],[-58.4783035,18.86252311],[-58.47060063,18.84316501],[-58.46964367,18.84074567],[-58.46773861,18.83590083],[-58.46679129,18.83347732],[-58.46301991,18.82377107],[-58.46208255,18.82134406],[-58.46021726,18.81648529],[-58.45929007,18.8140555],[-58.45190622,18.79458568],[-58.45158535,18.79373771],[-58.45084039,18.79176395],[-58.45048604,18.79082286],[-58.44907023,18.78705379],[-58.44885193,18.78647177],[-58.44841569,18.78530702],[-58.4480635,18.78436445],[-58.44772804,18.78346433],[-58.44478118,18.77554396],[-58.44435356,18.77439236],[-58.44371266,18.77266319],[-58.44311479,18.7710433],[-58.44192338,18.76780187],[-58.44132999,18.76618076],[-58.44084007,18.76483672],[-58.43952613,18.76123207],[-58.43907663,18.75999499],[-58.43817996,18.75751932],[-58.43773304,18.75628144],[-58.43578287,18.75086249],[-58.43553973,18.75018565],[-58.43505394,18.748831],[-58.43481149,18.74815373],[-58.43384272,18.74544269],[-58.43360105,18.74476521],[-58.43311836,18.74340963],[-58.43287755,18.74273215],[-58.43052995,18.73611548],[-58.43010439,18.73491352],[-58.42949707,18.7331946],[-58.42939601,18.73290857],[-58.4289719,18.73170566],[-58.4277013,18.72809416],[-58.4272788,18.72689073],[-58.42706671,18.72628533],[-58.4265758,18.72488404],[-58.42615506,18.7236805],[-58.4245201,18.71899379],[-58.42392588,18.7172904],[-58.42364204,18.71647496],[-58.42307519,18.7148429],[-58.4227924,18.71402691],[-58.42166284,18.71076056],[-58.42138116,18.70994424],[-58.42081876,18.70831081],[-58.42053826,18.70749437],[-58.41985157,18.7054912],[-58.41829667,18.7009553],[-58.41801733,18.70013863],[-58.41745947,18.69850406],[-58.41718117,18.69768682],[-58.41606958,18.69441542],[-58.41587737,18.69384851],[-58.41579246,18.69359807],[-58.41523919,18.69196257],[-58.41496341,18.69114554],[-58.41055143,18.67804483],[-58.4100027,18.67640809],[-58.40890907,18.67313149],[-58.40836462,18.67149296],[-58.4061946,18.66493263],[-58.40565462,18.66329277],[-58.40486869,18.66089516],[-58.40457881,18.66001083],[-58.40442099,18.65952717],[-58.40404342,18.6583701],[-58.39977434,18.64522665],[-58.39924345,18.64358459],[-58.39818556,18.6402974],[-58.39765898,18.6386536],[-58.39556049,18.63207226],[-58.39503839,18.63042717],[-58.39399836,18.62713482],[-58.39348086,18.6254889],[-58.39247702,18.62228095],[-58.39180184,18.62012329],[-58.38935505,18.61230412],[-58.38884206,18.61065693],[-58.38781999,18.60735949],[-58.38731133,18.6057106],[-58.38528455,18.59910895],[-58.38478037,18.59745881],[-58.38377622,18.59415639],[-58.38327664,18.59250547],[-58.37936659,18.57925742],[-58.37885351,18.5776111],[-58.37851905,18.57653535],[-58.37841971,18.57621585],[-58.37784737,18.57431097],[-58.37735209,18.57265853],[-58.37615294,18.56864789],[-58.37543483,18.56624611],[-58.37537445,18.56604417],[-58.37489156,18.56438838],[-58.37394136,18.5610712],[-58.37346764,18.55941323],[-58.37256176,18.55623457],[-58.37058642,18.54930323],[-58.3697255,18.54612755],[-58.36926467,18.54446744],[-58.3682821,18.54153255]],[[-61.85287595,17.72307575],[-61.85384631,17.71972573],[-61.85205591,17.72008824],[-61.85144115,17.72171557],[-61.85077655,17.71876645],[-61.84947026,17.72044444],[-61.84815395,17.71983504],[-61.84908676,17.71768975],[-61.85073006,17.71696484],[-61.85410476,17.71897495],[-61.85637581,17.71664953],[-61.86116612,17.71822155],[-61.86239791,17.71704924],[-61.86287469,17.71338783],[-61.86316991,17.71386802],[-61.86708367,17.71592188],[-61.86978662,17.71568596],[-61.875,17.70758915],[-61.875,17.70731032],[-61.87980187,17.70212197],[-61.88408565,17.69956541],[-61.88626242,17.69683623],[-61.88619494,17.6964221],[-61.88425124,17.69341791],[-61.875,17.68694186],[-61.875,17.68666291],[-61.87373841,17.68605638],[-61.86888373,17.68066227],[-61.86431873,17.66558373],[-61.8577913,17.65948117],[-61.85274374,17.64534056],[-61.85301554,17.65385532],[-61.85117733,17.65782964],[-61.85579586,17.66073525],[-61.85890007,17.66559696],[-61.85807633,17.67157614],[-61.86207962,17.67345917],[-61.86251354,17.67864025],[-61.86952555,17.68314195],[-61.86831665,17.68903768],[-61.86951971,17.68848515],[-61.87096786,17.68484855],[-61.8711431,17.68487227],[-61.875,17.68833697],[-61.875,17.68861604],[-61.87520444,17.68861985],[-61.87728155,17.69251561],[-61.87831581,17.69676375],[-61.87845063,17.69752312],[-61.87778091,17.69921875],[-61.875,17.69921875],[-61.87436521,17.69922161],[-61.87212586,17.69841874],[-61.8702898,17.69284666],[-61.86849165,17.69131482],[-61.86831105,17.69088936],[-61.86777461,17.68570864],[-61.86587393,17.6818155],[-61.86431277,17.68051815],[-61.86060786,17.68027627],[-61.86050212,17.68156803],[-61.86424494,17.68455207],[-61.86614525,17.68932104],[-61.86578894,17.69333136],[-61.86103141,17.69884455],[-61.86401904,17.7078582],[-61.86300293,17.71240306],[-61.86350751,17.70852816],[-61.86023784,17.70071483],[-61.86047781,17.69789004],[-61.8621006,17.69545448],[-61.86203063,17.69514453],[-61.85921931,17.69377434],[-61.85628796,17.69721842],[-61.85391283,17.69511354],[-61.85616291,17.69361126],[-61.84678781,17.69179702],[-61.84551716,17.69030261],[-61.84276664,17.69342184],[-61.84089732,17.69114757],[-61.84071445,17.68906665],[-61.83665335,17.68436325],[-61.83181035,17.68098128],[-61.83022034,17.68146396],[-61.83160055,17.67542207],[-61.83057487,17.66934228],[-61.83295596,17.66530454],[-61.83497167,17.66448844],[-61.83472097,17.66247535],[-61.83585751,17.66258085],[-61.8347702,17.65939772],[-61.832937,17.65966904],[-61.83370531,17.65581155],[-61.83210301,17.65637517],[-61.83171582,17.65491283],[-61.82882273,17.65361607],[-61.82943344,17.65248585],[-61.82837582,17.65123403],[-61.8271687,17.65190685],[-61.82744706,17.65057015],[-61.82529604,17.64763033],[-61.82648015,17.64720571],[-61.83254755,17.63711417],[-61.83475327,17.63155746],[-61.83252478,17.62790823],[-61.83260846,17.61528862],[-61.83599126,17.61172223],[-61.83823204,17.61099136],[-61.84053552,17.61211705],[-61.84195435,17.61042345],[-61.84645081,17.60893595],[-61.84908986,17.60880887],[-61.85080385,17.60995686],[-61.85006654,17.61367905],[-61.85156024,17.61428106],[-61.85941052,17.59200227],[-61.8608731,17.58515286],[-61.86087322,17.58472252],[-61.85955703,17.58187854],[-61.85929406,17.5814923],[-61.85749495,17.58044374],[-61.85698533,17.58051455],[-61.85523045,17.58125997],[-61.85057235,17.58488286],[-61.83820951,17.59176743],[-61.83502722,17.59297895],[-61.82946646,17.59367752],[-61.82478642,17.59238434],[-61.82430208,17.59139824],[-61.8217833,17.59164858],[-61.8222506,17.58915544],[-61.82195437,17.58903515],[-61.8195647,17.59084415],[-61.81128502,17.58425057],[-61.80320585,17.58062983],[-61.80123317,17.578125],[-61.80129457,17.578125],[-61.79906178,17.57562876],[-61.79504526,17.57287943],[-61.78522897,17.57217383],[-61.77438271,17.56552696],[-61.77413666,17.56528807],[-61.76740742,17.55489981],[-61.76619685,17.55008376],[-61.76652217,17.54300582],[-61.76620245,17.5429244],[-61.76327527,17.54726517],[-61.76250815,17.55061317],[-61.75940025,17.55292797],[-61.75946832,17.55425322],[-61.76319325,17.55612397],[-61.76042962,17.55726957],[-61.75843096,17.55515647],[-61.75232995,17.55312145],[-61.74814153,17.55342972],[-61.7432183,17.55166662],[-61.73649895,17.54745197],[-61.73497605,17.54413903],[-61.73292816,17.54330134],[-61.73261821,17.54340506],[-61.73139584,17.54429412],[-61.73097551,17.54590201],[-61.73118615,17.54624295],[-61.73593175,17.55027115],[-61.73555315,17.55537581],[-61.73569655,17.55567765],[-61.73954725,17.56010795],[-61.73955107,17.56259453],[-61.73922324,17.56359875],[-61.73614013,17.57009971],[-61.73826146,17.57601512],[-61.73841107,17.578125],[-61.73829734,17.578125],[-61.73817766,17.58196974],[-61.73481858,17.58577752],[-61.73475397,17.58912361],[-61.73171902,17.59250224],[-61.73200643,17.59561694],[-61.73074067,17.59804273],[-61.73238874,17.60039258],[-61.73215771,17.60500693],[-61.73529732,17.61134636],[-61.73540211,17.61812305],[-61.73780107,17.62493134],[-61.73832917,17.63209391],[-61.740592,17.63824821],[-61.74447608,17.64552975],[-61.74776471,17.64917064],[-61.74857843,17.6519227],[-61.75803065,17.65997982],[-61.76363182,17.66654813],[-61.77231455,17.67203164],[-61.77339125,17.67458296],[-61.77949476,17.68011665],[-61.78311336,17.68738365],[-61.79088354,17.69488084],[-61.79500723,17.70080364],[-61.802055,17.700405],[-61.80517232,17.69783545],[-61.81183302,17.70408654],[-61.81628334,17.70367312],[-61.81832194,17.70239603],[-61.81884563,17.70363545],[-61.82079136,17.70161104],[-61.82999766,17.71391118],[-61.83668125,17.72161448],[-61.83919835,17.72296166],[-61.83982337,17.72391641],[-61.84138954,17.72702515],[-61.84263241,17.7281847],[-61.84486854,17.72928214],[-61.84795582,17.72857904],[-61.85322595,17.72662365],[-61.85532534,17.72390556],[-61.85535193,17.72367406],[-61.85287595,17.72307575]],[[-61.84806931,17.62960374],[-61.85230184,17.64296246],[-61.85272193,17.63829005],[-61.85008216,17.62222695],[-61.84964526,17.62201095],[-61.8487246,17.62357914],[-61.84806931,17.62960374]],[[-61.83516705,17.67155373],[-61.83553874,17.67165852],[-61.83628595,17.67121828],[-61.83650756,17.67094207],[-61.83660245,17.66733801],[-61.83560967,17.66752934],[-61.83442974,17.66523325],[-61.83404195,17.66543066],[-61.83404934,17.6692028],[-61.83516705,17.67155373]],[[-61.83238685,17.1730206],[-61.84027231,17.16856027],[-61.84239805,17.16899216],[-61.84315741,17.16691196],[-61.84710062,17.16599858],[-61.84618795,17.16204357],[-61.84818673,17.15811765],[-61.8537358,17.1541599],[-61.85448587,17.15507364],[-61.85577512,17.15450418],[-61.85441983,17.15189636],[-61.85491943,17.14940214],[-61.85918367,17.14250302],[-61.86032903,17.13930297],[-61.85919225,17.13747907],[-61.86444271,17.13151097],[-61.86450887,17.12985921],[-61.86348414,17.12932706],[-61.86159992,17.13152075],[-61.85915565,17.13159788],[-61.85196292,17.12962985],[-61.8515892,17.12808943],[-61.85289896,17.1265465],[-61.85719883,17.12706566],[-61.85797071,17.12535703],[-61.84946835,17.12369835],[-61.84759152,17.12199354],[-61.84761047,17.12039232],[-61.84461045,17.11823535],[-61.84469521,17.11755717],[-61.84486175,17.11721778],[-61.84647977,17.11904538],[-61.85109472,17.1176002],[-61.85536754,17.11960113],[-61.85644531,17.12161565],[-61.86080325,17.11920094],[-61.8622514,17.12068391],[-61.86419225,17.11944044],[-61.86447847,17.11944842],[-61.86751604,17.12039125],[-61.86736167,17.12319255],[-61.87099886,17.12640452],[-61.875,17.12555802],[-61.87605953,17.12510836],[-61.87665641,17.1252259],[-61.87911344,17.12928557],[-61.8801558,17.12837112],[-61.88058495,17.12844443],[-61.88294828,17.13021755],[-61.88928711,17.12939715],[-61.89160347,17.12874687],[-61.89162135,17.12857103],[-61.89039481,17.12754714],[-61.88604164,17.12798691],[-61.88542724,17.12530518],[-61.89043927,17.12460506],[-61.89092827,17.12281644],[-61.89311802,17.12124765],[-61.89770412,17.12047815],[-61.89856327,17.11870325],[-61.89729357,17.11745083],[-61.89813292,17.11560535],[-61.89740396,17.11451983],[-61.89761806,17.11397815],[-61.89867866,17.11237955],[-61.90024352,17.11264753],[-61.89996505,17.11143994],[-61.90298784,17.10891914],[-61.90320265,17.10841835],[-61.90368986,17.10603905],[-61.90125644,17.10483265],[-61.90556824,17.10051835],[-61.90178645,17.09800935],[-61.89934957,17.09887421],[-61.89593434,17.10214973],[-61.89150274,17.10076976],[-61.88992894,17.10279465],[-61.88121796,17.10391045],[-61.87852454,17.10532665],[-61.87498713,17.10498321],[-61.87475312,17.10502625],[-61.8731817,17.10245132],[-61.8749994,17.09933031],[-61.87549973,17.09699285],[-61.87550068,17.09698796],[-61.87805796,17.09538794],[-61.87811744,17.09325623],[-61.88152528,17.08707142],[-61.89039075,17.08867586],[-61.89248323,17.0878067],[-61.89433455,17.08459163],[-61.89774275,17.08434641],[-61.8997339,17.08616161],[-61.90179157,17.08488202],[-61.90301645,17.08531284],[-61.90428746,17.08249426],[-61.90620124,17.08132005],[-61.90632713,17.08103013],[-61.90632772,17.07941127],[-61.90503681,17.07814658],[-61.90376055,17.07970822],[-61.89936614,17.08045852],[-61.89607954,17.07783902],[-61.89212537,17.07951713],[-61.89021027,17.0768671],[-61.88982725,17.07510614],[-61.89084792,17.073511],[-61.89012134,17.07273126],[-61.88928032,17.07700646],[-61.88889718,17.07386827],[-61.88829541,17.07660556],[-61.88762057,17.07512355],[-61.88601565,17.07738996],[-61.88410056,17.07718074],[-61.88767517,17.07324076],[-61.88576305,17.07093656],[-61.8840965,17.07658672],[-61.88324344,17.07641375],[-61.88450193,17.06825435],[-61.8831706,17.06584847],[-61.88566923,17.06588328],[-61.88561451,17.06846356],[-61.88721943,17.06762683],[-61.88605213,17.06917834],[-61.88647163,17.06978858],[-61.88763893,17.06858575],[-61.88689113,17.07003283],[-61.88774824,17.07032907],[-61.88787591,17.06935275],[-61.88885927,17.07100666],[-61.88807654,17.06738281],[-61.88935316,17.07071257],[-61.89190638,17.07331038],[-61.89385796,17.07374632],[-61.89563191,17.07155931],[-61.89225304,17.07147968],[-61.88995504,17.06982362],[-61.88820088,17.06328177],[-61.89026177,17.06019723],[-61.89182711,17.05440605],[-61.89476156,17.05426955],[-61.89834023,17.05078125],[-61.89832091,17.05078125],[-61.89632177,17.04952586],[-61.8965075,17.04589355],[-61.89421666,17.04241812],[-61.89441204,17.03775907],[-61.89036322,17.0298171],[-61.89062095,17.02640295],[-61.887784,17.02584922],[-61.88836145,17.02454221],[-61.88715005,17.02359223],[-61.88496375,17.02429175],[-61.88435853,17.02242923],[-61.88260794,17.02144897],[-61.875,17.02260041],[-61.87386262,17.02257264],[-61.86593354,17.02197814],[-61.86400461,17.02012014],[-61.86383092,17.02011025],[-61.86272407,17.02168775],[-61.86083984,17.02197361],[-61.86013186,17.02174735],[-61.85879993,17.020473],[-61.85888195,17.0169878],[-61.85839641,17.01645315],[-61.85698235,17.01598263],[-61.84495854,17.01664746],[-61.84383905,17.01566625],[-61.84465694,17.01286495],[-61.84271955,17.01166582],[-61.84037066,17.01384068],[-61.83787525,17.01150322],[-61.83521164,17.01571858],[-61.83242691,17.01533866],[-61.83160305,17.01377213],[-61.83276534,17.01247835],[-61.83253801,17.00616503],[-61.83386624,17.00472236],[-61.83209825,17.00339913],[-61.83085346,17.00532675],[-61.82142425,17.00661135],[-61.82004023,17.00797486],[-61.81666064,17.00760615],[-61.81455016,17.00915182],[-61.81188154,17.00921345],[-61.81101954,17.00808537],[-61.8096863,17.00940597],[-61.80923247,17.01361835],[-61.80860496,17.01418126],[-61.80790007,17.01437354],[-61.80506027,17.01337397],[-61.79950023,17.01448572],[-61.79863334,17.01187551],[-61.79089415,17.01116812],[-61.78491068,17.00587881],[-61.785115,17.00940704],[-61.78663135,17.01002586],[-61.78677273,17.01157963],[-61.78314757,17.01795888],[-61.78012991,17.01957333],[-61.78040123,17.02082181],[-61.7768656,17.02141964],[-61.77574062,17.01987398],[-61.77466548,17.02113462],[-61.76994896,17.02125454],[-61.76791263,17.01976752],[-61.76967061,17.01773858],[-61.76938808,17.01455736],[-61.77082515,17.01469183],[-61.7763803,17.00894237],[-61.77867651,17.00794375],[-61.77844822,17.00524712],[-61.77492821,17.00472116],[-61.77371788,17.00153101],[-61.76932192,17.00004375],[-61.76636064,17.00362468],[-61.76261175,17.00334847],[-61.76268351,17.00577843],[-61.76031184,17.00545013],[-61.75926936,17.00270271],[-61.76154363,17.00146306],[-61.76030326,16.99896026],[-61.76001656,16.99870527],[-61.75836325,16.99974656],[-61.7547003,16.99695218],[-61.75069487,16.99885035],[-61.74890816,16.9986124],[-61.74853647,16.99754298],[-61.74710166,16.99754286],[-61.74630356,16.99764025],[-61.73895836,17.00259137],[-61.73873711,17.00293291],[-61.73890805,17.00436497],[-61.73926544,17.00459576],[-61.74178171,17.00398397],[-61.74203455,17.00405025],[-61.74272406,17.00544727],[-61.73955476,17.00610364],[-61.73798013,17.00540435],[-61.73766172,17.00185323],[-61.73650825,17.0012691],[-61.73368061,17.00186765],[-61.73341048,17.00216627],[-61.73275638,17.00323176],[-61.73324871,17.00738382],[-61.73337126,17.00765955],[-61.73620963,17.00995803],[-61.73835242,17.01390421],[-61.73723865,17.01581275],[-61.73431253,17.01578605],[-61.7353332,17.01358306],[-61.73352563,17.01069462],[-61.72957802,17.01824164],[-61.73073566,17.02099454],[-61.73336661,17.02277803],[-61.73313594,17.02419221],[-61.73544943,17.02423275],[-61.7383697,17.02655125],[-61.73953104,17.03242552],[-61.74229896,17.03420222],[-61.7414155,17.03669643],[-61.7437638,17.03855777],[-61.74380052,17.04256487],[-61.74325371,17.04321575],[-61.74269402,17.04338896],[-61.74151766,17.04324997],[-61.73959732,17.04163575],[-61.73741126,17.0432775],[-61.73279774,17.042189],[-61.71713924,17.03341651],[-61.71064103,17.03115892],[-61.70991588,17.03103125],[-61.69892716,17.03172815],[-61.69169772,17.02991438],[-61.69052947,17.03099418],[-61.69117165,17.03342795],[-61.69023752,17.03244102],[-61.6850363,17.03299344],[-61.6844871,17.03508866],[-61.68473482,17.03556311],[-61.68541384,17.03623605],[-61.68677616,17.03551602],[-61.68806767,17.03552234],[-61.68901324,17.03617454],[-61.68911457,17.03779125],[-61.68861568,17.03891134],[-61.6868422,17.03953361],[-61.68600023,17.03948867],[-61.68484795,17.03853977],[-61.68251824,17.04046381],[-61.6818763,17.04524994],[-61.67882311,17.04419327],[-61.67789221,17.04162586],[-61.67294466,17.04587293],[-61.67317605,17.04712355],[-61.67472971,17.04607415],[-61.67762446,17.04732788],[-61.67546034,17.04916835],[-61.67560625,17.05078125],[-61.67544091,17.05078125],[-61.67337406,17.05300415],[-61.67712414,17.05514777],[-61.67666852,17.05707562],[-61.67766583,17.05887055],[-61.67676651,17.06047416],[-61.67221177,17.06105363],[-61.67647374,17.06182241],[-61.67767525,17.06443524],[-61.67915678,17.0647397],[-61.67607677,17.06603622],[-61.67888415,17.06741202],[-61.67737067,17.07004738],[-61.67794502,17.07141495],[-61.67832661,17.07164514],[-61.68006861,17.07184374],[-61.68307436,17.06824565],[-61.68605733,17.06881261],[-61.68649065,17.06761515],[-61.69030213,17.06625795],[-61.69212341,17.06665611],[-61.69271827,17.06936562],[-61.69600737,17.06768572],[-61.69642925,17.06966937],[-61.69924307,17.07124937],[-61.69866323,17.07338846],[-61.70023262,17.07508457],[-61.70265758,17.07447755],[-61.71089196,17.06839335],[-61.71204126,17.07032907],[-61.71142936,17.07142854],[-61.70906043,17.07075095],[-61.70273912,17.07598042],[-61.70272946,17.07722926],[-61.70434475,17.07755566],[-61.70285332,17.07854116],[-61.70415306,17.08001494],[-61.70245683,17.07958913],[-61.69931746,17.08084261],[-61.69760156,17.08014703],[-61.69450092,17.08304107],[-61.69278896,17.08268166],[-61.69251037,17.08940935],[-61.69113874,17.08769512],[-61.69110405,17.08550775],[-61.68952405,17.08491302],[-61.69029617,17.08282375],[-61.68315864,17.08262873],[-61.68410635,17.0869199],[-61.68209803,17.08943713],[-61.68210065,17.09309971],[-61.68409705,17.09240377],[-61.68558848,17.09361458],[-61.68077421,17.09486973],[-61.67980492,17.0976634],[-61.67823684,17.09811664],[-61.67729115,17.10139406],[-61.67956185,17.10135961],[-61.68250501,17.09779954],[-61.68380976,17.09875405],[-61.68749654,17.09685433],[-61.68727946,17.09816325],[-61.68164134,17.10040975],[-61.68073106,17.10202515],[-61.68622577,17.10237014],[-61.68937767,17.09877396],[-61.69340825,17.10071993],[-61.69426846,17.09892702],[-61.69444096,17.10153425],[-61.69660676,17.10124433],[-61.69817364,17.10365045],[-61.70046783,17.10264206],[-61.70200312,17.10369432],[-61.70367503,17.10317922],[-61.70352352,17.10130584],[-61.70700705,17.10377514],[-61.70643973,17.10183251],[-61.70832992,17.10157907],[-61.70806503,17.10061526],[-61.70500422,17.10053468],[-61.70532906,17.09910846],[-61.70282924,17.09923744],[-61.7050482,17.09826505],[-61.70832026,17.09877801],[-61.70647001,17.09548795],[-61.7075212,17.09620321],[-61.70842123,17.09545827],[-61.70986891,17.09714246],[-61.710886,17.09582722],[-61.71143365,17.09780765],[-61.71352041,17.09525585],[-61.71758401,17.09296465],[-61.71826363,17.09318757],[-61.71911883,17.09405231],[-61.71784854,17.09473073],[-61.71786594,17.09678865],[-61.71499157,17.09794807],[-61.71481752,17.09810245],[-61.71460915,17.09929025],[-61.71531105,17.09958994],[-61.71661437,17.09858894],[-61.71833873,17.09931552],[-61.7291224,17.09600484],[-61.72971153,17.09549546],[-61.73274565,17.0902189],[-61.73345935,17.09012234],[-61.73346376,17.09144843],[-61.73294485,17.0979948],[-61.72934866,17.10008597],[-61.73097765,17.10310388],[-61.72718644,17.10455585],[-61.72594976,17.10661805],[-61.72857451,17.10755777],[-61.72851193,17.10846984],[-61.73001504,17.1078999],[-61.72955132,17.11037767],[-61.73405933,17.11068976],[-61.73417175,17.10933614],[-61.73478746,17.11003411],[-61.7361387,17.10922456],[-61.74286485,17.10952365],[-61.74530816,17.11190867],[-61.74599886,17.11475074],[-61.72900951,17.11952293],[-61.72476494,17.12360835],[-61.71860385,17.12688422],[-61.71818244,17.12830246],[-61.72022486,17.13039684],[-61.72340906,17.13050771],[-61.72406375,17.13183165],[-61.72741437,17.13077176],[-61.72801352,17.12632644],[-61.73089552,17.12450242],[-61.73300743,17.12554455],[-61.73741663,17.12106144],[-61.74048901,17.12157881],[-61.74382305,17.12001503],[-61.74633145,17.12081921],[-61.74694395,17.11511183],[-61.75035882,17.11404145],[-61.75172365,17.11974621],[-61.75344443,17.12085795],[-61.75385094,17.12303317],[-61.75252652,17.12527835],[-61.74581587,17.13039756],[-61.74637234,17.13295925],[-61.74806047,17.13433492],[-61.74768472,17.13719177],[-61.74815452,17.13754463],[-61.74859226,17.13753915],[-61.75145674,17.13603234],[-61.75097108,17.13389421],[-61.75400925,17.12957418],[-61.75621355,17.12931037],[-61.75703061,17.12753355],[-61.76073527,17.12600636],[-61.76433504,17.12280953],[-61.76441634,17.12092924],[-61.76201737,17.12225676],[-61.76054323,17.11984301],[-61.76043177,17.11949885],[-61.75982845,17.11415637],[-61.76078415,17.11192453],[-61.7610687,17.11172664],[-61.76233888,17.11175025],[-61.76342082,17.11351275],[-61.76358914,17.11249352],[-61.77026856,17.11056232],[-61.76908994,17.11292255],[-61.76690066,17.11399555],[-61.76886535,17.11576581],[-61.77626884,17.11102915],[-61.77765811,17.11277711],[-61.77767825,17.11471665],[-61.77714777,17.11649835],[-61.77527678,17.11845636],[-61.77710331,17.12052214],[-61.77743685,17.12432516],[-61.78237522,17.12299383],[-61.78614748,17.12008154],[-61.78415942,17.1237632],[-61.78559744,17.1240921],[-61.78755808,17.12228715],[-61.78822351,17.12575555],[-61.78590536,17.12863016],[-61.78057325,17.13025415],[-61.78078365,17.13245141],[-61.77931952,17.13397956],[-61.78170955,17.13429534],[-61.78008497,17.13715792],[-61.77775085,17.13603795],[-61.77836835,17.13488495],[-61.77580082,17.13440895],[-61.77365375,17.13649201],[-61.77306163,17.13969755],[-61.78737545,17.14741433],[-61.78850591,17.14963746],[-61.78665555,17.15199375],[-61.78901768,17.15224636],[-61.79063463,17.15493763],[-61.78916407,17.15775621],[-61.7965945,17.16073477],[-61.79998112,17.16449416],[-61.80145693,17.16985786],[-61.80217135,17.17015302],[-61.80267394,17.17007947],[-61.80420685,17.17045104],[-61.81311083,17.1679759],[-61.82169926,17.16769671],[-61.83238685,17.1730206]],[[-61.76262641,17.15164971],[-61.75976205,17.14860594],[-61.75842774,17.14878225],[-61.75591862,17.15173602],[-61.75492394,17.15138626],[-61.75417316,17.14854562],[-61.75353205,17.14851975],[-61.75316966,17.14877307],[-61.75287604,17.15173817],[-61.75179172,17.15098476],[-61.74868202,17.15399575],[-61.74572206,17.15435767],[-61.74617195,17.15837932],[-61.74636436,17.15857482],[-61.75040007,17.15921223],[-61.75332785,17.16126776],[-61.75350642,17.15961051],[-61.75477934,17.15895367],[-61.75746596,17.16058636],[-61.75715184,17.16236544],[-61.75911272,17.16198444],[-61.75896704,17.16001236],[-61.76085246,17.15770757],[-61.76023221,17.15550601],[-61.76262641,17.15164971]],[[-61.72426414,17.14865816],[-61.72409344,17.14548063],[-61.72719646,17.14591253],[-61.72754145,17.14491594],[-61.72615147,17.14412916],[-61.72759151,17.14281344],[-61.72571337,17.14273834],[-61.72467577,17.14411676],[-61.72361434,17.14329207],[-61.72341895,17.14362097],[-61.72270823,17.1479938],[-61.72395194,17.14935935],[-61.72426414,17.14865816]],[[-61.76190364,17.14459193],[-61.76456153,17.15019667],[-61.76460505,17.14524794],[-61.76278985,17.14247715],[-61.76190364,17.14459193]],[[-61.73093081,17.13787246],[-61.73172486,17.13432705],[-61.73141158,17.13384903],[-61.72944164,17.13270104],[-61.72870624,17.13499701],[-61.73023176,17.13464212],[-61.72977138,17.13624823],[-61.73093081,17.13787246]],[[-61.71289742,17.11223221],[-61.71599996,17.10969937],[-61.7177664,17.11034513],[-61.71850097,17.10891485],[-61.71971321,17.10990465],[-61.72074103,17.10801983],[-61.72418511,17.10989046],[-61.72526765,17.10615814],[-61.72313583,17.10655463],[-61.72170401,17.10732508],[-61.7177608,17.10715032],[-61.71701682,17.10738885],[-61.71373641,17.10926914],[-61.71341407,17.10986781],[-61.71232736,17.11144853],[-61.71231925,17.11176407],[-61.71289742,17.11223221]],[[-61.70754051,17.10774612],[-61.70966971,17.10644436],[-61.70918727,17.10446727],[-61.70886314,17.10441756],[-61.70624423,17.10570204],[-61.70453823,17.10391796],[-61.70269716,17.10439396],[-61.69977713,17.10459316],[-61.69957435,17.10507536],[-61.69964135,17.10543621],[-61.70069647,17.10631812],[-61.70442104,17.10579324],[-61.70458198,17.10589933],[-61.70754051,17.10774612]],[[-61.72496784,17.09799457],[-61.72462416,17.09770274],[-61.72368574,17.09780514],[-61.72212291,17.09867156],[-61.72169638,17.10041022],[-61.72255802,17.10075128],[-61.72469211,17.09890294],[-61.72496784,17.09799457]],[[-61.67441845,17.07275808],[-61.67508841,17.07025301],[-61.67497683,17.06951594],[-61.67477858,17.06949031],[-61.67069936,17.06996846],[-61.67046726,17.06833577],[-61.66884994,17.06728327],[-61.66727614,17.06911111],[-61.66459751,17.07001185],[-61.66432917,17.06612492],[-61.66285515,17.06563616],[-61.65656435,17.06759632],[-61.65684915,17.06932163],[-61.65832794,17.06896162],[-61.65949273,17.07063365],[-61.66003716,17.07095516],[-61.66195464,17.07139623],[-61.66871464,17.07159352],[-61.66963291,17.07178616],[-61.67142606,17.07311106],[-61.67270982,17.07371235],[-61.67278278,17.07287765],[-61.67441845,17.07275808]],[[-61.67045402,17.05126476],[-61.66994607,17.05124605],[-61.66829085,17.05130815],[-61.66700923,17.05299485],[-61.66730094,17.05420375],[-61.67033505,17.05440843],[-61.67045402,17.05126476]],[[-61.68087745,17.04149306],[-61.68036628,17.03888106],[-61.68000734,17.03889596],[-61.67902803,17.03987134],[-61.67890906,17.04114735],[-61.67959774,17.04156828],[-61.68046164,17.04161584],[-61.68087745,17.04149306]],[[-61.8868829,17.09611845],[-61.88706803,17.09623647],[-61.88719153,17.09623647],[-61.88756192,17.09632516],[-61.88780892,17.09620714],[-61.88796318,17.09605944],[-61.88808656,17.09588254],[-61.88808656,17.09570551],[-61.88799405,17.09555805],[-61.88787055,17.09544003],[-61.88771617,17.09538102],[-61.88737667,17.09541035],[-61.88719153,17.09561706],[-61.88682115,17.09570551],[-61.88679016,17.09588254],[-61.8868829,17.09611845]],[[-61.90866184,17.09984684],[-61.9087671,17.09988713],[-61.90891445,17.09986687],[-61.90904057,17.09976625],[-61.90908265,17.09958541],[-61.90901947,17.0994848],[-61.90885115,17.0994848],[-61.90866184,17.09960544],[-61.90861964,17.09964573],[-61.90864074,17.09976625],[-61.90866184,17.09984684]],[[-62.34836137,16.93290114],[-62.34474266,16.93135095],[-62.34320021,16.93269086],[-62.34391081,16.93345535],[-62.34395194,16.93403816],[-62.34233105,16.93407857],[-62.34334993,16.93650186],[-62.34087777,16.93756211],[-62.34089541,16.93805027],[-62.34224546,16.94278657],[-62.34412265,16.94432783],[-62.34560883,16.94505775],[-62.34805644,16.94422412],[-62.34885371,16.94074845],[-62.34836137,16.93290114]]]]},"geometry_name":"the_geom","properties":{"mrgid":8414,"geoname":"Antiguan and Barbudan Exclusive Economic Zone","mrgid_ter1":8645,"pol_type":"200NM","mrgid_sov1":8645,"territory1":"Antigua and Barbuda","iso_ter1":"ATG","sovereign1":"Antigua and Barbuda","mrgid_ter2":null,"mrgid_sov2":null,"territory2":null,"iso_ter2":null,"sovereign2":null,"mrgid_ter3":null,"mrgid_sov3":null,"territory3":null,"iso_ter3":null,"sovereign3":null,"x_1":-60.57064,"y_1":18.73279,"mrgid_eez":8414,"area_km2":111568,"iso_sov1":"ATG","iso_sov2":null,"iso_sov3":null,"un_sov1":28,"un_sov2":null,"un_sov3":null,"un_ter1":28,"un_ter2":null,"un_ter3":null}}],"totalFeatures":1,"numberMatched":1,"numberReturned":1,"timeStamp":"2026-08-21T22:26:54.943Z","crs":{"type":"name","properties":{"name":"urn:ogc:def:crs:EPSG::4326"}}}