{"type":"FeatureCollection","features":[{"type":"Feature","id":"eez.85","geometry":{"type":"MultiPolygon","coordinates":[[[[-75.83243623,18.97145453],[-75.83179704,18.96848728],[-75.75881493,18.63134846],[-75.75873449,18.6309769],[-75.75865397,18.63060541],[-75.75857336,18.63023398],[-75.75849268,18.62986261],[-75.75841192,18.6294913],[-75.75833109,18.62912006],[-75.75825017,18.62874888],[-75.75816917,18.62837777],[-75.7580881,18.62800672],[-75.75800695,18.62763573],[-75.73078465,18.50328615],[-75.72453588,18.4771827],[-75.71887197,18.45542913],[-75.71782125,18.45135791],[-75.71067486,18.42579142],[-75.70305428,18.40050909],[-75.69495962,18.37551108],[-75.68639101,18.35079755],[-75.67734859,18.32636865],[-75.6678325,18.30222453],[-75.65784287,18.27836532],[-75.64737985,18.25479119],[-75.62706159,18.21152064],[-75.58568761,18.12329165],[-75.56246806,18.07875731],[-75.55068362,18.05828963],[-75.53767107,18.03484267],[-75.51125648,17.99156443],[-75.4828778,17.94905955],[-75.45253672,17.90732852],[-75.42023498,17.86637179],[-75.38597435,17.82618978],[-75.36811769,17.80676186],[-75.34991851,17.78671924],[-75.31207272,17.74795907],[-75.27228139,17.70997153],[-75.16281659,17.61234635],[-74.88917481,17.36787274],[-74.85110198,17.33367976],[-74.82004569,17.28232352],[-74.75282331,17.17081707],[-74.75177687,17.16761463],[-74.75156417,17.16696425],[-74.75135127,17.16631384],[-74.75113817,17.16566338],[-74.75092488,17.16501289],[-74.75071138,17.16436235],[-74.75049769,17.16371177],[-74.7502838,17.16306116],[-74.75006971,17.1624105],[-74.74985543,17.1617598],[-74.74964094,17.16110906],[-74.60156736,16.7117003],[-74.48752423,16.35961087],[-74.48696337,16.35787953],[-74.48640173,16.35614762],[-74.48583931,16.35441515],[-74.48527613,16.35268211],[-74.48471216,16.3509485],[-74.48414743,16.34921432],[-74.48358191,16.34747957],[-74.48301563,16.34574425],[-74.48244857,16.34400837],[-74.48188073,16.34227191],[-74.41561018,16.13972023],[-74.01498313,14.89534315],[-74.00943069,14.87815592],[-74.51388889,14.73611111],[-77.66666667,14.08333333],[-78.325,14.25],[-78.63333333,14.49361111],[-78.63333333,15.6],[-78.43055556,15.6],[-78.43055556,15.80761905],[-78.43,15.81],[-78.42833333,15.81833333],[-78.42722222,15.82666667],[-78.42638889,15.835],[-78.42583333,15.84361111],[-78.42583333,15.85194444],[-78.42611111,15.86055556],[-78.42666667,15.86888889],[-78.4275,15.87722222],[-78.42888889,15.88583333],[-78.43055556,15.89297619],[-78.43055556,16.07083333],[-79.27777778,16.07083333],[-79.27777778,16.16944444],[-79.48888889,16.16944444],[-79.48888889,16.07083333],[-79.84222222,16.07083333],[-79.94220555,15.9798159],[-79.94861111,15.97694444],[-79.95638889,15.97305556],[-79.96388889,15.96861111],[-79.97111111,15.96416667],[-79.97833333,15.95916667],[-79.98527778,15.95416667],[-79.99194444,15.94861111],[-79.99861111,15.94305556],[-80.00472222,15.93694444],[-80.01055556,15.93083333],[-80.01638889,15.92444444],[-80.02166667,15.91777778],[-80.02694444,15.91083333],[-80.03166667,15.90361111],[-80.03611111,15.89638889],[-80.04027778,15.88888889],[-80.04416667,15.88138889],[-80.0475,15.87361111],[-80.05083333,15.86555556],[-80.05361111,15.8575],[-80.05611111,15.84944444],[-80.05805556,15.84138889],[-80.05972222,15.83305556],[-80.06111111,15.82444444],[-80.06222222,15.81611111],[-80.06277778,15.80777778],[-80.06305556,15.79916667],[-80.06305556,15.79083333],[-80.0625,15.78222222],[-80.06166667,15.77388889],[-80.06156792,15.77314826],[-80.06055556,15.76555556],[-80.05888889,15.75722222],[-80.05743056,15.75097222],[-80.06527778,15.76666667],[-80.22399029,16.00875139],[-80.2240957,16.00919536],[-80.36824931,16.61632866],[-80.40433885,16.74841333],[-80.44500322,16.87999905],[-80.49025309,17.01108689],[-80.49287318,17.01795351],[-80.54007448,17.14168067],[-80.54954579,17.1643268],[-80.83305556,17.58416667],[-80.03718837,18.05615512],[-79.85132505,18.26439394],[-79.85091923,18.26484848],[-79.85051354,18.26530303],[-79.85010799,18.26575758],[-79.84970256,18.26621212],[-79.84929727,18.26666667],[-79.8488921,18.26712121],[-79.84848707,18.26757576],[-79.84808217,18.2680303],[-79.8476774,18.26848485],[-79.84727276,18.26893939],[-79.81121737,18.30944987],[-79.75861616,18.3609158],[-79.59525272,18.52053136],[-79.55447454,18.55930037],[-79.54745715,18.5660179],[-79.54047865,18.57274501],[-79.53353905,18.57948168],[-79.52663836,18.58622792],[-79.51977658,18.59298373],[-79.51295371,18.5997491],[-79.50616978,18.60652404],[-79.49942477,18.61330853],[-79.49271871,18.6201026],[-79.48605159,18.62690622],[-79.4588128,18.65490358],[-79.42764181,18.68635034],[-79.26509923,18.83856677],[-79.19553436,18.9033653],[-79.19474529,18.90410095],[-79.1939567,18.90483691],[-79.19316861,18.90557318],[-79.192381,18.90630978],[-79.19159389,18.90704669],[-79.19080727,18.90778391],[-79.19002114,18.90852146],[-79.1892355,18.90925932],[-79.18845035,18.9099975],[-79.1876657,18.910736],[-79.15354214,18.9428829],[-79.1533295,18.94308327],[-79.15311688,18.94328367],[-79.1529043,18.94348409],[-79.15269176,18.94368453],[-79.15247925,18.943885],[-79.15226678,18.9440855],[-79.15205435,18.94428602],[-79.15184194,18.94448656],[-79.15162958,18.94468713],[-79.15141725,18.94488772],[-79.14066861,18.9550449],[-79.04010596,19.0487696],[-78.94045979,19.14013857],[-78.93232507,19.14767914],[-78.92422879,19.15526795],[-78.91617095,19.16290501],[-78.91117937,19.16768867],[-78.90814773,19.17058546],[-78.90015661,19.17830615],[-78.89220393,19.18607504],[-78.88428968,19.19389212],[-78.87641388,19.20175737],[-78.86857653,19.2096708],[-78.86077762,19.21763239],[-78.8294587,19.24995496],[-78.82406902,19.25549093],[-78.82221885,19.25739617],[-78.82037072,19.25930419],[-78.81852462,19.26121501],[-78.81668054,19.26312862],[-78.8148385,19.26504502],[-78.81299849,19.26696421],[-78.81116051,19.26888619],[-78.80932456,19.27081095],[-78.80749064,19.27273851],[-78.80565876,19.27466886],[-78.726943,19.35780663],[-78.71138163,19.35506108],[-78.70808082,19.35434989],[-78.70800785,19.35433417],[-78.70793487,19.35431845],[-78.7078619,19.35430274],[-78.70778893,19.35428702],[-78.70771597,19.35427131],[-78.707643,19.3542556],[-78.70757003,19.35423989],[-78.70749707,19.35422419],[-78.7074241,19.35420849],[-78.70735114,19.35419278],[-78.60643885,19.3324785],[-78.50589545,19.30657782],[-78.37264176,19.26608362],[-78.34006968,19.25677004],[-78.30763331,19.24808343],[-78.27533266,19.24002393],[-78.24316776,19.23259162],[-78.21113862,19.22578661],[-78.17924526,19.21960899],[-78.14748769,19.21405885],[-78.11586592,19.20913624],[-78.08437998,19.20484125],[-78.05302988,19.20117394],[-78.00157422,19.19616323],[-78.00052241,19.19606152],[-77.99947072,19.19596054],[-77.99841916,19.19586029],[-77.99736771,19.19576077],[-77.99631638,19.19566198],[-77.99526518,19.19556391],[-77.99421409,19.19546658],[-77.99316313,19.19536997],[-77.99211229,19.1952741],[-77.99106156,19.19517895],[-77.98271388,19.19442872],[-77.98085643,19.19426405],[-77.97899934,19.19410166],[-77.9771426,19.19394156],[-77.97528622,19.19378375],[-77.9734302,19.19362822],[-77.97157453,19.19347498],[-77.96971921,19.19332403],[-77.96786425,19.19317537],[-77.96600965,19.193029],[-77.9641554,19.19288491],[-77.94052979,19.19107787],[-77.93936728,19.19098985],[-77.93820488,19.19090274],[-77.9370426,19.19081655],[-77.93588042,19.19073126],[-77.93471836,19.19064688],[-77.93355641,19.19056341],[-77.93239457,19.19048085],[-77.93123284,19.1903992],[-77.93007122,19.19031846],[-77.92890971,19.19023863],[-77.84642677,19.18463346],[-77.84539141,19.18456384],[-77.84435606,19.18449495],[-77.84332071,19.18442681],[-77.84228535,19.18435941],[-77.84125,19.18429274],[-77.84021465,19.18422681],[-77.83917929,19.18416163],[-77.83814394,19.18409718],[-77.83710859,19.18403346],[-77.83607323,19.18397049],[-77.82944442,19.18357204],[-77.82288531,19.18314809],[-77.81633002,19.18269467],[-77.80977854,19.18221178],[-77.80418793,19.18177431],[-77.80323077,19.1817002],[-77.80300306,19.18168153],[-77.80181836,19.18158539],[-77.8006336,19.18149022],[-77.7994488,19.18139602],[-77.79826396,19.18130279],[-77.79707907,19.18121054],[-77.7966841,19.18118011],[-77.7958943,19.18111567],[-77.79470957,19.18101999],[-77.7935248,19.18092528],[-77.79233998,19.18083155],[-77.79013755,19.18065911],[-77.78359373,19.180117],[-77.77705372,19.17954539],[-77.77051753,19.17894429],[-77.76398515,19.17831371],[-77.7568416,19.17759145],[-77.75628662,19.17753555],[-77.75573163,19.17747987],[-77.75517661,19.1774244],[-77.75462157,19.17736914],[-77.75406651,19.1773141],[-77.75351143,19.17725928],[-77.75295632,19.17720466],[-77.7524012,19.17715026],[-77.75184605,19.17709608],[-77.72555556,19.17333333],[-77.6875,19.17055556],[-77.64944444,19.16888889],[-77.61138889,19.16805556],[-77.57305556,19.16833333],[-77.56722222,19.16861111],[-77.53472222,19.16916667],[-77.53444444,19.16916667],[-77.49638889,19.16972222],[-77.49611111,19.16972222],[-77.48694444,19.16972222],[-77.47527778,19.16944444],[-77.46055556,19.16861111],[-77.44777778,19.16833333],[-77.41944444,19.16694444],[-77.41805556,19.16694444],[-77.40833333,19.16666667],[-77.38222222,19.16527778],[-77.34416667,19.16416667],[-77.30583333,19.16388889],[-77.27638889,19.16388889],[-77.2675,19.16472222],[-77.25277778,19.165],[-77.24166667,19.16527778],[-77.19388889,19.16638889],[-77.18333333,19.16638889],[-77.15777778,19.16694444],[-77.14472222,19.16694444],[-77.11916667,19.16777778],[-77.10611111,19.16777778],[-77.09361111,19.16805556],[-77.07833333,19.16666667],[-77.06777778,19.16583333],[-77.04694444,19.16416667],[-77.03,19.1625],[-76.99194444,19.15972222],[-76.94583333,19.1575],[-76.9325,19.15694444],[-76.92527778,19.15666667],[-76.87722222,19.15583333],[-76.86805556,19.15611111],[-76.83861111,19.15611111],[-76.79805556,19.15694444],[-76.76444444,19.15861111],[-76.72222222,19.15861111],[-76.68305556,19.15861111],[-76.64361111,19.15861111],[-76.64,19.15833333],[-76.62611111,19.15638889],[-76.58805556,19.15],[-76.51666667,19.13666667],[-76.51472222,19.13611111],[-76.48444444,19.13055556],[-76.47833333,19.12944444],[-76.47194444,19.12833333],[-76.44638889,19.12333333],[-76.44,19.12194444],[-76.41277778,19.11694444],[-76.40138889,19.11472222],[-76.37444444,19.10944444],[-76.36305556,19.10722222],[-76.33611111,19.10222222],[-76.32472222,19.09972222],[-76.28638889,19.0925],[-76.2475,19.08611111],[-76.20833333,19.08027778],[-76.19027778,19.07777778],[-76.17,19.07222222],[-76.15694444,19.06888889],[-76.13305556,19.06222222],[-76.12527778,19.06027778],[-76.09583333,19.05222222],[-76.05861111,19.04277778],[-76.02083333,19.03416667],[-75.99611111,19.02888889],[-75.98138889,19.02583333],[-75.97527778,19.02416667],[-75.96472222,19.02194444],[-75.95083333,19.01666667],[-75.93472222,19.01111111],[-75.89916667,18.99777778],[-75.85055556,18.97861111],[-75.84,18.97444444],[-75.83243623,18.97145453]],[[-77.83604908,18.52504206],[-77.84223247,18.52323425],[-77.84830272,18.5248034],[-77.85317802,18.52261353],[-77.85669613,18.52393806],[-77.86113071,18.52317297],[-77.86287606,18.52138495],[-77.86338913,18.52129078],[-77.87079895,18.52022946],[-77.87474096,18.51988626],[-77.87935865,18.52060544],[-77.88468087,18.51702726],[-77.88731372,18.51707578],[-77.88921607,18.51914811],[-77.89289713,18.51350713],[-77.90256095,18.51135874],[-77.90419865,18.50962245],[-77.91642237,18.50553894],[-77.92427707,18.50110376],[-77.92447901,18.50091445],[-77.92546988,18.49908674],[-77.92557752,18.49540043],[-77.93139756,18.48337853],[-77.93019176,18.47914505],[-77.92617094,18.47616076],[-77.92716575,18.47528052],[-77.92706382,18.47434032],[-77.92680395,18.47244227],[-77.92498303,18.46976662],[-77.92485654,18.46796882],[-77.92512655,18.46686983],[-77.92717326,18.46464145],[-77.9299612,18.46278811],[-77.93038702,18.46268034],[-77.93519235,18.46418393],[-77.93774867,18.45986235],[-77.94484437,18.45928597],[-77.94450498,18.46061051],[-77.93872654,18.46532154],[-77.93903422,18.46649885],[-77.94306517,18.46703196],[-77.94330025,18.46580935],[-77.95180893,18.45879757],[-77.94960654,18.45738757],[-77.94596446,18.45855916],[-77.94550085,18.45829594],[-77.94449532,18.45703125],[-77.94447625,18.45670521],[-77.94717634,18.45362175],[-77.94641995,18.45317805],[-77.94604492,18.45316994],[-77.9431231,18.45478475],[-77.94311106,18.45703125],[-77.9421221,18.45785904],[-77.94178855,18.45784044],[-77.94114172,18.45585942],[-77.93990576,18.45730102],[-77.93506515,18.45645785],[-77.93094683,18.45157313],[-77.93049562,18.44971812],[-77.9305377,18.44875526],[-77.93307054,18.44991207],[-77.93394494,18.44989967],[-77.93441677,18.44943535],[-77.93456066,18.44893217],[-77.93258905,18.44687581],[-77.93273342,18.44654477],[-77.93549848,18.44356704],[-77.93751395,18.44315255],[-77.93858957,18.44356716],[-77.94252265,18.44779682],[-77.94548833,18.44540298],[-77.95089901,18.44662118],[-77.9584496,18.44613028],[-77.96105087,18.44840431],[-77.96740592,18.45066345],[-77.97967184,18.45308328],[-77.98317623,18.45227861],[-77.98660767,18.44966483],[-77.99163163,18.44954193],[-77.99335086,18.45042372],[-77.99488413,18.45122552],[-77.99523437,18.45178974],[-77.99546278,18.45521665],[-77.99571061,18.45558906],[-77.99778545,18.45703125],[-77.99803865,18.45703125],[-77.99874616,18.45834315],[-77.99904025,18.45855522],[-78.00319564,18.45875454],[-78.00349247,18.45890224],[-78.00727963,18.46227992],[-78.0118705,18.46131361],[-78.01363087,18.45703125],[-78.01483464,18.45703125],[-78.01488364,18.45686376],[-78.01498163,18.45680797],[-78.01507962,18.45686376],[-78.01512861,18.45703125],[-78.01610672,18.45693302],[-78.02345216,18.45470858],[-78.02410793,18.45459294],[-78.03085375,18.45556915],[-78.03690612,18.45403361],[-78.03939462,18.45446765],[-78.04173815,18.45317757],[-78.046875,18.45452011],[-78.04854834,18.45257866],[-78.05057991,18.45208252],[-78.06057084,18.45472908],[-78.06209803,18.45455825],[-78.06714117,18.45206892],[-78.07797492,18.45189476],[-78.0807631,18.44928527],[-78.08616495,18.45064211],[-78.08975184,18.45279765],[-78.09290504,18.45197546],[-78.09283376,18.45005846],[-78.09310734,18.44961846],[-78.09424067,18.44875956],[-78.09572566,18.44896817],[-78.09654045,18.44940841],[-78.09963667,18.45367575],[-78.10623097,18.45640647],[-78.10795414,18.45172632],[-78.10661066,18.44968772],[-78.10656273,18.4465698],[-78.10720468,18.44572222],[-78.11046076,18.44566035],[-78.11113727,18.44682348],[-78.10930514,18.44856525],[-78.11028802,18.45121694],[-78.10902345,18.45589054],[-78.11734653,18.45570815],[-78.11792958,18.45582426],[-78.12038934,18.45688808],[-78.12036204,18.45703125],[-78.12071776,18.45703125],[-78.12086487,18.45731032],[-78.12380195,18.45730257],[-78.12411082,18.45748317],[-78.12684476,18.46091366],[-78.13113523,18.46044743],[-78.13962662,18.462834],[-78.14041066,18.46278405],[-78.14291012,18.46062851],[-78.14629102,18.46142244],[-78.14690137,18.46142173],[-78.15009475,18.46071041],[-78.15332627,18.45852506],[-78.15394306,18.45830345],[-78.15557694,18.45862162],[-78.15543282,18.45703125],[-78.15534186,18.45703125],[-78.15391946,18.45480073],[-78.15582407,18.45382357],[-78.15755296,18.44991493],[-78.15384138,18.44501042],[-78.15452194,18.44188821],[-78.15854824,18.43730664],[-78.16382146,18.43687224],[-78.16756201,18.43899667],[-78.17046964,18.44288588],[-78.17074323,18.44657552],[-78.1657505,18.45173633],[-78.16707492,18.45323133],[-78.17079163,18.45415068],[-78.1743865,18.45332384],[-78.17638302,18.45504451],[-78.19139445,18.45678163],[-78.19429982,18.45530403],[-78.19302762,18.4526782],[-78.19370103,18.45210898],[-78.19570065,18.45533895],[-78.20374441,18.45493007],[-78.20710874,18.45611536],[-78.20975304,18.45484912],[-78.21321702,18.45621836],[-78.21426666,18.45474446],[-78.21378326,18.45269465],[-78.21538341,18.45186615],[-78.21930623,18.45231867],[-78.22088015,18.45104206],[-78.22094333,18.44765174],[-78.22319865,18.44761074],[-78.22214031,18.44502711],[-78.22274435,18.44306672],[-78.22560561,18.44386673],[-78.230533,18.44182146],[-78.23304772,18.44253755],[-78.23802662,18.43991637],[-78.24259305,18.43317592],[-78.24185693,18.43122828],[-78.24280965,18.42720056],[-78.24582946,18.42643452],[-78.25243151,18.42118585],[-78.25223315,18.41915643],[-78.24865568,18.41642368],[-78.24966097,18.41266811],[-78.25245094,18.41355956],[-78.25356114,18.41743302],[-78.25485945,18.41789603],[-78.26335955,18.41516125],[-78.26282167,18.41282666],[-78.26451266,18.41048694],[-78.2662971,18.41032565],[-78.26785505,18.41236424],[-78.26857972,18.41174543],[-78.27271736,18.40494645],[-78.26634812,18.39719093],[-78.26623821,18.39242494],[-78.26754785,18.39065266],[-78.27162313,18.38910377],[-78.27385926,18.39100504],[-78.27545214,18.39449692],[-78.276317,18.39489186],[-78.27985036,18.39553905],[-78.28121495,18.39357221],[-78.28166783,18.39341605],[-78.28317702,18.39322305],[-78.28718483,18.39322615],[-78.28750336,18.39331985],[-78.28943336,18.39662731],[-78.29008031,18.39672232],[-78.29401314,18.39625716],[-78.29646075,18.39494073],[-78.29926217,18.39216757],[-78.29855061,18.39043951],[-78.29967082,18.38630021],[-78.30269682,18.38362718],[-78.30169761,18.37803495],[-78.30953372,18.37258577],[-78.30798328,18.36753798],[-78.30812788,18.36696827],[-78.30976391,18.36415052],[-78.31124878,18.36278415],[-78.31349146,18.36172473],[-78.31485605,18.36150873],[-78.31759536,18.36146414],[-78.31908822,18.36199892],[-78.31986141,18.36254621],[-78.32048583,18.36347985],[-78.32048285,18.36388254],[-78.31920564,18.36931551],[-78.32504761,18.372455],[-78.32546926,18.37259543],[-78.32829165,18.37256837],[-78.33363295,18.37103593],[-78.33511305,18.37020504],[-78.33874261,18.36674857],[-78.34499371,18.35773504],[-78.34507835,18.35695052],[-78.34411562,18.35328162],[-78.34119415,18.35495055],[-78.33789432,18.35476625],[-78.33598292,18.35316968],[-78.33468163,18.35086477],[-78.33467543,18.34670305],[-78.33739603,18.34246421],[-78.33843732,18.34192145],[-78.34089291,18.34112334],[-78.34423327,18.34253156],[-78.34447384,18.33791792],[-78.33987856,18.33594775],[-78.33932924,18.33528662],[-78.33762157,18.33099484],[-78.33703375,18.32876265],[-78.33703315,18.32338524],[-78.3391906,18.30988431],[-78.3392626,18.30858433],[-78.33938491,18.29512084],[-78.34467602,18.28334248],[-78.34678876,18.28125],[-78.34842336,18.27974462],[-78.35356796,18.28035724],[-78.35664225,18.27904654],[-78.36068904,18.27927816],[-78.36560786,18.274158],[-78.36877084,18.27284884],[-78.36880457,18.268278],[-78.36746705,18.26633155],[-78.36872947,18.26446295],[-78.36666572,18.26207757],[-78.3663975,18.25715733],[-78.36609781,18.25655365],[-78.36160815,18.25218618],[-78.36171865,18.24764884],[-78.35943496,18.24595094],[-78.35687661,18.24113858],[-78.35517228,18.24018133],[-78.34984732,18.23793542],[-78.33586025,18.23374987],[-78.32374167,18.22816515],[-78.29648113,18.219558],[-78.29071164,18.21964884],[-78.28886116,18.22126651],[-78.27997625,18.22257614],[-78.26863146,18.21855867],[-78.26636434,18.21854246],[-78.26470554,18.2200073],[-78.2619673,18.21961045],[-78.2598176,18.21498847],[-78.25942016,18.20938206],[-78.25710523,18.2074877],[-78.25607955,18.20474136],[-78.25394321,18.20260751],[-78.24655604,18.20071387],[-78.24321961,18.19569922],[-78.23863924,18.19450617],[-78.23362815,18.19428086],[-78.22999764,18.19534612],[-78.20168197,18.20889318],[-78.18649113,18.21252501],[-78.17754042,18.21184135],[-78.17057645,18.21518767],[-78.16135907,18.2165122],[-78.15772355,18.21457314],[-78.15536511,18.20929396],[-78.15003026,18.21057117],[-78.14006972,18.21056676],[-78.13422728,18.20678377],[-78.12715363,18.20973468],[-78.12029958,18.21061087],[-78.11824155,18.20959306],[-78.11671174,18.21156573],[-78.10556078,18.21421957],[-78.09718943,18.21311986],[-78.09688318,18.21297026],[-78.09323704,18.20891333],[-78.08992767,18.20777595],[-78.08953047,18.20743775],[-78.08872533,18.20550251],[-78.08704364,18.20513523],[-78.08652556,18.20510864],[-78.08596373,18.20584035],[-78.08644104,18.21082175],[-78.08619177,18.21202505],[-78.08511651,18.21275234],[-78.08392656,18.21315765],[-78.07057238,18.21174502],[-78.05729306,18.20680904],[-78.046875,18.20061386],[-78.046875,18.20033467],[-78.0412364,18.19460487],[-78.03831124,18.19042957],[-78.03776276,18.18922555],[-78.03675425,18.18143523],[-78.03384697,18.17556655],[-78.03164482,18.17396796],[-78.02891672,18.16918814],[-78.02757835,18.16463244],[-78.02695322,18.16031587],[-78.02741873,18.15920198],[-78.02808654,18.15813994],[-78.03090096,18.15642858],[-78.03283441,18.15238953],[-78.02841532,18.1471281],[-78.02508497,18.14097261],[-78.02560616,18.13313556],[-78.02461123,18.1313467],[-78.02669406,18.1290766],[-78.02629817,18.12765241],[-78.02009344,18.1230973],[-78.01623535,18.12245905],[-78.01436496,18.12031245],[-78.00713003,18.11892176],[-78.00285113,18.11644113],[-78.00189233,18.11382341],[-78.00446224,18.11240935],[-78.00398517,18.11086261],[-77.99771071,18.11287344],[-77.99724281,18.1127882],[-77.99464214,18.1116755],[-77.9903841,18.10721946],[-77.98332703,18.10893822],[-77.98302007,18.10876524],[-77.98119521,18.10546875],[-77.97717774,18.09978402],[-77.97473621,18.09392238],[-77.96370351,18.08452046],[-77.96509457,18.07863331],[-77.96678138,18.07814455],[-77.96668363,18.07770312],[-77.96523476,18.07488263],[-77.96009135,18.07072115],[-77.95607805,18.06851172],[-77.95175827,18.06294584],[-77.95151293,18.05266213],[-77.94614601,18.04598963],[-77.94293463,18.03513396],[-77.93891454,18.03689885],[-77.93750727,18.03638756],[-77.93687928,18.03309858],[-77.93184841,18.03054655],[-77.92884636,18.03038132],[-77.92780185,18.03147244],[-77.9218204,18.02886724],[-77.91570222,18.03005755],[-77.91068625,18.02877927],[-77.90843523,18.03386521],[-77.90308642,18.03562868],[-77.89602172,18.03645492],[-77.89012897,18.03495061],[-77.88706827,18.03194797],[-77.88653183,18.02988696],[-77.88489044,18.03016853],[-77.88293231,18.03468704],[-77.88087845,18.03495157],[-77.87795854,18.03420532],[-77.87666154,18.03153205],[-77.87248504,18.03106403],[-77.86782014,18.02719677],[-77.85283554,18.02487767],[-77.84146822,18.01768565],[-77.84095705,18.01727354],[-77.83394706,18.00823331],[-77.83283865,18.00624835],[-77.83115911,17.99966443],[-77.83114076,17.99895871],[-77.83282244,17.99288356],[-77.83973217,17.98184693],[-77.84097028,17.97407734],[-77.83901775,17.96939576],[-77.83878946,17.96510005],[-77.83550024,17.95912576],[-77.83497453,17.95601642],[-77.83638155,17.94909012],[-77.83949125,17.94570637],[-77.83379686,17.9422729],[-77.82856727,17.94100797],[-77.82250893,17.93511987],[-77.80817795,17.9292798],[-77.80022776,17.92348623],[-77.79794443,17.91801333],[-77.79880857,17.90818834],[-77.79225194,17.89782536],[-77.78811801,17.89584422],[-77.78618622,17.89283144],[-77.78004766,17.88972783],[-77.77752924,17.88697207],[-77.77132964,17.88355875],[-77.76672077,17.88327181],[-77.76530874,17.87933075],[-77.760342,17.87683356],[-77.76078594,17.87535763],[-77.75603187,17.87344992],[-77.75407505,17.8705641],[-77.74062955,17.86549401],[-77.73943555,17.86284745],[-77.74170268,17.86052716],[-77.74184513,17.86000895],[-77.74211264,17.85581315],[-77.74144101,17.85415065],[-77.74078941,17.85391057],[-77.72634876,17.85736465],[-77.72568643,17.85757005],[-77.72042668,17.86027718],[-77.7058655,17.86096334],[-77.69690216,17.86436784],[-77.6953125,17.86439717],[-77.69349515,17.86459982],[-77.69021285,17.86418927],[-77.68352234,17.86155581],[-77.66526473,17.85940444],[-77.66056836,17.85973883],[-77.65468025,17.86269367],[-77.64430463,17.86526513],[-77.63533902,17.86598456],[-77.63094378,17.8644284],[-77.62513745,17.86585522],[-77.61851645,17.8657999],[-77.60624707,17.86236024],[-77.60418785,17.85800993],[-77.60395062,17.86147106],[-77.59988904,17.86278772],[-77.59600151,17.86389625],[-77.57966936,17.86786151],[-77.56780815,17.86849666],[-77.56744242,17.86845112],[-77.56386745,17.86662674],[-77.55304825,17.86566186],[-77.5436269,17.8604058],[-77.53912616,17.85594034],[-77.53440392,17.85376215],[-77.53323257,17.85174215],[-77.52943134,17.85086644],[-77.52882981,17.85056853],[-77.52535415,17.84726357],[-77.52495635,17.84701586],[-77.52095926,17.84598136],[-77.51830602,17.84310424],[-77.51684272,17.84273887],[-77.51152682,17.84244168],[-77.51074326,17.84250855],[-77.4989475,17.84590793],[-77.49853384,17.84603965],[-77.48219037,17.85346031],[-77.46627104,17.85944664],[-77.46137035,17.86074054],[-77.44669294,17.86380982],[-77.43901491,17.86464632],[-77.43286514,17.86519456],[-77.41936183,17.86520433],[-77.40543747,17.86279786],[-77.40191412,17.86042905],[-77.40105856,17.86020672],[-77.39666545,17.85906517],[-77.39206541,17.85341454],[-77.38057077,17.84819496],[-77.37916815,17.84533656],[-77.37463474,17.84208286],[-77.36363745,17.83996725],[-77.35852051,17.83814013],[-77.35617101,17.83718765],[-77.34375,17.83063614],[-77.32767117,17.82152236],[-77.32518637,17.81963158],[-77.31903303,17.81260657],[-77.31300533,17.80840874],[-77.31068111,17.80590773],[-77.30548525,17.79830158],[-77.29198873,17.78728986],[-77.29012561,17.77950084],[-77.28795767,17.77882695],[-77.28656328,17.77972233],[-77.28647447,17.7876116],[-77.28595912,17.77801502],[-77.26892674,17.77304256],[-77.26263821,17.76879573],[-77.26102614,17.76585197],[-77.26195288,17.76462507],[-77.26158977,17.76285696],[-77.26128936,17.76223755],[-77.25934541,17.75884235],[-77.25468755,17.75390625],[-77.25417626,17.75390625],[-77.25285566,17.75327706],[-77.25025976,17.74910617],[-77.25009787,17.7486546],[-77.25248265,17.7436347],[-77.24997294,17.74309766],[-77.24671221,17.74439013],[-77.23966134,17.74365556],[-77.23684347,17.74061966],[-77.23453307,17.74031496],[-77.22709906,17.73549104],[-77.21964693,17.72537994],[-77.21912205,17.72486568],[-77.21475923,17.72328842],[-77.21373045,17.72121727],[-77.21351004,17.72100246],[-77.21066856,17.71925581],[-77.20564437,17.71780574],[-77.20165563,17.71450663],[-77.20121956,17.71434021],[-77.1934818,17.71296883],[-77.19315302,17.71285236],[-77.18577862,17.70863426],[-77.17858112,17.70668066],[-77.16913962,17.70563614],[-77.16449523,17.70566726],[-77.15853536,17.70654011],[-77.14923716,17.70891297],[-77.14511263,17.71040893],[-77.13899267,17.71459055],[-77.13176501,17.72099805],[-77.12862146,17.72423971],[-77.12742627,17.72642302],[-77.12769961,17.73071992],[-77.12536478,17.73310244],[-77.12582207,17.73703074],[-77.12491667,17.73869956],[-77.12610352,17.74193442],[-77.12747514,17.74164796],[-77.13324213,17.74517703],[-77.13666642,17.74849892],[-77.14265764,17.75132752],[-77.14472675,17.75345111],[-77.14469695,17.75390625],[-77.14482415,17.75390625],[-77.14342904,17.75988531],[-77.14329231,17.76019776],[-77.13938296,17.76390755],[-77.13912952,17.76689541],[-77.14249265,17.76903856],[-77.14820242,17.77027225],[-77.14965725,17.77172995],[-77.1554811,17.77116776],[-77.15731561,17.77308798],[-77.15899181,17.77297485],[-77.16163015,17.77655947],[-77.16358125,17.77682364],[-77.16834617,17.7810117],[-77.16996086,17.78386652],[-77.17347622,17.78514755],[-77.17407346,17.78271425],[-77.17583013,17.78164065],[-77.174721,17.78573716],[-77.17038035,17.78548551],[-77.16042376,17.79226506],[-77.17363226,17.80324924],[-77.17379713,17.81092155],[-77.17100132,17.8166548],[-77.17057705,17.81706154],[-77.16832364,17.81838906],[-77.16430736,17.81695688],[-77.1587733,17.81705511],[-77.15375972,17.81417406],[-77.14789927,17.81413841],[-77.14756048,17.81555104],[-77.15266895,17.81545818],[-77.15743434,17.8173213],[-77.15782595,17.81854856],[-77.16290677,17.81819427],[-77.15818024,17.82017505],[-77.1528455,17.81819093],[-77.14777946,17.81783295],[-77.14605975,17.81515455],[-77.14664924,17.81339073],[-77.14255106,17.81199408],[-77.14078104,17.81333625],[-77.14163268,17.81633711],[-77.14017105,17.81967711],[-77.14055216,17.82017815],[-77.14196324,17.81924474],[-77.14697742,17.81950152],[-77.15020132,17.82080603],[-77.15193105,17.81952775],[-77.15729892,17.82117903],[-77.16153586,17.8235532],[-77.16190875,17.8241142],[-77.16158104,17.82560694],[-77.15589738,17.82509994],[-77.15469944,17.82599676],[-77.15470946,17.82629335],[-77.15552986,17.82776844],[-77.15914333,17.82769406],[-77.16237056,17.8300513],[-77.16187656,17.83269656],[-77.16321754,17.83661735],[-77.16313601,17.83761334],[-77.16093755,17.84193635],[-77.15754294,17.84648275],[-77.15507853,17.84810865],[-77.15387416,17.85951281],[-77.15254748,17.86185217],[-77.15026987,17.86276245],[-77.15019703,17.86981595],[-77.14871252,17.87237465],[-77.14851141,17.87256455],[-77.14749098,17.87326038],[-77.13616145,17.88565171],[-77.13314092,17.88386965],[-77.13404274,17.88660777],[-77.13289785,17.88892567],[-77.1312319,17.88975465],[-77.12968981,17.88900435],[-77.12971985,17.89118683],[-77.12213624,17.89683366],[-77.11515665,17.89834905],[-77.10872388,17.89828742],[-77.10659862,17.89513242],[-77.10546744,17.89625466],[-77.10538375,17.89866793],[-77.10098982,17.90260327],[-77.09385133,17.90452373],[-77.09256017,17.90067196],[-77.09049571,17.89919233],[-77.08303905,17.89907265],[-77.08447266,17.90611052],[-77.07723856,17.91241801],[-77.07324004,17.91054964],[-77.07209182,17.90309262],[-77.07012558,17.90092433],[-77.06716144,17.90167511],[-77.06444907,17.90587592],[-77.05827975,17.90772915],[-77.05529666,17.90553355],[-77.05285168,17.90552771],[-77.04452384,17.89571238],[-77.04225993,17.8961693],[-77.03869915,17.89184547],[-77.03302336,17.88870728],[-77.02986634,17.88028324],[-77.02865386,17.87965906],[-77.02672744,17.87164986],[-77.02844346,17.87004328],[-77.02918267,17.86546051],[-77.03166485,17.87157261],[-77.03398001,17.87129045],[-77.03413451,17.86357665],[-77.03578854,17.86188722],[-77.03692174,17.86214197],[-77.0373286,17.86559331],[-77.04006314,17.86700547],[-77.04214501,17.86678886],[-77.03903174,17.85964894],[-77.04216957,17.85785866],[-77.04004288,17.8505162],[-77.04131985,17.84748042],[-77.03990841,17.84490001],[-77.03715193,17.84490406],[-77.02660692,17.85190964],[-77.01098883,17.85287917],[-77.00351655,17.84790146],[-76.99765921,17.84112716],[-76.9942224,17.84071755],[-76.9921875,17.84319186],[-76.99109876,17.84417856],[-76.98698544,17.8450942],[-76.98130083,17.84083414],[-76.97961092,17.84300411],[-76.98204744,17.84517336],[-76.98209786,17.84757245],[-76.98110425,17.8486371],[-76.97505724,17.85221016],[-76.97403252,17.85232568],[-76.97072208,17.85180926],[-76.96876442,17.85026038],[-76.96445227,17.84021711],[-76.95480537,17.83729434],[-76.94644284,17.84032834],[-76.94037116,17.84484351],[-76.93288636,17.84577668],[-76.92725861,17.84786057],[-76.92692447,17.84804726],[-76.92726064,17.84899676],[-76.92339396,17.85135615],[-76.92213798,17.85421371],[-76.91868317,17.85738635],[-76.91539991,17.86425674],[-76.91384935,17.86557913],[-76.90972114,17.86554027],[-76.90746915,17.8698318],[-76.90739155,17.87388873],[-76.90348876,17.87599945],[-76.90264356,17.88099444],[-76.90009212,17.88342535],[-76.90077162,17.88654804],[-76.89585304,17.89043581],[-76.89621818,17.89552867],[-76.89239764,17.89722466],[-76.89308786,17.89991093],[-76.89186215,17.9029839],[-76.8915956,17.90334845],[-76.88501525,17.90874255],[-76.87937736,17.91695118],[-76.87919974,17.91711545],[-76.87687886,17.91646576],[-76.87638176,17.91695547],[-76.87591183,17.91783333],[-76.87590992,17.92087615],[-76.87814617,17.92761695],[-76.87814653,17.92812753],[-76.87734365,17.9296875],[-76.87724793,17.9296875],[-76.87119353,17.94126463],[-76.87395644,17.9492439],[-76.87329924,17.95086491],[-76.86588383,17.95758975],[-76.85737431,17.96304011],[-76.84658825,17.96654105],[-76.84663892,17.96745825],[-76.84800935,17.96721685],[-76.84785712,17.96924472],[-76.83922863,17.97486925],[-76.84166253,17.97627687],[-76.84318745,17.97334838],[-76.85348773,17.96865976],[-76.85895491,17.96947336],[-76.86154366,17.97156954],[-76.86167216,17.97177911],[-76.8595556,17.97828198],[-76.85716927,17.98021555],[-76.85988772,17.98229754],[-76.85999978,17.98412251],[-76.85506201,17.98554826],[-76.85289705,17.99104154],[-76.84959841,17.99253798],[-76.84931195,17.99310946],[-76.84902358,17.99451387],[-76.84879637,17.9949342],[-76.84833348,17.99361587],[-76.84710074,17.99479282],[-76.84684634,17.99561775],[-76.84552372,18.00851226],[-76.84549534,17.9929769],[-76.84415054,17.99742866],[-76.8417052,17.99789596],[-76.83527005,17.99628127],[-76.84008658,17.99586832],[-76.84131062,17.99338984],[-76.84360027,17.99222577],[-76.84415305,17.98989773],[-76.84143996,17.97830903],[-76.83872116,17.98010755],[-76.83070147,17.97387946],[-76.82856965,17.97634184],[-76.83765554,17.98416305],[-76.83613265,17.98913586],[-76.82212293,17.97774196],[-76.82075226,17.97890055],[-76.81811285,17.97807991],[-76.82135975,17.97485304],[-76.82120132,17.97349405],[-76.81697214,17.97129822],[-76.81251526,17.97221744],[-76.81015635,17.96861005],[-76.81004333,17.96843696],[-76.80578792,17.96571505],[-76.80369711,17.96465397],[-76.80304611,17.96445],[-76.80026245,17.96506584],[-76.79770446,17.96324325],[-76.78785026,17.96422768],[-76.77690983,17.96381426],[-76.77334654,17.96610332],[-76.76020753,17.96632695],[-76.75688732,17.96807265],[-76.7515738,17.96708572],[-76.74700654,17.96841884],[-76.74488294,17.96788931],[-76.74427974,17.96595323],[-76.74343622,17.96806324],[-76.74009776,17.96778297],[-76.73628807,17.96332026],[-76.73329926,17.96294653],[-76.73200107,17.96077967],[-76.72744703,17.95772874],[-76.72637725,17.95509803],[-76.72292936,17.94931185],[-76.72263408,17.94798875],[-76.72309864,17.94717026],[-76.72881401,17.94452572],[-76.73754024,17.94199431],[-76.75259435,17.94500387],[-76.76342547,17.94450927],[-76.77220595,17.94729495],[-76.77739513,17.94399047],[-76.78190303,17.94693565],[-76.78081167,17.94014931],[-76.78295553,17.93644798],[-76.79735625,17.94193482],[-76.79944515,17.94102252],[-76.79956853,17.93807256],[-76.78326631,17.93188345],[-76.78545904,17.93008256],[-76.79136574,17.93441224],[-76.79610312,17.93465614],[-76.79938304,17.93722045],[-76.80737758,17.93724692],[-76.81088066,17.94053745],[-76.8146528,17.94101965],[-76.81159365,17.93927705],[-76.81439221,17.93953705],[-76.81736147,17.94136298],[-76.82413673,17.94302762],[-76.82437456,17.94150376],[-76.82024717,17.93957555],[-76.82097948,17.93874705],[-76.82446182,17.94058156],[-76.82559645,17.94239783],[-76.82493591,17.94378805],[-76.82801545,17.94764447],[-76.83583963,17.94783783],[-76.83679688,17.94687307],[-76.83587444,17.94578075],[-76.83018875,17.94381797],[-76.83012474,17.94244266],[-76.83194196,17.94147325],[-76.83587492,17.94286847],[-76.84353018,17.93927085],[-76.84406316,17.93598211],[-76.84660566,17.93395495],[-76.84669006,17.93353903],[-76.84574437,17.93251204],[-76.83994865,17.93254161],[-76.83722878,17.9374125],[-76.83358061,17.93853974],[-76.81763434,17.93617046],[-76.80931973,17.93715847],[-76.80643201,17.93402886],[-76.80606627,17.93391407],[-76.80256045,17.93521106],[-76.79896605,17.93481874],[-76.79611898,17.93278623],[-76.78723145,17.9296875],[-76.78322995,17.92732155],[-76.78286731,17.92725003],[-76.78077865,17.92880774],[-76.77765834,17.9272511],[-76.77730072,17.92736173],[-76.77600515,17.92809892],[-76.77597654,17.9296875],[-76.77520967,17.9296875],[-76.76841772,17.93598342],[-76.76431513,17.93927073],[-76.75773001,17.94360781],[-76.75193906,17.94412422],[-76.74632895,17.94195676],[-76.73762262,17.94067121],[-76.70607185,17.94868982],[-76.70181882,17.94781244],[-76.69811296,17.94458437],[-76.69711494,17.94222105],[-76.68978381,17.94165456],[-76.68755055,17.93844044],[-76.68084395,17.93757665],[-76.67084086,17.93987751],[-76.66794872,17.93801916],[-76.66729784,17.93788648],[-76.66376257,17.93716621],[-76.6611675,17.93488932],[-76.66112018,17.93267357],[-76.65591264,17.93180466],[-76.65482402,17.93098176],[-76.65381944,17.9296875],[-76.65351546,17.9296875],[-76.65098238,17.92581284],[-76.64575195,17.921875],[-76.64446497,17.92032981],[-76.64381611,17.91702306],[-76.640625,17.91434145],[-76.63991594,17.91401851],[-76.63998842,17.91289484],[-76.63399005,17.91108096],[-76.62842381,17.9066962],[-76.62813973,17.90636122],[-76.61810994,17.89003324],[-76.61609066,17.88099015],[-76.61298621,17.87621903],[-76.6062746,17.87098253],[-76.60607123,17.87084913],[-76.60088015,17.86879492],[-76.5941987,17.86805403],[-76.58811784,17.87046683],[-76.58073521,17.87000787],[-76.57741356,17.87158942],[-76.57143748,17.87105274],[-76.56951964,17.87299621],[-76.565521,17.87280881],[-76.56223035,17.86848783],[-76.55698323,17.86928022],[-76.54752994,17.86692226],[-76.5432868,17.86280954],[-76.54285347,17.86001313],[-76.54479003,17.85646975],[-76.53923035,17.85505366],[-76.53642356,17.85131514],[-76.53524435,17.85092306],[-76.52971315,17.84964085],[-76.52717245,17.84963882],[-76.52410305,17.85037935],[-76.51408196,17.85406256],[-76.51196218,17.85316145],[-76.5112797,17.85324276],[-76.51004791,17.85380483],[-76.50388634,17.85801876],[-76.50108814,17.86151588],[-76.49396992,17.86687708],[-76.48666251,17.86634314],[-76.48491776,17.86740851],[-76.47977054,17.86646438],[-76.46880782,17.87213445],[-76.46153796,17.87086976],[-76.44610202,17.8735435],[-76.44318986,17.87264085],[-76.44177282,17.87090397],[-76.43422842,17.87113035],[-76.42363346,17.87497056],[-76.41692805,17.87499893],[-76.41223276,17.87841225],[-76.40135324,17.88107646],[-76.39808321,17.88009572],[-76.39595795,17.88061237],[-76.38651812,17.87552583],[-76.38352394,17.87604356],[-76.376616,17.87346935],[-76.37375522,17.86930954],[-76.3672322,17.8699491],[-76.35020852,17.86568427],[-76.34944975,17.86273313],[-76.35143435,17.86156261],[-76.34983766,17.85903692],[-76.34895885,17.85996211],[-76.34660411,17.85857034],[-76.34617865,17.860605],[-76.34405327,17.86129642],[-76.34180772,17.85939753],[-76.33840764,17.85915995],[-76.33765483,17.85984564],[-76.33889616,17.86118233],[-76.34155536,17.86237121],[-76.33874083,17.86490476],[-76.33901584,17.86589277],[-76.33283198,17.86406791],[-76.33413947,17.86663735],[-76.33276105,17.87102175],[-76.33556688,17.87817264],[-76.3347342,17.8820858],[-76.33062482,17.88601494],[-76.32408452,17.88786435],[-76.31823707,17.89152515],[-76.31641567,17.89034045],[-76.31621635,17.88758183],[-76.32135546,17.87399316],[-76.31945705,17.87299061],[-76.31967378,17.87016952],[-76.31767905,17.86843502],[-76.31487167,17.86943555],[-76.30883515,17.86871195],[-76.3061974,17.87104797],[-76.3041321,17.86997998],[-76.30122435,17.87001085],[-76.30046535,17.87028885],[-76.2944808,17.87636554],[-76.2890625,17.87806904],[-76.28862298,17.87806904],[-76.28578722,17.88126576],[-76.28439116,17.88224637],[-76.28157127,17.88343668],[-76.27765393,17.88417804],[-76.27172494,17.88385475],[-76.27019358,17.88337004],[-76.27003443,17.88322926],[-76.26924193,17.87973261],[-76.26449156,17.88021827],[-76.26145291,17.88099205],[-76.25993836,17.88200545],[-76.25487626,17.88975835],[-76.24819326,17.89146197],[-76.23937404,17.89040911],[-76.23620296,17.89226675],[-76.23354125,17.89227295],[-76.22891772,17.90030372],[-76.22502625,17.90370595],[-76.21650744,17.90408921],[-76.20899391,17.9068892],[-76.20512188,17.90678906],[-76.20190525,17.90380681],[-76.19315815,17.90005195],[-76.19148505,17.89988256],[-76.18842721,17.90075576],[-76.18802035,17.9015125],[-76.18808925,17.90241551],[-76.19123745,17.90436625],[-76.19112575,17.90683413],[-76.19066215,17.90747225],[-76.18844605,17.90845025],[-76.18772483,17.90838313],[-76.18452573,17.9067831],[-76.18420756,17.90695298],[-76.18334293,17.90818906],[-76.18180954,17.91167903],[-76.18181431,17.9125514],[-76.18235815,17.91522181],[-76.18391275,17.91951466],[-76.18406916,17.91964555],[-76.18682015,17.92071402],[-76.19253623,17.92044663],[-76.19398165,17.92282402],[-76.19443345,17.9296875],[-76.19464791,17.9296875],[-76.19469786,17.93044341],[-76.20114303,17.93593526],[-76.20144868,17.93605483],[-76.20586872,17.93607688],[-76.21502054,17.93419898],[-76.22251236,17.93504751],[-76.22296238,17.93521094],[-76.23278892,17.94275665],[-76.23562586,17.94737422],[-76.23667717,17.95082533],[-76.23679554,17.95223463],[-76.23455584,17.95717072],[-76.23469281,17.96103036],[-76.23254085,17.96395612],[-76.23545611,17.96991885],[-76.23267114,17.97215152],[-76.23121202,17.97484601],[-76.23142004,17.97531235],[-76.23312223,17.97680294],[-76.23385036,17.97693658],[-76.23844576,17.97653043],[-76.24387658,17.98060822],[-76.24787581,17.98830915],[-76.25072241,17.99141312],[-76.24861908,17.99395215],[-76.25572586,17.99927068],[-76.25817633,17.99871933],[-76.25745726,18.00267816],[-76.25770903,18.00317121],[-76.26008415,18.00416076],[-76.26033461,18.00437474],[-76.26193082,18.00742984],[-76.26525366,18.00860727],[-76.26663816,18.00996184],[-76.26691997,18.01045024],[-76.26734078,18.01292944],[-76.26552165,18.01429248],[-76.26569235,18.01615095],[-76.2694329,18.01464534],[-76.27146006,18.0150516],[-76.27161145,18.01541686],[-76.27169704,18.01617265],[-76.26976371,18.01762402],[-76.27091157,18.02274406],[-76.26891923,18.02419496],[-76.26939535,18.03054357],[-76.27476835,18.03385591],[-76.27857125,18.03333867],[-76.27741182,18.03510296],[-76.27809274,18.03991282],[-76.27687442,18.04083967],[-76.27446544,18.04014695],[-76.27272487,18.03626156],[-76.2707293,18.03599536],[-76.27150166,18.04642665],[-76.27226365,18.04843307],[-76.27288234,18.04918861],[-76.27878284,18.05155754],[-76.27976036,18.05701375],[-76.28262365,18.05787313],[-76.28219092,18.06460893],[-76.28497767,18.06575441],[-76.28412223,18.06758594],[-76.28501117,18.06977272],[-76.28513074,18.07000101],[-76.28858686,18.07144964],[-76.28880477,18.07458794],[-76.2890625,18.07477665],[-76.29186487,18.07692444],[-76.29214346,18.07945955],[-76.29524803,18.08171511],[-76.30030978,18.08834183],[-76.30205643,18.08901262],[-76.30649245,18.09610617],[-76.31109214,18.09813082],[-76.31191695,18.10218251],[-76.31427026,18.10256445],[-76.31635082,18.10486424],[-76.31662452,18.10546875],[-76.31664753,18.10546875],[-76.31804144,18.11113584],[-76.31671643,18.1151669],[-76.31816936,18.11784124],[-76.3170073,18.12157941],[-76.31902623,18.12597656],[-76.32051325,18.12726188],[-76.32494652,18.12645638],[-76.32602453,18.12679422],[-76.32725072,18.12734938],[-76.33033192,18.12925303],[-76.33286762,18.13210905],[-76.33302665,18.1324892],[-76.33141196,18.14538884],[-76.33253098,18.14949524],[-76.33482766,18.15066016],[-76.33371937,18.15147495],[-76.33367467,18.15182817],[-76.33420575,18.15286171],[-76.33478725,18.15346801],[-76.3376199,18.15580857],[-76.34032583,18.15502596],[-76.34143138,18.15618563],[-76.34517086,18.15339196],[-76.34572232,18.15321386],[-76.35024846,18.15293157],[-76.35142231,18.15348971],[-76.35281384,18.15483034],[-76.35132301,18.15817535],[-76.35301292,18.15902531],[-76.35475707,18.15836072],[-76.35396886,18.16026211],[-76.35600185,18.16531885],[-76.35988164,18.16888511],[-76.36382163,18.17069042],[-76.37155485,18.17279255],[-76.37222433,18.17286217],[-76.3754009,18.17068946],[-76.37722504,18.17461085],[-76.38118982,18.17256725],[-76.38139164,18.17432845],[-76.38323414,18.17496991],[-76.38521337,18.17132831],[-76.38885212,18.17377758],[-76.39367747,18.17358375],[-76.39496303,18.17453277],[-76.39267325,18.17820227],[-76.39375865,18.17953897],[-76.39720571,18.17611277],[-76.40157413,18.17846084],[-76.40297782,18.17803657],[-76.40269816,18.17422247],[-76.40351284,18.17357516],[-76.40840733,18.17843747],[-76.40869606,18.17884088],[-76.40766752,18.18064845],[-76.40775776,18.18098915],[-76.40857816,18.18155324],[-76.40928984,18.18151701],[-76.41162348,18.17840362],[-76.41652667,18.17837465],[-76.41708195,18.17801595],[-76.41916013,18.17456245],[-76.42022991,18.17412066],[-76.42087305,18.17426646],[-76.42213798,18.17592025],[-76.42199755,18.17623556],[-76.41826916,18.17975914],[-76.42320478,18.18491864],[-76.43570864,18.18415308],[-76.4364382,18.18567717],[-76.44003201,18.18648911],[-76.43929255,18.18914044],[-76.44067454,18.1877892],[-76.44272792,18.18898606],[-76.44382358,18.18758941],[-76.44393337,18.18702543],[-76.44370008,18.18541348],[-76.44034123,18.18245244],[-76.44081521,18.17952943],[-76.44110668,18.17903435],[-76.44297957,18.17776585],[-76.44414926,18.17730892],[-76.44709897,18.17696321],[-76.4476757,18.17708504],[-76.45005596,18.17865574],[-76.45067823,18.18035698],[-76.45060635,18.18078911],[-76.44852686,18.18397295],[-76.44897974,18.18494964],[-76.45331693,18.18328285],[-76.45329332,18.17980528],[-76.45364881,18.17943621],[-76.45450592,18.17960644],[-76.45709872,18.18120396],[-76.46003735,18.18481183],[-76.46284008,18.18393958],[-76.46329486,18.18394363],[-76.46560073,18.18481874],[-76.46610224,18.18530822],[-76.46680844,18.18647277],[-76.46704078,18.19075131],[-76.47024226,18.19115305],[-76.47107983,18.19256461],[-76.47060633,18.19548702],[-76.47595823,18.20087504],[-76.47816086,18.20579505],[-76.48052824,18.20739937],[-76.48082566,18.20744765],[-76.49110794,18.20672142],[-76.49554765,18.20836234],[-76.50118554,18.2068243],[-76.50295424,18.20590711],[-76.50384414,18.20323455],[-76.50846386,18.20279443],[-76.50873601,18.20045865],[-76.51201916,18.20221972],[-76.51337624,18.20190251],[-76.51888025,18.19628227],[-76.52237546,18.19634974],[-76.52727795,18.19824111],[-76.53489888,18.20609307],[-76.53840244,18.20726585],[-76.54133618,18.20574176],[-76.54299188,18.20146942],[-76.54787087,18.19984972],[-76.55423105,18.20151901],[-76.55804324,18.2039535],[-76.56736243,18.20330393],[-76.57582843,18.20790815],[-76.58010912,18.21304655],[-76.58311582,18.21897817],[-76.58534181,18.21999216],[-76.59728885,18.23551214],[-76.60086966,18.23204303],[-76.60572207,18.23174477],[-76.60918915,18.22907341],[-76.61547434,18.2282927],[-76.61843646,18.22928691],[-76.62228406,18.22830641],[-76.6249094,18.22913992],[-76.63024664,18.22715068],[-76.64067185,18.22764695],[-76.640625,18.22767854],[-76.64425194,18.22758901],[-76.64874065,18.22974777],[-76.65460145,18.23601437],[-76.66239166,18.2403928],[-76.66846395,18.24877214],[-76.67052877,18.25467014],[-76.67101467,18.25527692],[-76.67727566,18.25936425],[-76.67821884,18.26214004],[-76.68026614,18.26429617],[-76.68095708,18.26481044],[-76.68539011,18.26683176],[-76.68582606,18.2669481],[-76.69972467,18.26665127],[-76.70225167,18.26851165],[-76.70859706,18.27199745],[-76.71437264,18.26838791],[-76.717628,18.26428413],[-76.72166646,18.26357985],[-76.72580636,18.2651571],[-76.73225903,18.27062976],[-76.73699164,18.27025723],[-76.73961842,18.27289116],[-76.74465585,18.27486157],[-76.75011206,18.27979314],[-76.75764024,18.27478898],[-76.76299965,18.27548242],[-76.76523662,18.27347136],[-76.77254236,18.27227855],[-76.77575982,18.27042151],[-76.77633131,18.27042842],[-76.78048217,18.27187407],[-76.78911471,18.28125],[-76.78965676,18.28125],[-76.79297304,18.28749168],[-76.79311848,18.28780532],[-76.79411685,18.29102457],[-76.79319406,18.29507577],[-76.79620862,18.30232036],[-76.79958236,18.30433857],[-76.8003695,18.30786824],[-76.802935,18.31038904],[-76.81041551,18.31402504],[-76.80562878,18.31737661],[-76.80224252,18.32349431],[-76.80755234,18.32625401],[-76.80544746,18.32853615],[-76.80759466,18.33069682],[-76.80797195,18.33279693],[-76.81463897,18.33244574],[-76.82516885,18.33640015],[-76.83412063,18.3426547],[-76.83612931,18.34251702],[-76.83761144,18.34791636],[-76.83896196,18.34909284],[-76.84075654,18.34859526],[-76.84180987,18.34631336],[-76.84387136,18.34721255],[-76.84389591,18.34974146],[-76.85058832,18.35501218],[-76.85383225,18.35549521],[-76.85875428,18.36050975],[-76.86037087,18.36025536],[-76.86044836,18.36240983],[-76.86267483,18.36302984],[-76.86508107,18.36566532],[-76.86955881,18.36569071],[-76.87098074,18.36882734],[-76.87443686,18.37063217],[-76.87417316,18.37362134],[-76.87442243,18.37374234],[-76.87847948,18.37169635],[-76.87793374,18.36914527],[-76.88171041,18.36837888],[-76.89034426,18.37239778],[-76.89057314,18.37253106],[-76.89195502,18.37427306],[-76.8925184,18.37573075],[-76.89235055,18.37627614],[-76.88917041,18.37919748],[-76.88987136,18.38014734],[-76.89302075,18.37979305],[-76.89326203,18.3801136],[-76.89345515,18.38095558],[-76.89188313,18.38242877],[-76.89388883,18.38347101],[-76.89497054,18.38543165],[-76.89503825,18.38575745],[-76.89438343,18.39102995],[-76.89074504,18.39574265],[-76.89058363,18.39589608],[-76.88651288,18.39847446],[-76.88642275,18.39887536],[-76.88748312,18.40138745],[-76.88703036,18.40565598],[-76.88757575,18.40756702],[-76.8900485,18.40982592],[-76.89642096,18.41309202],[-76.90332031,18.4139713],[-76.90777612,18.41271734],[-76.91515744,18.41512263],[-76.91674614,18.41536832],[-76.92711413,18.41594684],[-76.92762494,18.41594446],[-76.93919301,18.41480315],[-76.94194317,18.41250742],[-76.94806337,18.41035712],[-76.94965768,18.40886807],[-76.94742572,18.40832984],[-76.94710696,18.40727723],[-76.94924438,18.40692365],[-76.95092261,18.40377808],[-76.95135677,18.40337026],[-76.95417583,18.40177155],[-76.95712185,18.40183365],[-76.95828331,18.40367675],[-76.96367431,18.40679312],[-76.97467971,18.40706074],[-76.97857106,18.40578425],[-76.97942233,18.40586245],[-76.98993635,18.40851748],[-76.99078882,18.4090234],[-76.99204636,18.41045773],[-76.9921875,18.41043532],[-77.00646555,18.41373372],[-77.00705564,18.4137181],[-77.00944352,18.41286051],[-77.00940835,18.41082776],[-77.00974154,18.41043508],[-77.01208222,18.40965855],[-77.01526165,18.41074371],[-77.01802886,18.41343212],[-77.02183521,18.41920543],[-77.02578902,18.41986394],[-77.02997172,18.41895902],[-77.03470111,18.4208498],[-77.03869843,18.42079055],[-77.04580832,18.42403603],[-77.05003607,18.42196572],[-77.05383456,18.42224562],[-77.05597615,18.41877592],[-77.06169915,18.41957557],[-77.06641567,18.41916966],[-77.06899202,18.41780436],[-77.07047212,18.41900885],[-77.07111025,18.419052],[-77.07241845,18.4181807],[-77.07161891,18.41585386],[-77.07196546,18.41567278],[-77.07412171,18.41475105],[-77.07703757,18.41543043],[-77.08096254,18.41243851],[-77.09088314,18.41403461],[-77.1006633,18.41297436],[-77.10454857,18.41370666],[-77.10650635,18.41226625],[-77.10605371,18.40995801],[-77.10820627,18.40822983],[-77.11050236,18.40952337],[-77.11186612,18.4074589],[-77.11301172,18.40833914],[-77.11314666,18.41046715],[-77.11504781,18.41163015],[-77.12338817,18.41297364],[-77.12555754,18.41525376],[-77.13246107,18.4180932],[-77.13781893,18.41760886],[-77.14122558,18.41957235],[-77.14254701,18.42212367],[-77.15059936,18.42274356],[-77.15370691,18.42583025],[-77.15817034,18.42578375],[-77.16251981,18.43048632],[-77.16845202,18.43447983],[-77.16948974,18.43909276],[-77.17038548,18.43983197],[-77.17067242,18.43998575],[-77.17333007,18.44017947],[-77.18050754,18.44344401],[-77.1826843,18.44233143],[-77.18447387,18.44419074],[-77.18552411,18.44438863],[-77.18637717,18.44431686],[-77.1885221,18.44345212],[-77.18881452,18.44059861],[-77.19427705,18.44070876],[-77.20008552,18.43849218],[-77.20279861,18.43862891],[-77.20784605,18.44493437],[-77.20829797,18.44511127],[-77.21281743,18.44579935],[-77.21955836,18.44478524],[-77.21991825,18.44490862],[-77.22260118,18.44687593],[-77.22385335,18.44871688],[-77.22361195,18.45118594],[-77.22342432,18.4521476],[-77.22160947,18.45344198],[-77.22175276,18.45368135],[-77.22309196,18.45442462],[-77.22363257,18.45458424],[-77.22626126,18.4538604],[-77.23322535,18.45703125],[-77.23313284,18.45703125],[-77.23556685,18.45835948],[-77.24017155,18.45923376],[-77.24839008,18.45872176],[-77.24877644,18.46075165],[-77.25079358,18.46172595],[-77.25593293,18.45982134],[-77.25905824,18.46210873],[-77.26267958,18.46207702],[-77.26897061,18.46618187],[-77.27128506,18.46463478],[-77.27847648,18.46521378],[-77.28206265,18.46718025],[-77.28691161,18.46695006],[-77.29122496,18.46847832],[-77.29559934,18.46799147],[-77.30498075,18.46963978],[-77.31221402,18.47340405],[-77.31648445,18.47096396],[-77.32039583,18.46545148],[-77.32261777,18.46445453],[-77.33311832,18.46478272],[-77.33566201,18.46348965],[-77.34375,18.46316958],[-77.34633803,18.46393871],[-77.34675205,18.46394026],[-77.34973037,18.46321392],[-77.35246921,18.46213925],[-77.35369194,18.46024525],[-77.35422266,18.46027112],[-77.35512662,18.46157396],[-77.35786355,18.46080995],[-77.36194062,18.46168792],[-77.37509632,18.46963882],[-77.38123322,18.46950114],[-77.38375604,18.46804965],[-77.38910103,18.46743584],[-77.39568841,18.47078705],[-77.40129602,18.47082794],[-77.40310752,18.46943974],[-77.39977097,18.46466505],[-77.39969873,18.46214402],[-77.39997637,18.46163356],[-77.40401638,18.46001518],[-77.40714204,18.45961726],[-77.40841877,18.45972896],[-77.40949416,18.46009862],[-77.40973401,18.46044624],[-77.41006351,18.46274114],[-77.41332746,18.46137607],[-77.41365695,18.46159852],[-77.41397345,18.46202505],[-77.41479135,18.46839762],[-77.41644585,18.47095263],[-77.42469096,18.47324383],[-77.4350872,18.47944605],[-77.43536115,18.47954595],[-77.44442022,18.47964621],[-77.44917285,18.47783828],[-77.45164335,18.47058105],[-77.45198596,18.47005045],[-77.45474732,18.46903741],[-77.45544064,18.47022867],[-77.45551634,18.47152293],[-77.45618165,18.47175443],[-77.45761764,18.47067213],[-77.45911646,18.47683251],[-77.46596527,18.4814862],[-77.47386324,18.48206425],[-77.47904813,18.48360074],[-77.48108757,18.48106694],[-77.48422921,18.48146415],[-77.48842525,18.4794445],[-77.49514878,18.47970605],[-77.500265,18.48133278],[-77.50438094,18.48572981],[-77.51164746,18.48332906],[-77.52450252,18.48328924],[-77.53717983,18.48699474],[-77.54009652,18.48985624],[-77.55429316,18.49179912],[-77.5625447,18.48858964],[-77.58277392,18.49048424],[-77.58926833,18.48723745],[-77.59535873,18.48812532],[-77.59850395,18.48686433],[-77.59962416,18.48449135],[-77.60713005,18.48382521],[-77.61790907,18.48968852],[-77.62230802,18.48945212],[-77.62838316,18.49355304],[-77.63249958,18.49358296],[-77.63475394,18.49153221],[-77.63894475,18.49226046],[-77.63984537,18.49120557],[-77.63626623,18.48890996],[-77.63263476,18.4905864],[-77.63047242,18.49028575],[-77.62627804,18.48739266],[-77.62539577,18.48484933],[-77.63542247,18.48236156],[-77.64725947,18.48705435],[-77.6490525,18.49126804],[-77.64924145,18.49155414],[-77.65347791,18.49663556],[-77.65400827,18.49673963],[-77.66204405,18.49696183],[-77.66624951,18.49422145],[-77.66896451,18.49680996],[-77.68941557,18.49688077],[-77.69264758,18.49607945],[-77.69114268,18.49436617],[-77.68753922,18.49387634],[-77.68581974,18.49252582],[-77.67750537,18.49327707],[-77.68190217,18.48657882],[-77.68722951,18.48820984],[-77.69192254,18.49143922],[-77.69392872,18.49139452],[-77.6953125,18.4921875],[-77.69610775,18.49220097],[-77.69960904,18.49591541],[-77.70873177,18.50007558],[-77.71140337,18.50442195],[-77.71577096,18.50704694],[-77.72910714,18.51093316],[-77.7323513,18.51011801],[-77.73301196,18.51036334],[-77.74239731,18.51290596],[-77.74306726,18.5129683],[-77.7463814,18.51214695],[-77.75555718,18.51243246],[-77.76901984,18.51632607],[-77.77523315,18.51599145],[-77.7804805,18.51778924],[-77.78220916,18.51704586],[-77.78271616,18.51829672],[-77.78781128,18.5203197],[-77.79515111,18.51928175],[-77.81269646,18.52334011],[-77.81868017,18.52418375],[-77.82573175,18.52476037],[-77.83604908,18.52504206]],[[-77.11190116,18.41098964],[-77.11141062,18.41004002],[-77.11056495,18.41023171],[-77.10906064,18.41196597],[-77.10918236,18.41248906],[-77.11006534,18.41270924],[-77.11190116,18.41098964]],[[-76.45731056,18.18563855],[-76.45498133,18.18476617],[-76.45029545,18.18597853],[-76.44989562,18.18627286],[-76.44920087,18.18777525],[-76.45137405,18.18922985],[-76.45164776,18.18937874],[-76.45583272,18.18802714],[-76.45748115,18.18613863],[-76.45731056,18.18563855]],[[-76.82048202,17.94350994],[-76.81953037,17.94342577],[-76.81925094,17.94383693],[-76.81950295,17.94553983],[-76.82086015,17.94667745],[-76.82199252,17.94705451],[-76.82458723,17.94714141],[-76.82048202,17.94350994]],[[-77.14484131,17.84955573],[-77.14539194,17.84969604],[-77.15013123,17.84734142],[-77.15035665,17.84719622],[-77.15094316,17.84602118],[-77.15094125,17.84566927],[-77.14943981,17.84557974],[-77.14786494,17.84564435],[-77.14670944,17.84617817],[-77.14632678,17.84647357],[-77.1445651,17.84925985],[-77.14484131,17.84955573]],[[-77.04351318,17.86687052],[-77.04324234,17.87102723],[-77.04638958,17.87535667],[-77.04831493,17.87747645],[-77.05426586,17.87933481],[-77.05630565,17.88161385],[-77.05932081,17.8828721],[-77.06135917,17.88787603],[-77.06328642,17.89116561],[-77.06410563,17.89148617],[-77.06742597,17.88898802],[-77.07197082,17.88766575],[-77.07520151,17.88849711],[-77.08214128,17.88625515],[-77.08224261,17.88571465],[-77.07862174,17.88393176],[-77.07818174,17.88077474],[-77.07399535,17.88109624],[-77.07019532,17.87935805],[-77.06607175,17.87498105],[-77.06428063,17.87511814],[-77.05339003,17.86318326],[-77.04952967,17.85995293],[-77.0491153,17.85995126],[-77.04417348,17.86453795],[-77.04351318,17.86687052]],[[-77.04231095,17.89480758],[-77.04251385,17.8953135],[-77.04695261,17.89460695],[-77.04541695,17.89375401],[-77.04465127,17.89383352],[-77.04231095,17.89480758]],[[-77.14043927,17.82802105],[-77.13907838,17.82719421],[-77.13699925,17.82717991],[-77.13649094,17.82741725],[-77.13521767,17.82936204],[-77.13522255,17.83029306],[-77.1355412,17.83276403],[-77.13709128,17.83353102],[-77.13910008,17.83283973],[-77.13986874,17.83024883],[-77.14097154,17.82877624],[-77.14043927,17.82802105]],[[-77.07770574,17.79623294],[-77.07429421,17.79420924],[-77.07248843,17.79440212],[-77.07126391,17.79646945],[-77.07180274,17.79802907],[-77.07269144,17.79858828],[-77.07389891,17.79896116],[-77.07770574,17.79623294]],[[-78.34584022,18.33769846],[-78.34774208,18.33965123],[-78.34900475,18.33740962],[-78.34787107,18.33654225],[-78.34750593,18.33661437],[-78.34691942,18.33711922],[-78.34584022,18.33769846]],[[-77.94094145,18.44792843],[-77.94001985,18.44727647],[-77.93737996,18.44729745],[-77.93582547,18.44867921],[-77.93581223,18.44914317],[-77.93707037,18.45039141],[-77.93891013,18.45000243],[-77.94100153,18.44823027],[-77.94094145,18.44792843]],[[-75.97283232,17.41588962],[-75.97232032,17.41241777],[-75.971946,17.41244042],[-75.96988487,17.41468537],[-75.97046006,17.41684437],[-75.97283232,17.41588962]],[[-75.98441803,17.39160001],[-75.98215294,17.38935053],[-75.98053348,17.38944316],[-75.98102701,17.39205575],[-75.98285055,17.39366007],[-75.98338175,17.39373612],[-75.98441803,17.39160001]],[[-76.00239396,17.38303184],[-76.00121355,17.38267767],[-76.00060654,17.38296735],[-76.0003705,17.38373995],[-76.00084257,17.38406181],[-76.0020231,17.38412607],[-76.00239396,17.38303184]],[[-77.75179207,17.04907],[-77.75050795,17.04698491],[-77.75058222,17.05009031],[-77.75104785,17.05049264],[-77.75157666,17.05054295],[-77.75179207,17.04907]],[[-77.78626406,17.02179718],[-77.78467536,17.02038956],[-77.78401172,17.02069235],[-77.783234,17.02280486],[-77.78551412,17.02278602],[-77.78649223,17.02230382],[-77.78626406,17.02179718]],[[-77.80751586,16.98830724],[-77.80645013,16.98777068],[-77.804515,16.99023843],[-77.8061136,16.99369836],[-77.80729151,16.99404705],[-77.80785227,16.99415445],[-77.80827296,16.99361801],[-77.80751586,16.98830724]],[[-77.82363486,16.94616973],[-77.82318628,16.94614291],[-77.82293403,16.94630384],[-77.82268155,16.94643795],[-77.82206476,16.94649148],[-77.82217705,16.94670606],[-77.82262564,16.94692075],[-77.82321441,16.94689393],[-77.82360685,16.94689393],[-77.82391536,16.94708157],[-77.8241117,16.94702804],[-77.8242799,16.94686711],[-77.82419574,16.94635737],[-77.82363486,16.94616973]]]]},"geometry_name":"the_geom","properties":{"mrgid":8459,"geoname":"Jamaican Exclusive Economic Zone","mrgid_ter1":8682,"pol_type":"200NM","mrgid_sov1":8682,"territory1":"Jamaica","iso_ter1":"JAM","sovereign1":"Jamaica","mrgid_ter2":null,"mrgid_sov2":null,"territory2":null,"iso_ter2":null,"sovereign2":null,"mrgid_ter3":null,"mrgid_sov3":null,"territory3":null,"iso_ter3":null,"sovereign3":null,"x_1":-77.29089,"y_1":16.66861,"mrgid_eez":8459,"area_km2":256909,"iso_sov1":"JAM","iso_sov2":null,"iso_sov3":null,"un_sov1":388,"un_sov2":null,"un_sov3":null,"un_ter1":388,"un_ter2":null,"un_ter3":null}},{"type":"Feature","id":"eez.130","geometry":{"type":"MultiPolygon","coordinates":[[[[-78.43055556,15.89297619],[-78.43083333,15.89416667],[-78.43277778,15.90222222],[-78.43527778,15.91027778],[-78.43805556,15.91833333],[-78.44111111,15.92638889],[-78.44472222,15.93416667],[-78.44861111,15.94166667],[-78.45277778,15.94916667],[-78.45722222,15.95638889],[-78.46194444,15.96361111],[-78.46722222,15.97055556],[-78.4725,15.97722222],[-78.47805556,15.98361111],[-78.48416667,15.98972222],[-78.49027778,15.99583333],[-78.49694444,16.00138889],[-78.50361111,16.00694444],[-78.51055556,16.01194444],[-78.51777778,16.01694444],[-78.525,16.02138889],[-78.5325,16.02583333],[-78.54027778,16.02972222],[-78.54833333,16.03333333],[-78.55638889,16.03666667],[-78.56444444,16.03972222],[-78.57277778,16.04222222],[-78.58138889,16.04444444],[-78.58972222,16.04638889],[-78.59833333,16.04805556],[-78.60722222,16.04944444],[-78.61583333,16.05027778],[-78.62444444,16.05083333],[-78.63333333,16.05083333],[-78.64222222,16.05083333],[-78.65083333,16.05027778],[-78.65944444,16.04944444],[-78.66833333,16.04805556],[-78.67694444,16.04638889],[-78.68527778,16.04444444],[-78.69388889,16.04222222],[-78.70222222,16.03972222],[-78.71027778,16.03666667],[-78.71833333,16.03333333],[-78.72638889,16.02972222],[-78.73416667,16.02583333],[-78.74166667,16.02138889],[-78.74888889,16.01694444],[-78.75611111,16.01194444],[-78.76305556,16.00694444],[-78.76972222,16.00138889],[-78.77638889,15.99583333],[-78.7825,15.98972222],[-78.78861111,15.98361111],[-78.79416667,15.97722222],[-78.79944444,15.97055556],[-78.80472222,15.96361111],[-78.80944444,15.95638889],[-78.81388889,15.94916667],[-78.81805556,15.94166667],[-78.82194444,15.93416667],[-78.82555556,15.92638889],[-78.82861111,15.91833333],[-78.83138889,15.91027778],[-78.83388889,15.90222222],[-78.83583333,15.89416667],[-78.83777778,15.88583333],[-78.83916667,15.87722222],[-78.84,15.86888889],[-78.84055556,15.86055556],[-78.84083333,15.85194444],[-78.84083333,15.84361111],[-78.84027778,15.835],[-78.83944444,15.82666667],[-78.83833333,15.81833333],[-78.83666667,15.81],[-78.83472222,15.80166667],[-78.8325,15.79333333],[-78.83,15.78527778],[-78.82694444,15.7775],[-78.82361111,15.76972222],[-78.82,15.76194444],[-78.81583333,15.75444444],[-78.81166667,15.74694444],[-78.80694444,15.73972222],[-78.80194444,15.73277778],[-78.79666667,15.72611111],[-78.79111111,15.71944444],[-78.78527778,15.71305556],[-78.77916667,15.70722222],[-78.77277778,15.70138889],[-78.76638889,15.69583333],[-78.75944444,15.69027778],[-78.7525,15.68527778],[-78.74527778,15.68055556],[-78.73777778,15.67638889],[-78.73,15.67222222],[-78.72222222,15.66833333],[-78.71416667,15.665],[-78.70611111,15.66166667],[-78.69777778,15.65888889],[-78.68944444,15.65638889],[-78.68111111,15.65444444],[-78.6725,15.6525],[-78.66388889,15.65111111],[-78.65527778,15.65027778],[-78.64638889,15.64944444],[-78.63777778,15.64916667],[-78.62888889,15.64916667],[-78.62027778,15.64944444],[-78.61138889,15.65027778],[-78.60277778,15.65111111],[-78.59416667,15.6525],[-78.58555556,15.65444444],[-78.57722222,15.65638889],[-78.56888889,15.65888889],[-78.56055556,15.66166667],[-78.5525,15.665],[-78.54444444,15.66833333],[-78.53666667,15.67222222],[-78.52888889,15.67638889],[-78.52138889,15.68055556],[-78.51416667,15.68527778],[-78.50722222,15.69027778],[-78.50027778,15.69583333],[-78.49388889,15.70138889],[-78.4875,15.70722222],[-78.48138889,15.71305556],[-78.47555556,15.71944444],[-78.47,15.72611111],[-78.46472222,15.73277778],[-78.45972222,15.73972222],[-78.455,15.74694444],[-78.45083333,15.75444444],[-78.44666667,15.76194444],[-78.44305556,15.76972222],[-78.43972222,15.7775],[-78.43666667,15.78527778],[-78.43416667,15.79333333],[-78.43194444,15.80166667],[-78.43055556,15.80761905],[-78.43055556,15.6],[-78.63333333,15.6],[-78.63333333,14.49361111],[-79.241929,14.966053],[-79.93333333,15.50277778],[-80.01819444,15.6725],[-80.01333333,15.66666667],[-80.0075,15.66027778],[-80.00138889,15.65444444],[-79.995,15.64861111],[-79.98861111,15.64305556],[-79.98166667,15.6375],[-79.97472222,15.6325],[-79.96722222,15.62777778],[-79.96,15.62361111],[-79.95222222,15.61944444],[-79.94444444,15.61555556],[-79.93638889,15.61222222],[-79.92833333,15.60888889],[-79.92,15.60611111],[-79.91166667,15.60361111],[-79.90333333,15.60166667],[-79.89472222,15.59972222],[-79.88611111,15.59833333],[-79.8775,15.59722222],[-79.86861111,15.59666667],[-79.86,15.59638889],[-79.85111111,15.59638889],[-79.8425,15.59666667],[-79.83361111,15.59722222],[-79.825,15.59833333],[-79.81638889,15.59972222],[-79.80777778,15.60166667],[-79.79944444,15.60361111],[-79.79111111,15.60611111],[-79.78277778,15.60888889],[-79.77472222,15.61222222],[-79.76666667,15.61555556],[-79.75888889,15.61944444],[-79.75111111,15.62361111],[-79.74388889,15.62777778],[-79.73638889,15.6325],[-79.72944444,15.6375],[-79.7225,15.64305556],[-79.71611111,15.64861111],[-79.70972222,15.65444444],[-79.70361111,15.66027778],[-79.69777778,15.66666667],[-79.69222222,15.67333333],[-79.68694444,15.68],[-79.68194444,15.68694444],[-79.6775,15.69416667],[-79.67305556,15.70166667],[-79.66916667,15.70916667],[-79.66527778,15.71694444],[-79.66194444,15.72472222],[-79.65916667,15.7325],[-79.65638889,15.74055556],[-79.65416667,15.74888889],[-79.65222222,15.75722222],[-79.65055556,15.76555556],[-79.64944444,15.77388889],[-79.64861111,15.78222222],[-79.64805556,15.79083333],[-79.64805556,15.79916667],[-79.64833333,15.80777778],[-79.64888889,15.81611111],[-79.65,15.82444444],[-79.65138889,15.83305556],[-79.65305556,15.84138889],[-79.655,15.84944444],[-79.6575,15.8575],[-79.66027778,15.86555556],[-79.66361111,15.87361111],[-79.66694444,15.88138889],[-79.67083333,15.88888889],[-79.675,15.89638889],[-79.67944444,15.90361111],[-79.68416667,15.91083333],[-79.68944444,15.91777778],[-79.69472222,15.92444444],[-79.70055556,15.93083333],[-79.70638889,15.93694444],[-79.7125,15.94305556],[-79.71916667,15.94861111],[-79.72583333,15.95416667],[-79.73277778,15.95916667],[-79.74,15.96416667],[-79.74722222,15.96861111],[-79.75472222,15.97305556],[-79.7625,15.97694444],[-79.77055556,15.98055556],[-79.77861111,15.98388889],[-79.78666667,15.98694444],[-79.795,15.98944444],[-79.80361111,15.99166667],[-79.81194444,15.99361111],[-79.82055556,15.99527778],[-79.82944444,15.99666667],[-79.83805556,15.9975],[-79.84666667,15.99805556],[-79.85555556,15.99833333],[-79.86444444,15.99805556],[-79.87305556,15.9975],[-79.88166667,15.99666667],[-79.89055556,15.99527778],[-79.89916667,15.99361111],[-79.9075,15.99166667],[-79.91611111,15.98944444],[-79.92444444,15.98694444],[-79.9325,15.98388889],[-79.94055556,15.98055556],[-79.94220555,15.9798159],[-79.84222222,16.07083333],[-79.48888889,16.07083333],[-79.48888889,16.16944444],[-79.27777778,16.16944444],[-79.27777778,16.07083333],[-78.43055556,16.07083333],[-78.43055556,15.89297619]]]]},"geometry_name":"the_geom","properties":{"mrgid":21792,"geoname":"Joint regime area: Jamaica / Colombia","mrgid_ter1":8682,"pol_type":"Joint regime","mrgid_sov1":8682,"territory1":"Jamaica","iso_ter1":"JAM","sovereign1":"Jamaica","mrgid_ter2":2175,"mrgid_sov2":2175,"territory2":"Colombia","iso_ter2":"COL","sovereign2":"Colombia","mrgid_ter3":null,"mrgid_sov3":null,"territory3":null,"iso_ter3":null,"sovereign3":null,"x_1":-79.14572,"y_1":15.47035,"mrgid_eez":21792,"area_km2":15247,"iso_sov1":"JAM","iso_sov2":"COL","iso_sov3":null,"un_sov1":388,"un_sov2":170,"un_sov3":null,"un_ter1":388,"un_ter2":170,"un_ter3":null}}],"totalFeatures":2,"numberMatched":2,"numberReturned":2,"timeStamp":"2026-08-17T14:12:42.810Z","crs":{"type":"name","properties":{"name":"urn:ogc:def:crs:EPSG::4326"}}}